{"type":"FeatureCollection","_meta":{"source":"City of Winnipeg map API, feature set 18772 (\"District Planners\"), as drawn on the legacy PP&D Property Map","legend_title":"District Planners","contact_index":"https://www.winnipeg.ca/building-development/city-planning-design/find-district-planner","source_url":"https://legacy.winnipeg.ca/ppd/Mapping/PropertyMap/default.stm","generated_at":"2026-10-10T00:18:25.607Z"},"features":[{"type":"Feature","properties":{"division":"5","name":"Riel Community","planner":"Daniel de Moissac","email":"ddemoissac@winnipeg.ca","phone":"204-986-5235","feature_set_id":18772},"geometry":{"type":"Polygon","coordinates":[[[-97.108603,49.902686],[-97.108767,49.902215],[-97.10896,49.90187],[-97.109249,49.901517],[-97.109563,49.901263],[-97.10985,49.901066],[-97.110198,49.900869],[-97.110603,49.900725],[-97.111117,49.900616],[-97.111861,49.900498],[-97.112691,49.900428],[-97.113511,49.900407],[-97.115474,49.900393],[-97.116151,49.900422],[-97.119712,49.900641],[-97.121132,49.900708],[-97.123614,49.90091],[-97.12396,49.900897],[-97.124404,49.900851],[-97.124851,49.900771],[-97.125621,49.900604],[-97.12709,49.90025],[-97.128536,49.899864],[-97.128784,49.899764],[-97.128986,49.899683],[-97.129592,49.899371],[-97.130117,49.899048],[-97.130573,49.898707],[-97.130948,49.898303],[-97.131111,49.898048],[-97.131166,49.897912],[-97.131216,49.897787],[-97.131249,49.897306],[-97.131259,49.89671],[-97.131205,49.896157],[-97.130944,49.895553],[-97.130669,49.895137],[-97.130548,49.894956],[-97.129915,49.894317],[-97.129335,49.893775],[-97.128762,49.893098],[-97.127391,49.891313],[-97.127307,49.891226],[-97.12692,49.890823],[-97.126491,49.890419],[-97.126089,49.88982],[-97.125838,49.889264],[-97.12568,49.888691],[-97.125652,49.887944],[-97.125766,49.887331],[-97.125934,49.88685],[-97.126159,49.886473],[-97.126487,49.886097],[-97.126814,49.885781],[-97.127117,49.885487],[-97.128845,49.88395],[-97.130293,49.882751],[-97.13174,49.881552],[-97.132028,49.881284],[-97.132606,49.880691],[-97.133172,49.880194],[-97.134544,49.879084],[-97.135172,49.878501],[-97.135684,49.877912],[-97.135879,49.877636],[-97.136236,49.87713],[-97.136617,49.87651],[-97.136964,49.875861],[-97.137204,49.875125],[-97.137361,49.874236],[-97.137407,49.873579],[-97.137311,49.872933],[-97.137013,49.872252],[-97.13668,49.8717],[-97.136341,49.871314],[-97.136109,49.871115],[-97.135676,49.870886],[-97.135075,49.870624],[-97.134416,49.870405],[-97.133547,49.870161],[-97.133061,49.870096],[-97.132305,49.870054],[-97.131225,49.870095],[-97.130254,49.870179],[-97.129101,49.87037],[-97.127894,49.870544],[-97.126766,49.870677],[-97.124298,49.870932],[-97.123295,49.87101],[-97.122214,49.871071],[-97.121378,49.871093],[-97.120212,49.87106],[-97.119103,49.870992],[-97.118006,49.870866],[-97.116912,49.87069],[-97.116642,49.870628],[-97.115811,49.870435],[-97.114955,49.870136],[-97.114486,49.86989],[-97.11389,49.869483],[-97.113432,49.868965],[-97.1131,49.86847],[-97.112834,49.867854],[-97.112716,49.867218],[-97.112776,49.866134],[-97.112835,49.865806],[-97.112952,49.865477],[-97.113192,49.864972],[-97.113958,49.863684],[-97.114495,49.862699],[-97.114836,49.862145],[-97.115205,49.861668],[-97.116647,49.860093],[-97.117082,49.859694],[-97.117535,49.859322],[-97.118127,49.858912],[-97.119539,49.858077],[-97.120288,49.857708],[-97.121938,49.85702],[-97.122894,49.856645],[-97.123875,49.856338],[-97.126611,49.855656],[-97.12686,49.855594],[-97.128021,49.855341],[-97.129096,49.855142],[-97.129918,49.855007],[-97.130696,49.85491],[-97.131514,49.854863],[-97.132435,49.854837],[-97.133745,49.854831],[-97.13477,49.854854],[-97.135911,49.854859],[-97.136948,49.854835],[-97.137935,49.854774],[-97.138932,49.854691],[-97.139816,49.854567],[-97.140142,49.854521],[-97.141122,49.854347],[-97.142051,49.854159],[-97.142622,49.853997],[-97.143184,49.853812],[-97.144217,49.853334],[-97.144614,49.853061],[-97.144689,49.853009],[-97.145044,49.852608],[-97.14531,49.852174],[-97.145429,49.851755],[-97.145384,49.851359],[-97.145218,49.850986],[-97.144916,49.850674],[-97.144442,49.850417],[-97.143833,49.850213],[-97.143444,49.850148],[-97.143325,49.850135],[-97.143054,49.850107],[-97.14273,49.850106],[-97.141835,49.850208],[-97.141145,49.85034],[-97.14062,49.850479],[-97.140104,49.850652],[-97.137273,49.851814],[-97.136338,49.852164],[-97.135598,49.852369],[-97.134914,49.852486],[-97.134298,49.852534],[-97.133681,49.852547],[-97.133101,49.852532],[-97.132527,49.852489],[-97.131912,49.852411],[-97.131238,49.852278],[-97.130474,49.852074],[-97.129655,49.851772],[-97.128689,49.85133],[-97.127785,49.850861],[-97.125561,49.849647],[-97.124272,49.848888],[-97.122074,49.847652],[-97.121668,49.847403],[-97.121309,49.847135],[-97.120953,49.846837],[-97.120638,49.846513],[-97.120292,49.846119],[-97.11994,49.845673],[-97.119599,49.845136],[-97.119433,49.844665],[-97.11941,49.844179],[-97.119491,49.84372],[-97.119725,49.843241],[-97.120045,49.842826],[-97.120421,49.842507],[-97.120893,49.842156],[-97.121335,49.841917],[-97.121854,49.841718],[-97.122474,49.841577],[-97.123082,49.841525],[-97.123904,49.841533],[-97.124465,49.841592],[-97.125164,49.841685],[-97.125899,49.841849],[-97.126652,49.842057],[-97.127254,49.842259],[-97.128303,49.842646],[-97.129215,49.843025],[-97.129902,49.843237],[-97.130741,49.843437],[-97.131706,49.843564],[-97.132707,49.843642],[-97.133659,49.843663],[-97.13428,49.843624],[-97.134698,49.843563],[-97.135874,49.843267],[-97.136131,49.843151],[-97.136456,49.843005],[-97.136921,49.842663],[-97.137246,49.842274],[-97.137517,49.841764],[-97.137561,49.841444],[-97.137566,49.841148],[-97.137423,49.840585],[-97.137176,49.840139],[-97.136728,49.839714],[-97.136013,49.839218],[-97.134028,49.837897],[-97.133296,49.837369],[-97.132809,49.836969],[-97.132267,49.836417],[-97.131878,49.835918],[-97.131714,49.835707],[-97.131314,49.835085],[-97.131116,49.834594],[-97.131084,49.834105],[-97.131231,49.833424],[-97.131467,49.832985],[-97.131764,49.832651],[-97.132139,49.832329],[-97.132885,49.831865],[-97.133773,49.831498],[-97.134641,49.831253],[-97.135605,49.831141],[-97.136487,49.831166],[-97.137652,49.831272],[-97.13878,49.831422],[-97.13952,49.831562],[-97.140627,49.831815],[-97.142167,49.832093],[-97.142931,49.832213],[-97.143686,49.832258],[-97.144642,49.832222],[-97.145603,49.832109],[-97.146406,49.83193],[-97.146863,49.83177],[-97.147287,49.831552],[-97.147662,49.831239],[-97.148009,49.830847],[-97.148249,49.830402],[-97.148462,49.829817],[-97.148513,49.829358],[-97.148526,49.829028],[-97.148532,49.828871],[-97.148412,49.828415],[-97.148172,49.827873],[-97.147782,49.827228],[-97.146843,49.826176],[-97.145518,49.824826],[-97.144124,49.823486],[-97.143486,49.822847],[-97.143091,49.822355],[-97.142845,49.821943],[-97.142723,49.821642],[-97.142316,49.820549],[-97.142139,49.819826],[-97.142032,49.81907],[-97.141977,49.818395],[-97.141909,49.816846],[-97.14182,49.816259],[-97.141601,49.815603],[-97.141232,49.814966],[-97.140899,49.814558],[-97.140285,49.81413],[-97.139394,49.813603],[-97.138362,49.813302],[-97.136917,49.813005],[-97.138004,49.81262],[-97.139921,49.811972],[-97.140851,49.811657],[-97.141789,49.811339],[-97.143772,49.810669],[-97.144,49.810593],[-97.143153,49.810207],[-97.142465,49.809971],[-97.142009,49.809785],[-97.141893,49.809651],[-97.142112,49.809575],[-97.142198,49.809546],[-97.146018,49.808253],[-97.14733,49.807808],[-97.148413,49.807442],[-97.14969,49.807009],[-97.150033,49.806893],[-97.150816,49.806628],[-97.151707,49.806326],[-97.152822,49.805948],[-97.154179,49.805489],[-97.155523,49.805034],[-97.15588,49.804913],[-97.157039,49.802668],[-97.157091,49.801422],[-97.15728,49.796831],[-97.157505,49.791325],[-97.156605,49.777063],[-97.160562,49.775679],[-97.173735,49.771071],[-97.176531,49.77009],[-97.179414,49.769224],[-97.181152,49.768817],[-97.182523,49.768543],[-97.182919,49.768464],[-97.185491,49.76823],[-97.188009,49.768179],[-97.213978,49.768105],[-97.21398,49.767557],[-97.21404,49.753955],[-97.214042,49.753508],[-97.219645,49.753512],[-97.219618,49.740898],[-97.219617,49.74059],[-97.219612,49.738174],[-97.219907,49.722041],[-97.220059,49.71501],[-97.220092,49.713556],[-97.21967,49.713704],[-97.17968,49.727785],[-97.17963,49.727802],[-97.179263,49.727931],[-97.178581,49.728167],[-97.169313,49.731381],[-97.169168,49.731431],[-97.169006,49.731487],[-97.168977,49.731497],[-97.152072,49.737356],[-97.151219,49.737651],[-97.149708,49.738175],[-97.145262,49.739715],[-97.140586,49.741334],[-97.13874,49.741973],[-97.138325,49.742117],[-97.137403,49.742437],[-97.136685,49.742685],[-97.133314,49.743852],[-97.131556,49.744461],[-97.131059,49.744633],[-97.130264,49.744908],[-97.129769,49.745079],[-97.129034,49.745334],[-97.128156,49.745638],[-97.127943,49.745274],[-97.127721,49.744762],[-97.127546,49.744221],[-97.127428,49.743658],[-97.127371,49.743035],[-97.127384,49.742437],[-97.127475,49.741891],[-97.12761,49.741362],[-97.127803,49.740865],[-97.128125,49.74027],[-97.128459,49.739648],[-97.128738,49.738885],[-97.128917,49.738189],[-97.129005,49.737533],[-97.128991,49.737381],[-97.128007,49.737713],[-97.126387,49.73826],[-97.125464,49.738571],[-97.121773,49.739817],[-97.121009,49.740074],[-97.112448,49.742962],[-97.112067,49.74309],[-97.106403,49.745],[-97.098257,49.747746],[-97.084188,49.752486],[-97.083045,49.752871],[-97.082629,49.753012],[-97.081932,49.753246],[-97.083084,49.753245],[-97.083408,49.753245],[-97.083417,49.753792],[-97.08342,49.753981],[-97.08344,49.755125],[-97.083443,49.755328],[-97.083462,49.756475],[-97.083484,49.757725],[-97.083505,49.758973],[-97.083547,49.761473],[-97.083568,49.762708],[-97.080153,49.76385],[-97.079773,49.763978],[-97.058141,49.771207],[-97.057092,49.771558],[-97.050029,49.773917],[-97.048481,49.774434],[-97.048264,49.774506],[-97.047891,49.774631],[-97.04386,49.775976],[-97.04386,49.776007],[-97.043441,49.776147],[-97.043452,49.783018],[-97.048934,49.783055],[-97.04907,49.783056],[-97.049073,49.784077],[-97.049077,49.785106],[-97.049079,49.785597],[-97.049092,49.789025],[-97.049107,49.792808],[-97.048699,49.792985],[-97.047109,49.793673],[-97.045823,49.79423],[-97.044484,49.79481],[-97.044029,49.795007],[-97.038611,49.797353],[-97.026391,49.797341],[-97.026365,49.802585],[-97.026353,49.804808],[-97.026323,49.812018],[-97.02661,49.819553],[-97.026675,49.819553],[-97.026675,49.819731],[-97.026677,49.820659],[-97.026406,49.820607],[-97.026328,49.820799],[-97.025913,49.821822],[-97.025668,49.822427],[-97.02555,49.822717],[-97.026394,49.822878],[-97.026681,49.822932],[-97.02669,49.826893],[-97.02673,49.840896],[-97.027007,49.840896],[-97.0326,49.840897],[-97.038193,49.840897],[-97.0401,49.840897],[-97.043785,49.840897],[-97.046916,49.840897],[-97.049377,49.840897],[-97.049847,49.840897],[-97.04973,49.841761],[-97.04975,49.848058],[-97.049776,49.856033],[-97.049565,49.856033],[-97.049593,49.85656],[-97.049699,49.857591],[-97.049923,49.858052],[-97.050307,49.858492],[-97.051054,49.85895],[-97.051721,49.85926],[-97.052409,49.859531],[-97.05302,49.859705],[-97.056593,49.860205],[-97.062403,49.863973],[-97.071321,49.870998],[-97.071545,49.871174],[-97.071552,49.873615],[-97.072202,49.873615],[-97.072163,49.876037],[-97.072163,49.87636],[-97.072164,49.876686],[-97.072224,49.881925],[-97.072182,49.882645],[-97.072183,49.882941],[-97.072195,49.885933],[-97.072264,49.889218],[-97.071959,49.890959],[-97.071165,49.894174],[-97.099826,49.899296],[-97.10043,49.899364],[-97.101199,49.899426],[-97.101999,49.89946],[-97.10277,49.899465],[-97.10321,49.899455],[-97.10706,49.89922],[-97.107211,49.89921],[-97.107404,49.899594],[-97.106143,49.902587],[-97.106625,49.902572],[-97.107552,49.902625],[-97.108603,49.902686]]]}},{"type":"Feature","properties":{"division":"2","name":"Assiniboia Community","planner":"Robert Galston","email":"rgalston@winnipeg.ca","phone":"431-338-5439","feature_set_id":18772},"geometry":{"type":"Polygon","coordinates":[[[-97.322669,49.898843],[-97.328794,49.898709],[-97.329547,49.898693],[-97.331262,49.898655],[-97.334686,49.898579],[-97.341537,49.898427],[-97.343506,49.878568],[-97.337589,49.879283],[-97.337626,49.878908],[-97.337666,49.878498],[-97.33767,49.878453],[-97.3377,49.878153],[-97.337744,49.87771],[-97.337787,49.877267],[-97.337831,49.876824],[-97.337875,49.876381],[-97.337919,49.875938],[-97.337962,49.875495],[-97.337976,49.875358],[-97.338037,49.874735],[-97.338081,49.874292],[-97.338125,49.873849],[-97.338168,49.873406],[-97.338212,49.872963],[-97.338256,49.87252],[-97.338299,49.872077],[-97.338313,49.87194],[-97.338374,49.871317],[-97.338418,49.870874],[-97.338462,49.870431],[-97.338505,49.869988],[-97.338527,49.86977],[-97.338548,49.869557],[-97.338561,49.869426],[-97.338574,49.869295],[-97.338588,49.869148],[-97.338621,49.868817],[-97.338634,49.868682],[-97.33865,49.868521],[-97.338657,49.868449],[-97.3387,49.86801],[-97.338771,49.867291],[-97.338805,49.866946],[-97.338832,49.86668],[-97.338899,49.865992],[-97.338937,49.865613],[-97.337875,49.865798],[-97.337044,49.865969],[-97.336173,49.866211],[-97.33531,49.866506],[-97.33436,49.866809],[-97.333395,49.867069],[-97.332314,49.867333],[-97.331361,49.867543],[-97.329661,49.867851],[-97.328573,49.868109],[-97.327799,49.868348],[-97.326508,49.868668],[-97.326418,49.868269],[-97.325906,49.866002],[-97.325898,49.865969],[-97.323727,49.856345],[-97.323639,49.855831],[-97.323608,49.855315],[-97.323634,49.854799],[-97.324381,49.847665],[-97.324395,49.847528],[-97.32441,49.847391],[-97.325257,49.839268],[-97.325271,49.839131],[-97.325286,49.838995],[-97.325379,49.838103],[-97.327388,49.838015],[-97.328124,49.837983],[-97.328989,49.837945],[-97.33067,49.837871],[-97.331158,49.83785],[-97.332353,49.837797],[-97.334035,49.837724],[-97.335722,49.83765],[-97.337409,49.837576],[-97.339096,49.837502],[-97.340783,49.837428],[-97.342326,49.83736],[-97.342467,49.837354],[-97.342608,49.837348],[-97.344151,49.83728],[-97.345086,49.837239],[-97.345834,49.837206],[-97.346666,49.83717],[-97.347331,49.829644],[-97.348124,49.82066],[-97.348916,49.811676],[-97.349127,49.809291],[-97.349151,49.80902],[-97.328389,49.808964],[-97.313182,49.808929],[-97.299363,49.808903],[-97.299377,49.810706],[-97.276533,49.810654],[-97.276535,49.812464],[-97.253696,49.812401],[-97.2537,49.814442],[-97.23437,49.814397],[-97.230863,49.81439],[-97.230122,49.814389],[-97.228313,49.814385],[-97.227411,49.814383],[-97.22716,49.814382],[-97.226897,49.814382],[-97.226773,49.814381],[-97.225249,49.814378],[-97.224619,49.814377],[-97.224234,49.814376],[-97.222917,49.814373],[-97.222014,49.814371],[-97.22108,49.814369],[-97.219652,49.814366],[-97.219668,49.812291],[-97.219668,49.806978],[-97.219668,49.806352],[-97.219669,49.805007],[-97.219672,49.802952],[-97.219673,49.802486],[-97.219673,49.799788],[-97.219682,49.797519],[-97.214082,49.797487],[-97.214026,49.790848],[-97.214005,49.788462],[-97.213962,49.782735],[-97.213967,49.777509],[-97.213976,49.768654],[-97.213978,49.768105],[-97.188009,49.768179],[-97.185491,49.76823],[-97.182919,49.768464],[-97.182523,49.768543],[-97.181152,49.768817],[-97.179414,49.769224],[-97.176531,49.77009],[-97.173735,49.771071],[-97.160562,49.775679],[-97.156605,49.777063],[-97.157505,49.791325],[-97.15728,49.796831],[-97.157091,49.801422],[-97.157039,49.802668],[-97.15588,49.804913],[-97.155523,49.805034],[-97.154179,49.805489],[-97.152822,49.805948],[-97.151707,49.806326],[-97.150816,49.806628],[-97.150033,49.806893],[-97.14969,49.807009],[-97.148413,49.807442],[-97.14733,49.807808],[-97.146018,49.808253],[-97.142198,49.809546],[-97.142112,49.809575],[-97.141893,49.809651],[-97.142009,49.809785],[-97.142465,49.809971],[-97.143153,49.810207],[-97.144,49.810593],[-97.143772,49.810669],[-97.141789,49.811339],[-97.140851,49.811657],[-97.139921,49.811972],[-97.138004,49.81262],[-97.136917,49.813005],[-97.138362,49.813302],[-97.139394,49.813603],[-97.140285,49.81413],[-97.140899,49.814558],[-97.141232,49.814966],[-97.141601,49.815603],[-97.14182,49.816259],[-97.141909,49.816846],[-97.141977,49.818395],[-97.142032,49.81907],[-97.142139,49.819826],[-97.142316,49.820549],[-97.142723,49.821642],[-97.143842,49.821451],[-97.146794,49.820947],[-97.150979,49.82013],[-97.152756,49.819872],[-97.156681,49.818674],[-97.162013,49.818411],[-97.168162,49.816321],[-97.176978,49.813325],[-97.177683,49.814151],[-97.178825,49.815445],[-97.179195,49.816106],[-97.17928,49.817231],[-97.17928,49.822394],[-97.17966,49.828684],[-97.180379,49.829793],[-97.183035,49.827548],[-97.183599,49.827358],[-97.196282,49.822986],[-97.201137,49.821236],[-97.204109,49.82492],[-97.204917,49.825774],[-97.207003,49.827233],[-97.206746,49.827733],[-97.19912,49.842588],[-97.197294,49.846143],[-97.197043,49.84677],[-97.196997,49.846903],[-97.196951,49.84704],[-97.196837,49.847522],[-97.196769,49.848011],[-97.196721,49.848616],[-97.199412,49.848363],[-97.207555,49.847602],[-97.206968,49.853814],[-97.206647,49.857229],[-97.205992,49.864154],[-97.205481,49.869561],[-97.205171,49.872843],[-97.202382,49.875823],[-97.202861,49.876551],[-97.203051,49.876839],[-97.202298,49.876959],[-97.201319,49.877138],[-97.200414,49.87731],[-97.199694,49.877469],[-97.199201,49.877627],[-97.19875,49.877844],[-97.197965,49.878086],[-97.197139,49.878248],[-97.196148,49.878398],[-97.195591,49.878432],[-97.194364,49.878362],[-97.194107,49.881567],[-97.193108,49.893995],[-97.192834,49.897579],[-97.192594,49.900374],[-97.192558,49.900782],[-97.192473,49.901263],[-97.192315,49.901806],[-97.192064,49.902413],[-97.191745,49.902995],[-97.191374,49.903539],[-97.190983,49.904097],[-97.190676,49.904505],[-97.190177,49.90517],[-97.186398,49.910097],[-97.189655,49.911138],[-97.195105,49.916365],[-97.195105,49.91646],[-97.199628,49.916457],[-97.206761,49.916455],[-97.21799,49.916448],[-97.225301,49.916444],[-97.22549,49.916584],[-97.227149,49.917817],[-97.229436,49.919516],[-97.229857,49.919828],[-97.229857,49.916584],[-97.241089,49.916579],[-97.24163,49.916579],[-97.243734,49.916578],[-97.24586,49.916577],[-97.248378,49.916575],[-97.250072,49.916575],[-97.250213,49.916575],[-97.252675,49.916573],[-97.255138,49.916572],[-97.255278,49.916572],[-97.256979,49.916571],[-97.258496,49.91657],[-97.260161,49.916569],[-97.261785,49.916568],[-97.261877,49.916568],[-97.261923,49.916568],[-97.263551,49.916567],[-97.262911,49.924178],[-97.262331,49.93107],[-97.262308,49.931342],[-97.298506,49.931314],[-97.298494,49.929234],[-97.321192,49.929366],[-97.321183,49.92755],[-97.32115,49.927279],[-97.321149,49.927268],[-97.321149,49.927258],[-97.321148,49.927247],[-97.321147,49.927237],[-97.321146,49.927226],[-97.321145,49.927216],[-97.321144,49.927205],[-97.321143,49.927195],[-97.321142,49.927184],[-97.321141,49.927174],[-97.32114,49.927163],[-97.321139,49.927153],[-97.321138,49.927142],[-97.321137,49.927132],[-97.321136,49.927121],[-97.321135,49.927111],[-97.321134,49.9271],[-97.321133,49.92709],[-97.321132,49.927079],[-97.321131,49.927069],[-97.32113,49.927058],[-97.321129,49.927048],[-97.321128,49.927037],[-97.321126,49.927027],[-97.321125,49.927016],[-97.321124,49.927006],[-97.321123,49.926995],[-97.321122,49.926985],[-97.321121,49.926974],[-97.32112,49.926964],[-97.321118,49.926953],[-97.321117,49.926943],[-97.321116,49.926932],[-97.321115,49.926922],[-97.321113,49.926911],[-97.321112,49.926901],[-97.321111,49.92689],[-97.32111,49.92688],[-97.321108,49.926869],[-97.321107,49.926859],[-97.321106,49.926848],[-97.321105,49.926838],[-97.321103,49.926827],[-97.321102,49.926817],[-97.321101,49.926806],[-97.321099,49.926796],[-97.321098,49.926785],[-97.321096,49.926775],[-97.321095,49.926764],[-97.321094,49.926754],[-97.321092,49.926743],[-97.321091,49.926733],[-97.321089,49.926723],[-97.321088,49.926712],[-97.321087,49.926702],[-97.321085,49.926691],[-97.321084,49.926681],[-97.321082,49.92667],[-97.321081,49.92666],[-97.321079,49.926649],[-97.321078,49.926639],[-97.321076,49.926628],[-97.321075,49.926618],[-97.321073,49.926607],[-97.321072,49.926597],[-97.32107,49.926586],[-97.321069,49.926576],[-97.321067,49.926565],[-97.321065,49.926555],[-97.321064,49.926544],[-97.321062,49.926534],[-97.321061,49.926523],[-97.321059,49.926513],[-97.321057,49.926502],[-97.321056,49.926492],[-97.321054,49.926482],[-97.321052,49.926471],[-97.321051,49.926461],[-97.321049,49.92645],[-97.321047,49.92644],[-97.321045,49.926429],[-97.321044,49.926419],[-97.321042,49.926408],[-97.32104,49.926398],[-97.321039,49.926387],[-97.321037,49.926377],[-97.321035,49.926366],[-97.321033,49.926356],[-97.321031,49.926345],[-97.32103,49.926335],[-97.321028,49.926325],[-97.321026,49.926314],[-97.321024,49.926304],[-97.321022,49.926293],[-97.32102,49.926283],[-97.321019,49.926272],[-97.321017,49.926262],[-97.321015,49.926251],[-97.321013,49.926241],[-97.321011,49.92623],[-97.321009,49.92622],[-97.321007,49.926209],[-97.321005,49.926199],[-97.321003,49.926189],[-97.321001,49.926178],[-97.320999,49.926168],[-97.320997,49.926157],[-97.320995,49.926147],[-97.320993,49.926136],[-97.320991,49.926126],[-97.320989,49.926115],[-97.320987,49.926105],[-97.320985,49.926095],[-97.320983,49.926084],[-97.320981,49.926074],[-97.320979,49.926063],[-97.320977,49.926053],[-97.320975,49.926042],[-97.320973,49.926032],[-97.320971,49.926021],[-97.320968,49.926011],[-97.320966,49.926001],[-97.320964,49.92599],[-97.320962,49.92598],[-97.32096,49.925969],[-97.320958,49.925959],[-97.320955,49.925948],[-97.320953,49.925938],[-97.320951,49.925928],[-97.320949,49.925917],[-97.320947,49.925907],[-97.320944,49.925896],[-97.320942,49.925886],[-97.32094,49.925875],[-97.320938,49.925865],[-97.320935,49.925855],[-97.320933,49.925844],[-97.320931,49.925834],[-97.320928,49.925823],[-97.320926,49.925813],[-97.320924,49.925803],[-97.320921,49.925792],[-97.320919,49.925782],[-97.320917,49.925771],[-97.320914,49.925761],[-97.320912,49.92575],[-97.320909,49.92574],[-97.320907,49.92573],[-97.320905,49.925719],[-97.320902,49.925709],[-97.3209,49.925698],[-97.320897,49.925688],[-97.320895,49.925678],[-97.320892,49.925667],[-97.32089,49.925657],[-97.320887,49.925646],[-97.320885,49.925636],[-97.320882,49.925626],[-97.32088,49.925615],[-97.320877,49.925605],[-97.320875,49.925594],[-97.320872,49.925584],[-97.32087,49.925574],[-97.320867,49.925563],[-97.320864,49.925553],[-97.320862,49.925542],[-97.320859,49.925532],[-97.320857,49.925522],[-97.320854,49.925511],[-97.320851,49.925501],[-97.320849,49.92549],[-97.320846,49.92548],[-97.320843,49.92547],[-97.320841,49.925459],[-97.320838,49.925449],[-97.320835,49.925439],[-97.320833,49.925428],[-97.32083,49.925418],[-97.320827,49.925407],[-97.320824,49.925397],[-97.320822,49.925387],[-97.320819,49.925376],[-97.320816,49.925366],[-97.320813,49.925356],[-97.320811,49.925345],[-97.320808,49.925335],[-97.320805,49.925324],[-97.320802,49.925314],[-97.320799,49.925304],[-97.320797,49.925293],[-97.320794,49.925283],[-97.320791,49.925273],[-97.320788,49.925262],[-97.320785,49.925252],[-97.320782,49.925242],[-97.320779,49.925231],[-97.320179,49.9231],[-97.320176,49.92309],[-97.320173,49.92308],[-97.32017,49.92307],[-97.320167,49.92306],[-97.320165,49.92305],[-97.320162,49.92304],[-97.320159,49.92303],[-97.320156,49.92302],[-97.320154,49.92301],[-97.320151,49.923],[-97.320148,49.92299],[-97.320146,49.92298],[-97.320143,49.92297],[-97.32014,49.92296],[-97.320138,49.92295],[-97.320135,49.92294],[-97.320132,49.92293],[-97.32013,49.922919],[-97.320127,49.922909],[-97.320124,49.922899],[-97.320122,49.922889],[-97.320119,49.922879],[-97.320117,49.922869],[-97.320114,49.922859],[-97.320111,49.922849],[-97.320109,49.922839],[-97.320106,49.922829],[-97.320104,49.922819],[-97.320101,49.922809],[-97.320099,49.922799],[-97.320096,49.922789],[-97.320094,49.922779],[-97.320091,49.922769],[-97.320089,49.922759],[-97.320086,49.922749],[-97.320084,49.922739],[-97.320081,49.922729],[-97.320079,49.922719],[-97.320077,49.922709],[-97.320074,49.922699],[-97.320072,49.922689],[-97.320069,49.922678],[-97.320067,49.922668],[-97.320065,49.922658],[-97.320062,49.922648],[-97.32006,49.922638],[-97.320058,49.922628],[-97.320055,49.922618],[-97.320053,49.922608],[-97.320051,49.922598],[-97.320048,49.922588],[-97.320046,49.922578],[-97.320044,49.922568],[-97.320042,49.922558],[-97.320039,49.922548],[-97.320037,49.922538],[-97.320035,49.922528],[-97.320033,49.922517],[-97.32003,49.922507],[-97.320028,49.922497],[-97.320026,49.922487],[-97.320024,49.922477],[-97.320022,49.922467],[-97.32002,49.922457],[-97.320017,49.922447],[-97.320015,49.922437],[-97.320013,49.922427],[-97.320011,49.922417],[-97.320009,49.922407],[-97.320007,49.922397],[-97.320005,49.922386],[-97.320003,49.922376],[-97.320001,49.922366],[-97.319999,49.922356],[-97.319997,49.922346],[-97.319995,49.922336],[-97.319992,49.922326],[-97.31999,49.922316],[-97.319988,49.922306],[-97.319986,49.922296],[-97.319985,49.922286],[-97.319983,49.922275],[-97.319981,49.922265],[-97.319979,49.922255],[-97.319977,49.922245],[-97.319975,49.922235],[-97.319973,49.922225],[-97.319971,49.922215],[-97.319969,49.922205],[-97.319967,49.922195],[-97.319965,49.922185],[-97.319963,49.922175],[-97.319962,49.922164],[-97.31996,49.922154],[-97.319958,49.922144],[-97.319956,49.922134],[-97.319954,49.922124],[-97.319952,49.922114],[-97.319951,49.922104],[-97.319949,49.922094],[-97.319947,49.922084],[-97.319945,49.922073],[-97.319944,49.922063],[-97.319942,49.922053],[-97.31994,49.922043],[-97.319938,49.922033],[-97.319937,49.922023],[-97.319935,49.922013],[-97.319933,49.922003],[-97.319932,49.921993],[-97.31993,49.921982],[-97.319928,49.921972],[-97.319927,49.921962],[-97.319925,49.921952],[-97.319924,49.921942],[-97.319922,49.921932],[-97.31992,49.921922],[-97.319919,49.921912],[-97.319917,49.921901],[-97.319916,49.921891],[-97.319914,49.921881],[-97.319912,49.921871],[-97.319911,49.921861],[-97.319909,49.921851],[-97.319908,49.921841],[-97.319906,49.921831],[-97.319905,49.921821],[-97.319903,49.92181],[-97.319902,49.9218],[-97.3199,49.92179],[-97.319899,49.92178],[-97.319898,49.92177],[-97.319896,49.92176],[-97.319895,49.92175],[-97.319893,49.921739],[-97.319892,49.921729],[-97.319891,49.921719],[-97.319889,49.921709],[-97.319888,49.921699],[-97.319886,49.921689],[-97.319885,49.921679],[-97.319884,49.921669],[-97.319882,49.921658],[-97.319881,49.921648],[-97.31988,49.921638],[-97.319878,49.921628],[-97.319877,49.921618],[-97.319876,49.921608],[-97.319875,49.921598],[-97.319873,49.921587],[-97.319872,49.921577],[-97.319871,49.921567],[-97.31987,49.921557],[-97.319868,49.921547],[-97.319867,49.921537],[-97.319866,49.921527],[-97.319865,49.921516],[-97.319864,49.921506],[-97.319863,49.921496],[-97.319861,49.921486],[-97.31986,49.921476],[-97.319859,49.921466],[-97.319858,49.921456],[-97.319857,49.921445],[-97.319856,49.921435],[-97.319855,49.921425],[-97.319854,49.921415],[-97.319853,49.921405],[-97.319852,49.921395],[-97.319851,49.921385],[-97.31985,49.921374],[-97.319849,49.921364],[-97.319848,49.921354],[-97.319847,49.921344],[-97.319846,49.921334],[-97.319845,49.921324],[-97.319844,49.921313],[-97.319843,49.921303],[-97.319842,49.921293],[-97.319841,49.921283],[-97.31984,49.921273],[-97.319839,49.921263],[-97.319838,49.921253],[-97.319837,49.921242],[-97.319836,49.921232],[-97.319835,49.921222],[-97.319834,49.921212],[-97.319834,49.921202],[-97.319833,49.921192],[-97.319832,49.921181],[-97.319831,49.921171],[-97.31983,49.921161],[-97.31983,49.921151],[-97.319829,49.921141],[-97.319828,49.921131],[-97.319827,49.92112],[-97.319826,49.92111],[-97.319826,49.9211],[-97.319825,49.92109],[-97.319824,49.92108],[-97.319824,49.92107],[-97.319823,49.92106],[-97.319822,49.921049],[-97.319821,49.921039],[-97.319821,49.921029],[-97.31982,49.921019],[-97.319819,49.921009],[-97.319819,49.920999],[-97.319818,49.920988],[-97.319818,49.920978],[-97.319817,49.920968],[-97.319816,49.920958],[-97.319816,49.920948],[-97.319815,49.920938],[-97.319815,49.920927],[-97.319814,49.920917],[-97.319814,49.920907],[-97.319813,49.920897],[-97.319812,49.920887],[-97.319812,49.920877],[-97.319811,49.920866],[-97.319811,49.920856],[-97.31981,49.920846],[-97.31981,49.920836],[-97.31981,49.920826],[-97.319809,49.920816],[-97.319809,49.920805],[-97.319808,49.920795],[-97.319808,49.920785],[-97.319807,49.920775],[-97.319807,49.920765],[-97.319807,49.920755],[-97.319806,49.920744],[-97.319806,49.920734],[-97.319806,49.920724],[-97.319805,49.920714],[-97.319805,49.920704],[-97.319805,49.920694],[-97.319804,49.920683],[-97.319804,49.920673],[-97.319804,49.920663],[-97.319803,49.920653],[-97.319803,49.920643],[-97.319803,49.920632],[-97.319803,49.920622],[-97.319802,49.920612],[-97.319802,49.920602],[-97.319802,49.920592],[-97.319802,49.920582],[-97.319801,49.920571],[-97.319801,49.920561],[-97.319801,49.920551],[-97.319801,49.920541],[-97.319801,49.920531],[-97.319801,49.920521],[-97.319801,49.92051],[-97.3198,49.9205],[-97.3198,49.92049],[-97.3198,49.92048],[-97.3198,49.92047],[-97.3198,49.92046],[-97.3198,49.920449],[-97.3198,49.920439],[-97.3198,49.920429],[-97.3198,49.920419],[-97.3198,49.920409],[-97.3198,49.920399],[-97.3198,49.920388],[-97.3198,49.920378],[-97.3198,49.920368],[-97.3198,49.920358],[-97.3198,49.920348],[-97.3198,49.920337],[-97.3198,49.920327],[-97.3198,49.920317],[-97.3198,49.920307],[-97.3198,49.920297],[-97.3198,49.920287],[-97.3198,49.920276],[-97.3198,49.920266],[-97.319801,49.920256],[-97.319801,49.920246],[-97.319801,49.920236],[-97.319801,49.920226],[-97.319801,49.920215],[-97.319801,49.920205],[-97.319802,49.920195],[-97.319802,49.920185],[-97.319802,49.920175],[-97.319802,49.920165],[-97.319803,49.920154],[-97.319803,49.920144],[-97.319803,49.920134],[-97.319803,49.920124],[-97.319804,49.920114],[-97.319804,49.920104],[-97.319804,49.920093],[-97.319804,49.920083],[-97.319805,49.920073],[-97.319805,49.920063],[-97.319805,49.920053],[-97.319806,49.920043],[-97.319806,49.920032],[-97.319807,49.920022],[-97.319807,49.920012],[-97.319807,49.920002],[-97.319808,49.919992],[-97.319808,49.919982],[-97.319809,49.919971],[-97.319809,49.919961],[-97.319809,49.919951],[-97.31981,49.919941],[-97.31981,49.919931],[-97.319811,49.919921],[-97.319811,49.91991],[-97.319812,49.9199],[-97.319812,49.91989],[-97.319813,49.91988],[-97.319813,49.91987],[-97.319814,49.91986],[-97.319815,49.919849],[-97.319815,49.919839],[-97.319816,49.919829],[-97.319816,49.919819],[-97.319817,49.919809],[-97.319817,49.919799],[-97.319818,49.919788],[-97.319819,49.919778],[-97.319819,49.919768],[-97.31982,49.919758],[-97.319821,49.919748],[-97.319821,49.919738],[-97.319822,49.919727],[-97.319823,49.919717],[-97.319823,49.919707],[-97.319824,49.919697],[-97.319825,49.919687],[-97.319826,49.919677],[-97.319826,49.919666],[-97.319827,49.919656],[-97.319828,49.919646],[-97.319829,49.919636],[-97.319829,49.919626],[-97.31983,49.919616],[-97.319831,49.919605],[-97.319832,49.919595],[-97.319833,49.919585],[-97.319834,49.919575],[-97.319834,49.919565],[-97.319835,49.919555],[-97.319836,49.919544],[-97.319837,49.919534],[-97.319838,49.919524],[-97.319839,49.919514],[-97.31984,49.919504],[-97.319841,49.919494],[-97.319842,49.919484],[-97.319843,49.919473],[-97.319843,49.919463],[-97.319844,49.919453],[-97.319845,49.919443],[-97.319846,49.919433],[-97.319847,49.919423],[-97.319848,49.919412],[-97.319849,49.919402],[-97.31985,49.919392],[-97.319851,49.919382],[-97.319853,49.919372],[-97.319854,49.919362],[-97.319855,49.919352],[-97.319856,49.919341],[-97.319857,49.919331],[-97.319858,49.919321],[-97.319859,49.919311],[-97.31986,49.919301],[-97.319861,49.919291],[-97.319862,49.919281],[-97.319864,49.91927],[-97.319865,49.91926],[-97.319866,49.91925],[-97.319867,49.91924],[-97.319868,49.91923],[-97.31987,49.91922],[-97.319871,49.91921],[-97.319872,49.919199],[-97.319873,49.919189],[-97.319875,49.919179],[-97.319876,49.919169],[-97.319877,49.919159],[-97.319878,49.919149],[-97.31988,49.919139],[-97.319881,49.919128],[-97.319882,49.919118],[-97.319884,49.919108],[-97.319885,49.919098],[-97.319886,49.919088],[-97.319888,49.919078],[-97.319889,49.919068],[-97.31989,49.919058],[-97.319892,49.919047],[-97.319893,49.919037],[-97.319895,49.919027],[-97.319896,49.919017],[-97.319897,49.919007],[-97.319899,49.918997],[-97.3199,49.918987],[-97.319902,49.918976],[-97.319903,49.918966],[-97.319905,49.918956],[-97.319906,49.918946],[-97.319908,49.918936],[-97.319909,49.918926],[-97.319911,49.918916],[-97.319912,49.918906],[-97.319914,49.918895],[-97.319915,49.918885],[-97.319917,49.918875],[-97.319919,49.918865],[-97.31992,49.918855],[-97.319922,49.918845],[-97.319923,49.918835],[-97.319925,49.918825],[-97.319927,49.918814],[-97.319928,49.918804],[-97.31993,49.918794],[-97.319932,49.918784],[-97.319933,49.918774],[-97.319935,49.918764],[-97.319937,49.918754],[-97.319938,49.918744],[-97.31994,49.918734],[-97.319942,49.918723],[-97.319943,49.918713],[-97.319945,49.918703],[-97.319947,49.918693],[-97.319949,49.918683],[-97.319951,49.918673],[-97.319952,49.918663],[-97.319954,49.918653],[-97.319956,49.918643],[-97.319958,49.918632],[-97.31996,49.918622],[-97.319961,49.918612],[-97.319963,49.918602],[-97.319965,49.918592],[-97.319967,49.918582],[-97.319969,49.918572],[-97.319971,49.918562],[-97.319973,49.918552],[-97.319975,49.918542],[-97.319977,49.918532],[-97.319978,49.918521],[-97.31998,49.918511],[-97.319982,49.918501],[-97.319984,49.918491],[-97.319986,49.918481],[-97.319988,49.918471],[-97.31999,49.918461],[-97.319992,49.918451],[-97.319994,49.918441],[-97.319996,49.918431],[-97.319998,49.918421],[-97.32,49.91841],[-97.320002,49.9184],[-97.320005,49.91839],[-97.320007,49.91838],[-97.320009,49.91837],[-97.320011,49.91836],[-97.321151,49.912907],[-97.321154,49.912892],[-97.321157,49.912878],[-97.32116,49.912863],[-97.321163,49.912848],[-97.321166,49.912834],[-97.321169,49.912819],[-97.321172,49.912804],[-97.321175,49.91279],[-97.321178,49.912775],[-97.321181,49.912761],[-97.321184,49.912746],[-97.321187,49.912731],[-97.32119,49.912717],[-97.321193,49.912702],[-97.321196,49.912688],[-97.321199,49.912673],[-97.321202,49.912658],[-97.321204,49.912644],[-97.321207,49.912629],[-97.32121,49.912614],[-97.321213,49.9126],[-97.321216,49.912585],[-97.321219,49.912571],[-97.321221,49.912556],[-97.321224,49.912541],[-97.321227,49.912527],[-97.32123,49.912512],[-97.321233,49.912497],[-97.321235,49.912483],[-97.321238,49.912468],[-97.321241,49.912454],[-97.321243,49.912439],[-97.321246,49.912424],[-97.321249,49.91241],[-97.321252,49.912395],[-97.321254,49.91238],[-97.321257,49.912366],[-97.32126,49.912351],[-97.321262,49.912336],[-97.321265,49.912322],[-97.321268,49.912307],[-97.32127,49.912293],[-97.321273,49.912278],[-97.321275,49.912263],[-97.321278,49.912249],[-97.321281,49.912234],[-97.321283,49.912219],[-97.321286,49.912205],[-97.321288,49.91219],[-97.321291,49.912175],[-97.321293,49.912161],[-97.321296,49.912146],[-97.321298,49.912131],[-97.321301,49.912117],[-97.321303,49.912102],[-97.321306,49.912088],[-97.321308,49.912073],[-97.321311,49.912058],[-97.321313,49.912044],[-97.321316,49.912029],[-97.321318,49.912014],[-97.32132,49.912],[-97.321323,49.911985],[-97.321325,49.91197],[-97.321328,49.911956],[-97.32133,49.911941],[-97.321332,49.911926],[-97.321335,49.911912],[-97.321337,49.911897],[-97.321339,49.911882],[-97.321342,49.911868],[-97.321344,49.911853],[-97.321346,49.911838],[-97.321348,49.911824],[-97.321351,49.911809],[-97.321353,49.911794],[-97.321355,49.91178],[-97.321358,49.911765],[-97.32136,49.91175],[-97.321362,49.911736],[-97.321364,49.911721],[-97.321366,49.911706],[-97.321369,49.911692],[-97.321371,49.911677],[-97.321373,49.911662],[-97.321375,49.911648],[-97.321377,49.911633],[-97.321379,49.911618],[-97.321381,49.911604],[-97.321384,49.911589],[-97.321386,49.911574],[-97.321388,49.91156],[-97.32139,49.911545],[-97.321392,49.91153],[-97.321394,49.911516],[-97.321396,49.911501],[-97.321398,49.911486],[-97.3214,49.911472],[-97.321402,49.911457],[-97.321404,49.911442],[-97.321406,49.911428],[-97.321408,49.911413],[-97.32141,49.911398],[-97.321412,49.911384],[-97.321414,49.911369],[-97.321416,49.911354],[-97.321418,49.911339],[-97.32142,49.911325],[-97.321422,49.91131],[-97.321424,49.911295],[-97.321426,49.911281],[-97.321428,49.911266],[-97.321429,49.911251],[-97.321431,49.911237],[-97.321433,49.911222],[-97.321435,49.911207],[-97.321437,49.911193],[-97.321439,49.911178],[-97.32144,49.911163],[-97.321442,49.911149],[-97.321444,49.911134],[-97.321446,49.911119],[-97.321448,49.911104],[-97.321449,49.91109],[-97.321451,49.911075],[-97.321453,49.91106],[-97.321455,49.911046],[-97.321456,49.911031],[-97.321458,49.911016],[-97.32146,49.911002],[-97.321461,49.910987],[-97.321463,49.910972],[-97.321465,49.910957],[-97.321466,49.910943],[-97.321468,49.910928],[-97.32147,49.910913],[-97.321471,49.910899],[-97.321473,49.910884],[-97.321475,49.910869],[-97.321476,49.910855],[-97.321478,49.91084],[-97.321479,49.910825],[-97.321481,49.91081],[-97.321482,49.910796],[-97.321484,49.910781],[-97.321485,49.910766],[-97.321487,49.910752],[-97.321488,49.910737],[-97.32149,49.910722],[-97.321491,49.910708],[-97.321493,49.910693],[-97.321494,49.910678],[-97.322669,49.898843]]]}},{"type":"Feature","properties":{"division":"1","name":"City Centre Community","planner":"Dylan Chyz-Lund","email":"dchyzlund@winnipeg.ca","phone":"431-374-7562","feature_set_id":18772},"geometry":{"type":"Polygon","coordinates":[[[-97.186398,49.910097],[-97.190177,49.90517],[-97.190676,49.904505],[-97.190983,49.904097],[-97.191374,49.903539],[-97.191745,49.902995],[-97.192064,49.902413],[-97.192315,49.901806],[-97.192473,49.901263],[-97.192558,49.900782],[-97.192594,49.900374],[-97.192834,49.897579],[-97.193108,49.893995],[-97.194107,49.881567],[-97.194364,49.878362],[-97.195591,49.878432],[-97.196148,49.878398],[-97.197139,49.878248],[-97.197965,49.878086],[-97.19875,49.877844],[-97.199201,49.877627],[-97.199694,49.877469],[-97.200414,49.87731],[-97.201319,49.877138],[-97.202298,49.876959],[-97.203051,49.876839],[-97.202861,49.876551],[-97.202382,49.875823],[-97.205171,49.872843],[-97.205481,49.869561],[-97.205992,49.864154],[-97.206647,49.857229],[-97.206968,49.853814],[-97.207555,49.847602],[-97.199412,49.848363],[-97.196721,49.848616],[-97.196769,49.848011],[-97.196837,49.847522],[-97.196951,49.84704],[-97.196997,49.846903],[-97.197043,49.84677],[-97.197294,49.846143],[-97.19912,49.842588],[-97.206746,49.827733],[-97.207003,49.827233],[-97.204917,49.825774],[-97.204109,49.82492],[-97.201137,49.821236],[-97.196282,49.822986],[-97.183599,49.827358],[-97.183035,49.827548],[-97.180379,49.829793],[-97.17966,49.828684],[-97.17928,49.822394],[-97.17928,49.817231],[-97.179195,49.816106],[-97.178825,49.815445],[-97.177683,49.814151],[-97.176978,49.813325],[-97.168162,49.816321],[-97.162013,49.818411],[-97.156681,49.818674],[-97.152756,49.819872],[-97.150979,49.82013],[-97.146794,49.820947],[-97.143842,49.821451],[-97.142723,49.821642],[-97.142845,49.821943],[-97.143091,49.822355],[-97.143486,49.822847],[-97.144124,49.823486],[-97.145518,49.824826],[-97.146843,49.826176],[-97.147782,49.827228],[-97.148172,49.827873],[-97.148412,49.828415],[-97.148532,49.828871],[-97.148526,49.829028],[-97.148513,49.829358],[-97.148462,49.829817],[-97.148249,49.830402],[-97.148009,49.830847],[-97.147662,49.831239],[-97.147287,49.831552],[-97.146863,49.83177],[-97.146406,49.83193],[-97.145603,49.832109],[-97.144642,49.832222],[-97.143686,49.832258],[-97.142931,49.832213],[-97.142167,49.832093],[-97.140627,49.831815],[-97.13952,49.831562],[-97.13878,49.831422],[-97.137652,49.831272],[-97.136487,49.831166],[-97.135605,49.831141],[-97.134641,49.831253],[-97.133773,49.831498],[-97.132885,49.831865],[-97.132139,49.832329],[-97.131764,49.832651],[-97.131467,49.832985],[-97.131231,49.833424],[-97.131084,49.834105],[-97.131116,49.834594],[-97.131314,49.835085],[-97.131714,49.835707],[-97.131878,49.835918],[-97.132267,49.836417],[-97.132809,49.836969],[-97.133296,49.837369],[-97.134028,49.837897],[-97.136013,49.839218],[-97.136728,49.839714],[-97.137176,49.840139],[-97.137423,49.840585],[-97.137566,49.841148],[-97.137561,49.841444],[-97.137517,49.841764],[-97.137246,49.842274],[-97.136921,49.842663],[-97.136456,49.843005],[-97.136131,49.843151],[-97.135874,49.843267],[-97.134698,49.843563],[-97.13428,49.843624],[-97.133659,49.843663],[-97.132707,49.843642],[-97.131706,49.843564],[-97.130741,49.843437],[-97.129902,49.843237],[-97.129215,49.843025],[-97.128303,49.842646],[-97.127254,49.842259],[-97.126652,49.842057],[-97.125899,49.841849],[-97.125164,49.841685],[-97.124465,49.841592],[-97.123904,49.841533],[-97.123082,49.841525],[-97.122474,49.841577],[-97.121854,49.841718],[-97.121335,49.841917],[-97.120893,49.842156],[-97.120421,49.842507],[-97.120045,49.842826],[-97.119725,49.843241],[-97.119491,49.84372],[-97.11941,49.844179],[-97.119433,49.844665],[-97.119599,49.845136],[-97.11994,49.845673],[-97.120292,49.846119],[-97.120638,49.846513],[-97.120953,49.846837],[-97.121309,49.847135],[-97.121668,49.847403],[-97.122074,49.847652],[-97.124272,49.848888],[-97.125561,49.849647],[-97.127785,49.850861],[-97.128689,49.85133],[-97.129655,49.851772],[-97.130474,49.852074],[-97.131238,49.852278],[-97.131912,49.852411],[-97.132527,49.852489],[-97.133101,49.852532],[-97.133681,49.852547],[-97.134298,49.852534],[-97.134914,49.852486],[-97.135598,49.852369],[-97.136338,49.852164],[-97.137273,49.851814],[-97.140104,49.850652],[-97.14062,49.850479],[-97.141145,49.85034],[-97.141835,49.850208],[-97.14273,49.850106],[-97.143054,49.850107],[-97.143325,49.850135],[-97.143444,49.850148],[-97.143833,49.850213],[-97.144442,49.850417],[-97.144916,49.850674],[-97.145218,49.850986],[-97.145384,49.851359],[-97.145429,49.851755],[-97.14531,49.852174],[-97.145044,49.852608],[-97.144689,49.853009],[-97.144614,49.853061],[-97.144217,49.853334],[-97.143184,49.853812],[-97.142622,49.853997],[-97.142051,49.854159],[-97.141122,49.854347],[-97.140142,49.854521],[-97.139816,49.854567],[-97.138932,49.854691],[-97.137935,49.854774],[-97.136948,49.854835],[-97.135911,49.854859],[-97.13477,49.854854],[-97.133745,49.854831],[-97.132435,49.854837],[-97.131514,49.854863],[-97.130696,49.85491],[-97.129918,49.855007],[-97.129096,49.855142],[-97.128021,49.855341],[-97.12686,49.855594],[-97.126611,49.855656],[-97.123875,49.856338],[-97.122894,49.856645],[-97.121938,49.85702],[-97.120288,49.857708],[-97.119539,49.858077],[-97.118127,49.858912],[-97.117535,49.859322],[-97.117082,49.859694],[-97.116647,49.860093],[-97.115205,49.861668],[-97.114836,49.862145],[-97.114495,49.862699],[-97.113958,49.863684],[-97.113192,49.864972],[-97.112952,49.865477],[-97.112835,49.865806],[-97.112776,49.866134],[-97.112716,49.867218],[-97.112834,49.867854],[-97.1131,49.86847],[-97.113432,49.868965],[-97.11389,49.869483],[-97.114486,49.86989],[-97.114955,49.870136],[-97.115811,49.870435],[-97.116642,49.870628],[-97.116912,49.87069],[-97.118006,49.870866],[-97.119103,49.870992],[-97.120212,49.87106],[-97.121378,49.871093],[-97.122214,49.871071],[-97.123295,49.87101],[-97.124298,49.870932],[-97.126766,49.870677],[-97.127894,49.870544],[-97.129101,49.87037],[-97.130254,49.870179],[-97.131225,49.870095],[-97.132305,49.870054],[-97.133061,49.870096],[-97.133547,49.870161],[-97.134416,49.870405],[-97.135075,49.870624],[-97.135676,49.870886],[-97.136109,49.871115],[-97.136341,49.871314],[-97.13668,49.8717],[-97.137013,49.872252],[-97.137311,49.872933],[-97.137407,49.873579],[-97.137361,49.874236],[-97.137204,49.875125],[-97.136964,49.875861],[-97.136617,49.87651],[-97.136236,49.87713],[-97.135879,49.877636],[-97.135684,49.877912],[-97.135172,49.878501],[-97.134544,49.879084],[-97.133172,49.880194],[-97.132606,49.880691],[-97.132028,49.881284],[-97.13174,49.881552],[-97.130293,49.882751],[-97.128845,49.88395],[-97.127117,49.885487],[-97.126814,49.885781],[-97.127271,49.885732],[-97.12792,49.885723],[-97.128978,49.885757],[-97.130046,49.885761],[-97.131119,49.885771],[-97.132205,49.885735],[-97.133009,49.885651],[-97.133111,49.885637],[-97.133896,49.885528],[-97.134758,49.885334],[-97.135501,49.885134],[-97.136246,49.884935],[-97.136899,49.884696],[-97.137518,49.884418],[-97.138068,49.884183],[-97.13873,49.883909],[-97.13937,49.883662],[-97.139941,49.883407],[-97.140524,49.883129],[-97.141144,49.882851],[-97.141785,49.882605],[-97.142403,49.88243],[-97.143023,49.882292],[-97.143194,49.882263],[-97.143671,49.882182],[-97.144331,49.882041],[-97.14493,49.881945],[-97.145564,49.881872],[-97.14628,49.881823],[-97.146995,49.881781],[-97.147708,49.881747],[-97.148444,49.881746],[-97.149219,49.881695],[-97.149862,49.881668],[-97.150566,49.881656],[-97.151221,49.881681],[-97.151735,49.88163],[-97.152265,49.88151],[-97.152869,49.881339],[-97.153064,49.881273],[-97.153049,49.881568],[-97.153026,49.882014],[-97.15274,49.88211],[-97.152358,49.882238],[-97.152345,49.882386],[-97.152294,49.882384],[-97.15226,49.882769],[-97.152255,49.882824],[-97.152254,49.88283],[-97.152238,49.88301],[-97.15223,49.883098],[-97.152224,49.883166],[-97.152218,49.883234],[-97.152212,49.883303],[-97.152206,49.883371],[-97.1522,49.883439],[-97.152194,49.883508],[-97.152188,49.883576],[-97.152181,49.883644],[-97.152175,49.883713],[-97.152169,49.883781],[-97.152163,49.883849],[-97.152157,49.883918],[-97.152166,49.883918],[-97.152063,49.885066],[-97.152058,49.885121],[-97.152101,49.885123],[-97.152074,49.885424],[-97.152066,49.885514],[-97.151367,49.885488],[-97.151317,49.886049],[-97.15131,49.886128],[-97.15117,49.886123],[-97.150705,49.886106],[-97.150702,49.886133],[-97.150592,49.887363],[-97.150576,49.887543],[-97.150507,49.888356],[-97.151108,49.888378],[-97.151063,49.888885],[-97.151197,49.888935],[-97.151855,49.889035],[-97.151961,49.889044],[-97.153036,49.889084],[-97.153529,49.889206],[-97.154111,49.889242],[-97.154094,49.889734],[-97.155203,49.889431],[-97.154991,49.892451],[-97.154964,49.892823],[-97.153343,49.892768],[-97.152651,49.892896],[-97.152499,49.892924],[-97.152151,49.892989],[-97.152258,49.893257],[-97.152448,49.893729],[-97.152304,49.895765],[-97.15224,49.896669],[-97.152137,49.898117],[-97.152064,49.899153],[-97.158164,49.901101],[-97.159704,49.90155],[-97.171436,49.905306],[-97.173269,49.905893],[-97.18024,49.908126],[-97.183721,49.90924],[-97.186398,49.910097]]]}},{"type":"Feature","properties":{"division":"4","name":"East Kildonan-Transcona Community","planner":"Choi Ho","email":"CHo@winnipeg.ca","phone":"204-986-6008","feature_set_id":18772},"geometry":{"type":"Polygon","coordinates":[[[-97.092264,49.968503],[-97.108585,49.958411],[-97.113694,49.955236],[-97.113493,49.95517],[-97.109619,49.953917],[-97.109084,49.953744],[-97.108341,49.953503],[-97.10809,49.953422],[-97.103904,49.952067],[-97.103488,49.951932],[-97.103448,49.951919],[-97.103157,49.951825],[-97.10249,49.952257],[-97.098218,49.950921],[-97.097255,49.95062],[-97.097943,49.949722],[-97.098156,49.94929],[-97.098262,49.948854],[-97.09829,49.948131],[-97.098194,49.947427],[-97.098047,49.947067],[-97.097832,49.946676],[-97.097376,49.946058],[-97.096871,49.945302],[-97.096453,49.944616],[-97.09626,49.944084],[-97.096161,49.943439],[-97.096158,49.943021],[-97.096178,49.942788],[-97.096438,49.942188],[-97.096699,49.941871],[-97.097152,49.941522],[-97.098271,49.940893],[-97.099174,49.940544],[-97.100683,49.940037],[-97.100799,49.940005],[-97.102039,49.939666],[-97.10421,49.939221],[-97.105222,49.938968],[-97.107286,49.938412],[-97.107985,49.938125],[-97.108743,49.937759],[-97.109402,49.937339],[-97.109972,49.936876],[-97.110514,49.936273],[-97.110777,49.935914],[-97.111058,49.93535],[-97.111259,49.934808],[-97.111402,49.934016],[-97.111432,49.933252],[-97.111173,49.931814],[-97.111044,49.931375],[-97.110624,49.930298],[-97.110222,49.929345],[-97.109961,49.928525],[-97.109891,49.928007],[-97.109899,49.927199],[-97.110013,49.926312],[-97.110219,49.925633],[-97.110259,49.9255],[-97.110448,49.924986],[-97.110873,49.924245],[-97.112034,49.922771],[-97.112462,49.922312],[-97.113043,49.92179],[-97.113564,49.921442],[-97.114323,49.921039],[-97.115504,49.920512],[-97.116048,49.920325],[-97.116578,49.920143],[-97.117022,49.920034],[-97.117408,49.91996],[-97.118059,49.919878],[-97.119129,49.919755],[-97.12032,49.919586],[-97.12134,49.919405],[-97.12234,49.919196],[-97.123071,49.91896],[-97.124023,49.918523],[-97.124692,49.918126],[-97.125324,49.917555],[-97.125757,49.917103],[-97.126158,49.91665],[-97.126516,49.916147],[-97.126628,49.915952],[-97.126686,49.915851],[-97.126787,49.915568],[-97.126887,49.915029],[-97.126947,49.914032],[-97.126904,49.913771],[-97.126528,49.912737],[-97.126261,49.912152],[-97.125895,49.911618],[-97.125642,49.911364],[-97.12412,49.910311],[-97.121233,49.908708],[-97.12034,49.908274],[-97.119525,49.907878],[-97.116826,49.906511],[-97.116373,49.906305],[-97.115888,49.906111],[-97.114577,49.90567],[-97.114018,49.905492],[-97.113346,49.905328],[-97.112193,49.905095],[-97.111701,49.90497],[-97.111276,49.904839],[-97.110228,49.904464],[-97.109885,49.904333],[-97.10956,49.904185],[-97.109316,49.904029],[-97.10909,49.903847],[-97.108677,49.903402],[-97.108577,49.903159],[-97.108562,49.902846],[-97.108603,49.902686],[-97.107552,49.902625],[-97.106625,49.902572],[-97.106143,49.902587],[-97.107404,49.899594],[-97.107211,49.89921],[-97.10706,49.89922],[-97.10321,49.899455],[-97.10277,49.899465],[-97.101999,49.89946],[-97.101199,49.899426],[-97.10043,49.899364],[-97.099826,49.899296],[-97.071165,49.894174],[-97.071959,49.890959],[-97.072264,49.889218],[-97.072195,49.885933],[-97.072183,49.882941],[-97.072182,49.882645],[-97.072224,49.881925],[-97.072164,49.876686],[-97.072163,49.87636],[-97.072163,49.876037],[-97.072202,49.873615],[-97.071552,49.873615],[-97.071545,49.871174],[-97.071321,49.870998],[-97.062403,49.863973],[-97.056593,49.860205],[-97.05302,49.859705],[-97.052409,49.859531],[-97.051721,49.85926],[-97.051054,49.85895],[-97.050307,49.858492],[-97.049923,49.858052],[-97.049699,49.857591],[-97.049593,49.85656],[-97.049565,49.856033],[-97.049776,49.856033],[-97.04975,49.848058],[-97.04973,49.841761],[-97.049847,49.840897],[-97.049377,49.840897],[-97.046916,49.840897],[-97.043785,49.840897],[-97.0401,49.840897],[-97.038193,49.840897],[-97.0326,49.840897],[-97.027007,49.840896],[-97.02673,49.840896],[-97.026729,49.841444],[-97.026729,49.841623],[-97.026767,49.854856],[-97.026772,49.855705],[-97.026776,49.857201],[-97.026777,49.857524],[-97.026777,49.857622],[-97.026781,49.859222],[-97.026791,49.863786],[-97.026811,49.870939],[-97.004252,49.870946],[-96.992688,49.870939],[-96.98107,49.870934],[-96.981074,49.878401],[-96.981077,49.883757],[-96.981078,49.885821],[-96.968376,49.885816],[-96.968168,49.885816],[-96.967958,49.885816],[-96.956529,49.885813],[-96.956541,49.886444],[-96.956747,49.897482],[-96.957182,49.898299],[-96.958061,49.899947],[-96.95836,49.900509],[-96.958506,49.900781],[-96.962376,49.908038],[-96.966387,49.915556],[-96.968049,49.915569],[-96.977141,49.915641],[-96.979329,49.915658],[-96.979749,49.915662],[-96.990555,49.915721],[-96.990841,49.915723],[-96.99095,49.915723],[-96.991926,49.915728],[-96.992206,49.91573],[-96.992418,49.915731],[-96.99263,49.915732],[-96.992842,49.915733],[-96.993055,49.915734],[-96.993267,49.915735],[-96.993479,49.915736],[-96.993691,49.915737],[-96.993903,49.915739],[-96.994115,49.91574],[-96.994327,49.915741],[-96.99454,49.915742],[-96.994752,49.915743],[-96.994964,49.915744],[-96.995176,49.915745],[-96.995388,49.915746],[-96.9956,49.915747],[-96.995813,49.915749],[-96.996025,49.91575],[-96.996237,49.915751],[-96.996449,49.915752],[-96.996729,49.915753],[-96.997187,49.915756],[-96.99835,49.915762],[-96.998562,49.915763],[-97.000886,49.915775],[-97.001813,49.915779],[-97.002158,49.915781],[-97.002579,49.915783],[-97.003791,49.915791],[-97.00676,49.915809],[-97.011781,49.91584],[-97.01228,49.915843],[-97.012779,49.915846],[-97.013277,49.915849],[-97.013776,49.915852],[-97.022966,49.915906],[-97.024659,49.915916],[-97.024976,49.915918],[-97.024954,49.917364],[-97.02494,49.918368],[-97.024938,49.918505],[-97.024925,49.919364],[-97.02491,49.920359],[-97.024887,49.921935],[-97.024879,49.922519],[-97.024877,49.922616],[-97.024874,49.922795],[-97.024869,49.923136],[-97.024857,49.923927],[-97.024855,49.924107],[-97.024833,49.925554],[-97.024831,49.925735],[-97.024809,49.927182],[-97.024807,49.927363],[-97.024796,49.928087],[-97.024791,49.928443],[-97.024761,49.930437],[-97.02356,49.930429],[-97.022781,49.930424],[-97.020529,49.930408],[-97.02038,49.930407],[-97.02024,49.930406],[-97.0201,49.930405],[-97.01996,49.930404],[-97.01982,49.930403],[-97.019679,49.930402],[-97.019539,49.930401],[-97.019399,49.9304],[-97.019259,49.930399],[-97.018992,49.930397],[-97.018898,49.930397],[-97.018792,49.930396],[-97.018686,49.930395],[-97.01858,49.930394],[-97.018474,49.930394],[-97.018368,49.930393],[-97.018262,49.930392],[-97.018156,49.930391],[-97.018049,49.930391],[-97.017943,49.93039],[-97.017837,49.930389],[-97.017731,49.930388],[-97.017625,49.930387],[-97.017519,49.930387],[-97.017413,49.930386],[-97.017307,49.930385],[-97.017201,49.930384],[-97.017094,49.930384],[-97.016988,49.930383],[-97.016882,49.930382],[-97.016776,49.930381],[-97.01667,49.930381],[-97.016564,49.93038],[-97.016458,49.930379],[-97.016352,49.930378],[-97.016246,49.930377],[-97.01614,49.930377],[-97.016033,49.930376],[-97.015927,49.930375],[-97.015821,49.930374],[-97.015715,49.930374],[-97.015435,49.930372],[-97.015329,49.930371],[-97.015223,49.93037],[-97.015117,49.930369],[-97.01501,49.930368],[-97.014904,49.930368],[-97.014798,49.930367],[-97.014692,49.930366],[-97.014586,49.930365],[-97.01448,49.930365],[-97.014374,49.930364],[-97.014267,49.930363],[-97.014161,49.930362],[-97.014055,49.930362],[-97.013949,49.930361],[-97.013843,49.93036],[-97.013698,49.930359],[-97.013558,49.930358],[-97.009916,49.930331],[-97.005329,49.930298],[-97.002358,49.930276],[-97.001938,49.930273],[-96.999162,49.930254],[-96.99821,49.930248],[-96.997282,49.930242],[-96.998054,49.930586],[-97.001537,49.932138],[-97.004904,49.933637],[-97.006283,49.934252],[-97.007124,49.934626],[-97.007884,49.934965],[-97.008582,49.935276],[-97.014329,49.937835],[-97.015538,49.938373],[-97.015943,49.938554],[-97.016345,49.938732],[-97.016747,49.938911],[-97.01715,49.939091],[-97.017553,49.93927],[-97.017956,49.93945],[-97.018467,49.939677],[-97.018816,49.939833],[-97.019165,49.939988],[-97.019569,49.940167],[-97.019972,49.940347],[-97.020375,49.940526],[-97.020777,49.940705],[-97.021179,49.940884],[-97.021584,49.941065],[-97.02199,49.941245],[-97.022391,49.941424],[-97.022793,49.941603],[-97.023198,49.941783],[-97.023593,49.941959],[-97.030002,49.944811],[-97.030876,49.9452],[-97.031837,49.945627],[-97.032509,49.945926],[-97.03318,49.946226],[-97.034152,49.946658],[-97.035177,49.947115],[-97.036203,49.947572],[-97.037229,49.948029],[-97.038254,49.948485],[-97.038604,49.948641],[-97.038953,49.948797],[-97.03928,49.948942],[-97.039303,49.948953],[-97.039669,49.949116],[-97.039892,49.949215],[-97.040234,49.949367],[-97.040306,49.949399],[-97.041331,49.949856],[-97.042357,49.950312],[-97.043314,49.950739],[-97.043547,49.950842],[-97.043721,49.95092],[-97.043894,49.950997],[-97.064423,49.960133],[-97.064912,49.960351],[-97.065264,49.960507],[-97.065617,49.960664],[-97.065862,49.960773],[-97.066066,49.960864],[-97.066527,49.961069],[-97.066701,49.961148],[-97.066875,49.961226],[-97.067831,49.96165],[-97.068093,49.961766],[-97.068197,49.961812],[-97.069199,49.962258],[-97.070294,49.962745],[-97.071319,49.96171],[-97.072168,49.960798],[-97.072608,49.96029],[-97.073017,49.959891],[-97.074066,49.96036],[-97.078716,49.962441],[-97.081847,49.963843],[-97.082084,49.963948],[-97.082321,49.964054],[-97.086107,49.965749],[-97.091989,49.968388],[-97.092078,49.968428],[-97.092086,49.968423],[-97.092264,49.968503]]]}},{"type":"Feature","properties":{"division":"DOWNTOWN","name":"Downtown","planner":"Daniel Iskierski (Development Applications), Karin Kliewer (Plan Implementation)","email":"diskierski@winnipeg.ca, kkliewer@winnipeg.ca","phone":"Daniel 204-986-5337, Karin 431-336-9158","feature_set_id":18772},"geometry":{"type":"Polygon","coordinates":[[[-97.153064,49.881273],[-97.152869,49.881339],[-97.152265,49.88151],[-97.151735,49.88163],[-97.151221,49.881681],[-97.150566,49.881656],[-97.149862,49.881668],[-97.149219,49.881695],[-97.148444,49.881746],[-97.147708,49.881747],[-97.146995,49.881781],[-97.14628,49.881823],[-97.145564,49.881872],[-97.14493,49.881945],[-97.144331,49.882041],[-97.143671,49.882182],[-97.143194,49.882263],[-97.143023,49.882292],[-97.142403,49.88243],[-97.141785,49.882605],[-97.141144,49.882851],[-97.140524,49.883129],[-97.139941,49.883407],[-97.13937,49.883662],[-97.13873,49.883909],[-97.138068,49.884183],[-97.137518,49.884418],[-97.136899,49.884696],[-97.136246,49.884935],[-97.135501,49.885134],[-97.134758,49.885334],[-97.133896,49.885528],[-97.133111,49.885637],[-97.133009,49.885651],[-97.132205,49.885735],[-97.131119,49.885771],[-97.130046,49.885761],[-97.128978,49.885757],[-97.12792,49.885723],[-97.127271,49.885732],[-97.126814,49.885781],[-97.126487,49.886097],[-97.126159,49.886473],[-97.125934,49.88685],[-97.125766,49.887331],[-97.125652,49.887944],[-97.12568,49.888691],[-97.125838,49.889264],[-97.126089,49.88982],[-97.126491,49.890419],[-97.12692,49.890823],[-97.127307,49.891226],[-97.127391,49.891313],[-97.128762,49.893098],[-97.129335,49.893775],[-97.129915,49.894317],[-97.130548,49.894956],[-97.130669,49.895137],[-97.130944,49.895553],[-97.131205,49.896157],[-97.131259,49.89671],[-97.131249,49.897306],[-97.131216,49.897787],[-97.131166,49.897912],[-97.131111,49.898048],[-97.130948,49.898303],[-97.130573,49.898707],[-97.130117,49.899048],[-97.129592,49.899371],[-97.128986,49.899683],[-97.128784,49.899764],[-97.128536,49.899864],[-97.12709,49.90025],[-97.126314,49.900437],[-97.126018,49.901226],[-97.125528,49.902531],[-97.126139,49.902624],[-97.126107,49.902712],[-97.125975,49.903064],[-97.125843,49.903416],[-97.125811,49.903504],[-97.126869,49.903657],[-97.126871,49.90376],[-97.126125,49.904328],[-97.126088,49.904356],[-97.125954,49.904459],[-97.128468,49.904844],[-97.130937,49.905193],[-97.131204,49.905259],[-97.132297,49.905427],[-97.13257,49.905469],[-97.132568,49.905474],[-97.133953,49.905626],[-97.134507,49.905685],[-97.135896,49.905833],[-97.135868,49.905938],[-97.136144,49.905968],[-97.136618,49.90612],[-97.137373,49.906362],[-97.13812,49.905389],[-97.138182,49.905308],[-97.13834,49.905358],[-97.138402,49.905277],[-97.138391,49.905254],[-97.138374,49.905218],[-97.138348,49.905165],[-97.138281,49.905023],[-97.138331,49.90475],[-97.138349,49.904655],[-97.138474,49.904492],[-97.138697,49.904201],[-97.138947,49.903875],[-97.139072,49.903712],[-97.139134,49.903632],[-97.140767,49.904156],[-97.141456,49.903265],[-97.141499,49.903208],[-97.141585,49.903236],[-97.141628,49.903179],[-97.141724,49.903055],[-97.141755,49.903066],[-97.141956,49.902805],[-97.142003,49.902744],[-97.142098,49.902775],[-97.142145,49.902713],[-97.142306,49.902503],[-97.142606,49.902112],[-97.142668,49.902031],[-97.142617,49.902015],[-97.142679,49.901934],[-97.142895,49.901663],[-97.142914,49.901639],[-97.142488,49.901502],[-97.142506,49.901478],[-97.142716,49.901205],[-97.142778,49.901124],[-97.142885,49.901159],[-97.142948,49.901077],[-97.143193,49.900753],[-97.143214,49.900724],[-97.143602,49.900848],[-97.143623,49.900821],[-97.14387,49.900496],[-97.14393,49.900418],[-97.143813,49.90038],[-97.143813,49.90038],[-97.143878,49.900297],[-97.144003,49.900134],[-97.144629,49.899321],[-97.145133,49.89867],[-97.145195,49.898589],[-97.145699,49.898751],[-97.145762,49.89867],[-97.146652,49.897519],[-97.146714,49.897439],[-97.145832,49.897156],[-97.145706,49.897116],[-97.145768,49.897035],[-97.146013,49.896716],[-97.146139,49.896756],[-97.147849,49.897304],[-97.150169,49.898047],[-97.15093,49.89829],[-97.150947,49.898266],[-97.151174,49.897972],[-97.151236,49.897891],[-97.151359,49.89793],[-97.152137,49.898117],[-97.15224,49.896669],[-97.152304,49.895765],[-97.152448,49.893729],[-97.152258,49.893257],[-97.152151,49.892989],[-97.152499,49.892924],[-97.152651,49.892896],[-97.153343,49.892768],[-97.154964,49.892823],[-97.154991,49.892451],[-97.155203,49.889431],[-97.154094,49.889734],[-97.154111,49.889242],[-97.153529,49.889206],[-97.153036,49.889084],[-97.151961,49.889044],[-97.151855,49.889035],[-97.151197,49.888935],[-97.151063,49.888885],[-97.151108,49.888378],[-97.150507,49.888356],[-97.150576,49.887543],[-97.150592,49.887363],[-97.150702,49.886133],[-97.150705,49.886106],[-97.15117,49.886123],[-97.15131,49.886128],[-97.151317,49.886049],[-97.151367,49.885488],[-97.152066,49.885514],[-97.152074,49.885424],[-97.152101,49.885123],[-97.152058,49.885121],[-97.152063,49.885066],[-97.152166,49.883918],[-97.152157,49.883918],[-97.152163,49.883849],[-97.152169,49.883781],[-97.152175,49.883713],[-97.152181,49.883644],[-97.152188,49.883576],[-97.152194,49.883508],[-97.1522,49.883439],[-97.152206,49.883371],[-97.152212,49.883303],[-97.152218,49.883234],[-97.152224,49.883166],[-97.15223,49.883098],[-97.152238,49.88301],[-97.152254,49.88283],[-97.152255,49.882824],[-97.15226,49.882769],[-97.152294,49.882384],[-97.152345,49.882386],[-97.152358,49.882238],[-97.15274,49.88211],[-97.153026,49.882014],[-97.153049,49.881568],[-97.153064,49.881273]]]}},{"type":"Feature","properties":{"division":"3","name":"Lord Selkirk- West Kildonan Community","planner":"Simi Jerez","email":"sjerez@winnipeg.ca","phone":"431-373-8296","feature_set_id":18772},"geometry":{"type":"Polygon","coordinates":[[[-97.229857,49.919828],[-97.229436,49.919516],[-97.227149,49.917817],[-97.22549,49.916584],[-97.225301,49.916444],[-97.21799,49.916448],[-97.206761,49.916455],[-97.199628,49.916457],[-97.195105,49.91646],[-97.195105,49.916365],[-97.189655,49.911138],[-97.186398,49.910097],[-97.183721,49.90924],[-97.18024,49.908126],[-97.173269,49.905893],[-97.171436,49.905306],[-97.159704,49.90155],[-97.158164,49.901101],[-97.152064,49.899153],[-97.152137,49.898117],[-97.151359,49.89793],[-97.151236,49.897891],[-97.151174,49.897972],[-97.150947,49.898266],[-97.15093,49.89829],[-97.150169,49.898047],[-97.147849,49.897304],[-97.146139,49.896756],[-97.146013,49.896716],[-97.145768,49.897035],[-97.145706,49.897116],[-97.145832,49.897156],[-97.146714,49.897439],[-97.146652,49.897519],[-97.145762,49.89867],[-97.145699,49.898751],[-97.145195,49.898589],[-97.145133,49.89867],[-97.144629,49.899321],[-97.144003,49.900134],[-97.143878,49.900297],[-97.143813,49.90038],[-97.143813,49.90038],[-97.14393,49.900418],[-97.14387,49.900496],[-97.143623,49.900821],[-97.143602,49.900848],[-97.143214,49.900724],[-97.143193,49.900753],[-97.142948,49.901077],[-97.142885,49.901159],[-97.142778,49.901124],[-97.142716,49.901205],[-97.142506,49.901478],[-97.142488,49.901502],[-97.142914,49.901639],[-97.142895,49.901663],[-97.142679,49.901934],[-97.142617,49.902015],[-97.142668,49.902031],[-97.142606,49.902112],[-97.142306,49.902503],[-97.142145,49.902713],[-97.142098,49.902775],[-97.142003,49.902744],[-97.141956,49.902805],[-97.141755,49.903066],[-97.141724,49.903055],[-97.141628,49.903179],[-97.141585,49.903236],[-97.141499,49.903208],[-97.141456,49.903265],[-97.140767,49.904156],[-97.139134,49.903632],[-97.139072,49.903712],[-97.138947,49.903875],[-97.138697,49.904201],[-97.138474,49.904492],[-97.138349,49.904655],[-97.138331,49.90475],[-97.138281,49.905023],[-97.138348,49.905165],[-97.138374,49.905218],[-97.138391,49.905254],[-97.138402,49.905277],[-97.13834,49.905358],[-97.138182,49.905308],[-97.13812,49.905389],[-97.137373,49.906362],[-97.136618,49.90612],[-97.136144,49.905968],[-97.135868,49.905938],[-97.135896,49.905833],[-97.134507,49.905685],[-97.133953,49.905626],[-97.132568,49.905474],[-97.13257,49.905469],[-97.132297,49.905427],[-97.131204,49.905259],[-97.130937,49.905193],[-97.128468,49.904844],[-97.125954,49.904459],[-97.126088,49.904356],[-97.126125,49.904328],[-97.126871,49.90376],[-97.126869,49.903657],[-97.125811,49.903504],[-97.125843,49.903416],[-97.125975,49.903064],[-97.126107,49.902712],[-97.126139,49.902624],[-97.125528,49.902531],[-97.125927,49.901468],[-97.126018,49.901226],[-97.126314,49.900437],[-97.125621,49.900604],[-97.124851,49.900771],[-97.124404,49.900851],[-97.12396,49.900897],[-97.123614,49.90091],[-97.121132,49.900708],[-97.119712,49.900641],[-97.116151,49.900422],[-97.115474,49.900393],[-97.113511,49.900407],[-97.112691,49.900428],[-97.111861,49.900498],[-97.111117,49.900616],[-97.110603,49.900725],[-97.110198,49.900869],[-97.10985,49.901066],[-97.109563,49.901263],[-97.109249,49.901517],[-97.10896,49.90187],[-97.108767,49.902215],[-97.108603,49.902686],[-97.108562,49.902846],[-97.108577,49.903159],[-97.108677,49.903402],[-97.10909,49.903847],[-97.109316,49.904029],[-97.10956,49.904185],[-97.109885,49.904333],[-97.110228,49.904464],[-97.111276,49.904839],[-97.111701,49.90497],[-97.112193,49.905095],[-97.113346,49.905328],[-97.114018,49.905492],[-97.114577,49.90567],[-97.115888,49.906111],[-97.116373,49.906305],[-97.116826,49.906511],[-97.119525,49.907878],[-97.12034,49.908274],[-97.121233,49.908708],[-97.12412,49.910311],[-97.125642,49.911364],[-97.125895,49.911618],[-97.126261,49.912152],[-97.126528,49.912737],[-97.126904,49.913771],[-97.126947,49.914032],[-97.126887,49.915029],[-97.126787,49.915568],[-97.126686,49.915851],[-97.126628,49.915952],[-97.126516,49.916147],[-97.126158,49.91665],[-97.125757,49.917103],[-97.125324,49.917555],[-97.124692,49.918126],[-97.124023,49.918523],[-97.123071,49.91896],[-97.12234,49.919196],[-97.12134,49.919405],[-97.12032,49.919586],[-97.119129,49.919755],[-97.118059,49.919878],[-97.117408,49.91996],[-97.117022,49.920034],[-97.116578,49.920143],[-97.116048,49.920325],[-97.115504,49.920512],[-97.114323,49.921039],[-97.113564,49.921442],[-97.113043,49.92179],[-97.112462,49.922312],[-97.112034,49.922771],[-97.110873,49.924245],[-97.110448,49.924986],[-97.110259,49.9255],[-97.110219,49.925633],[-97.110013,49.926312],[-97.109899,49.927199],[-97.109891,49.928007],[-97.109961,49.928525],[-97.110222,49.929345],[-97.110624,49.930298],[-97.111044,49.931375],[-97.111173,49.931814],[-97.111432,49.933252],[-97.111402,49.934016],[-97.111259,49.934808],[-97.111058,49.93535],[-97.110777,49.935914],[-97.110514,49.936273],[-97.109972,49.936876],[-97.109402,49.937339],[-97.108743,49.937759],[-97.107985,49.938125],[-97.107286,49.938412],[-97.105222,49.938968],[-97.10421,49.939221],[-97.102039,49.939666],[-97.100799,49.940005],[-97.100683,49.940037],[-97.099174,49.940544],[-97.098271,49.940893],[-97.097152,49.941522],[-97.096699,49.941871],[-97.096438,49.942188],[-97.096178,49.942788],[-97.096158,49.943021],[-97.096161,49.943439],[-97.09626,49.944084],[-97.096453,49.944616],[-97.096871,49.945302],[-97.097376,49.946058],[-97.097832,49.946676],[-97.098047,49.947067],[-97.098194,49.947427],[-97.09829,49.948131],[-97.098262,49.948854],[-97.098156,49.94929],[-97.097943,49.949722],[-97.097255,49.95062],[-97.098218,49.950921],[-97.10249,49.952257],[-97.103157,49.951825],[-97.103448,49.951919],[-97.103488,49.951932],[-97.103904,49.952067],[-97.10809,49.953422],[-97.108341,49.953503],[-97.109084,49.953744],[-97.109619,49.953917],[-97.113493,49.95517],[-97.113694,49.955236],[-97.108585,49.958411],[-97.092264,49.968503],[-97.092442,49.968583],[-97.094917,49.969689],[-97.103321,49.973447],[-97.112488,49.977545],[-97.113497,49.977996],[-97.113792,49.978128],[-97.113729,49.978209],[-97.114164,49.978404],[-97.149157,49.994008],[-97.149157,49.99393],[-97.155197,49.993933],[-97.155188,49.990298],[-97.161225,49.990305],[-97.161226,49.985634],[-97.161226,49.984429],[-97.161228,49.975594],[-97.18411,49.975598],[-97.206773,49.975619],[-97.218203,49.975627],[-97.229999,49.975634],[-97.229991,49.968135],[-97.229983,49.960777],[-97.229982,49.960641],[-97.229987,49.953378],[-97.229993,49.945843],[-97.229854,49.940492],[-97.229855,49.933086],[-97.229856,49.931081],[-97.229859,49.923833],[-97.229857,49.919828]]]}}]}