{"type":"FeatureCollection","_meta":{"source":"City of Winnipeg map API WMS (tile.ashx), feature sets 17939/17965/17966/17964/17967/17968, as drawn on the legacy PP&D Property Map","source_url":"https://legacy.winnipeg.ca/ppd/Mapping/PropertyMap/default.stm","method":"raster trace at ~1.1 m/pixel, polygonized and simplified to ~1.7 m; approximate to about one pixel","generated_at":"2026-10-10T00:20:26Z"},"features":[{"type":"Feature","properties":{"area":1,"variant":"Plain","title":"Infill Guideline Area 1","feature_set_id":17939,"fill":"#eff452","line":"#9d9a1a","polygons":4},"geometry":{"type":"MultiPolygon","coordinates":[[[[-97.125499,49.94794],[-97.138519,49.93984],[-97.138969,49.93999],[-97.139015,49.93998],[-97.154484,49.94498],[-97.154515,49.94497],[-97.154918,49.9451],[-97.159165,49.94023],[-97.159739,49.94042],[-97.15977,49.94042],[-97.159832,49.94034],[-97.159879,49.94034],[-97.162916,49.94132],[-97.163443,49.94149],[-97.163459,49.94151],[-97.163428,49.94152],[-97.163381,49.94159],[-97.163785,49.94172],[-97.164373,49.94096],[-97.164373,49.94093],[-97.164947,49.94021],[-97.164947,49.94018],[-97.165536,49.93944],[-97.165536,49.93941],[-97.16611,49.93869],[-97.16611,49.93866],[-97.166698,49.93792],[-97.166698,49.93789],[-97.167272,49.93717],[-97.167272,49.93714],[-97.167861,49.9364],[-97.167861,49.93637],[-97.168419,49.93567],[-97.168419,49.93564],[-97.168744,49.93524],[-97.168744,49.93521],[-97.169628,49.93409],[-97.169628,49.93406],[-97.169984,49.9336],[-97.170016,49.93363],[-97.172341,49.93061],[-97.183454,49.93418],[-97.183485,49.93418],[-97.183764,49.93382],[-97.183764,49.93379],[-97.184027,49.93347],[-97.184027,49.93343],[-97.183981,49.93334],[-97.18395,49.93319],[-97.183919,49.93315],[-97.183873,49.93295],[-97.183841,49.93291],[-97.183811,49.93276],[-97.183779,49.93272],[-97.183748,49.93257],[-97.183717,49.93253],[-97.183686,49.93238],[-97.183655,49.93234],[-97.183624,49.93219],[-97.183593,49.93215],[-97.183547,49.93195],[-97.183516,49.93191],[-97.183376,49.93146],[-97.184229,49.93173],[-97.184477,49.93183],[-97.184756,49.932],[-97.184957,49.93224],[-97.185081,49.93257],[-97.186089,49.93243],[-97.186632,49.93242],[-97.187096,49.93251],[-97.189514,49.9333],[-97.189561,49.93329],[-97.190754,49.93174],[-97.19511,49.93314],[-97.19511,49.92383],[-97.206766,49.92694],[-97.206766,49.91644],[-97.195079,49.91645],[-97.195079,49.92014],[-97.195094,49.92014],[-97.195094,49.92382],[-97.195079,49.92382],[-97.18595,49.92137],[-97.185531,49.92126],[-97.185407,49.92125],[-97.180587,49.91996],[-97.178076,49.91922],[-97.170465,49.91677],[-97.169969,49.91676],[-97.164451,49.91497],[-97.160731,49.91379],[-97.15853,49.91668],[-97.161025,49.91749],[-97.161056,49.91748],[-97.161087,49.91742],[-97.161242,49.91745],[-97.169814,49.9202],[-97.16983,49.92028],[-97.169814,49.92028],[-97.169736,49.92115],[-97.166698,49.92259],[-97.166636,49.9226],[-97.156468,49.91935],[-97.154515,49.92189],[-97.154484,49.92186],[-97.154407,49.92196],[-97.154407,49.92199],[-97.15264,49.92427],[-97.145138,49.92185],[-97.144161,49.9231],[-97.144115,49.9232],[-97.14303,49.92458],[-97.14303,49.92461],[-97.14196,49.92597],[-97.14196,49.926],[-97.140876,49.92738],[-97.140876,49.92741],[-97.139806,49.92877],[-97.139806,49.9288],[-97.139015,49.92982],[-97.138985,49.9298],[-97.136535,49.93299],[-97.123531,49.92879],[-97.123329,49.92874],[-97.123097,49.92918],[-97.123066,49.9292],[-97.123019,49.92932],[-97.122989,49.92934],[-97.122957,49.92943],[-97.122927,49.92945],[-97.12288,49.92957],[-97.122818,49.92963],[-97.119175,49.92845],[-97.11916,49.92843],[-97.119315,49.92825],[-97.119315,49.92822],[-97.119454,49.92804],[-97.117315,49.92735],[-97.117284,49.92737],[-97.117145,49.92777],[-97.117114,49.92778],[-97.112991,49.92644],[-97.11296,49.92644],[-97.112944,49.9265],[-97.11279,49.92646],[-97.110217,49.92562],[-97.110046,49.92617],[-97.110046,49.92623],[-97.110015,49.92628],[-97.109906,49.92714],[-97.109891,49.92714],[-97.109891,49.92807],[-97.109906,49.92807],[-97.109906,49.9282],[-97.109922,49.9282],[-97.109922,49.92832],[-97.109937,49.92832],[-97.109937,49.92845],[-97.110201,49.92931],[-97.110279,49.92946],[-97.110294,49.92954],[-97.110325,49.92957],[-97.110356,49.92969],[-97.110387,49.92972],[-97.110403,49.9298],[-97.110433,49.92983],[-97.110449,49.92991],[-97.11048,49.92994],[-97.110495,49.93002],[-97.110527,49.93005],[-97.110604,49.93028],[-97.110635,49.93031],[-97.111038,49.93135],[-97.111177,49.93185],[-97.111255,49.93236],[-97.11127,49.93236],[-97.111332,49.93278],[-97.111363,49.93286],[-97.111363,49.93295],[-97.111394,49.93303],[-97.111394,49.93312],[-97.111425,49.9332],[-97.111394,49.93406],[-97.111348,49.93423],[-97.111255,49.93483],[-97.111162,49.93503],[-97.111162,49.93508],[-97.111053,49.93536],[-97.110976,49.93548],[-97.110976,49.93552],[-97.110852,49.93573],[-97.110852,49.93577],[-97.110775,49.93592],[-97.110465,49.93633],[-97.110433,49.93634],[-97.110279,49.93654],[-97.110201,49.9366],[-97.109984,49.93687],[-97.10955,49.9372],[-97.109426,49.93732],[-97.108744,49.93776],[-97.108031,49.9381],[-97.107969,49.9381],[-97.107178,49.93843],[-97.105225,49.93896],[-97.104218,49.93921],[-97.102001,49.93966],[-97.100777,49.94],[-97.103024,49.94072],[-97.102993,49.94073],[-97.103009,49.94075],[-97.107984,49.94236],[-97.108031,49.94235],[-97.123484,49.94733],[-97.123531,49.94732],[-97.123639,49.94735],[-97.125499,49.94794]]],[[[-97.082115,49.94205],[-97.082936,49.941],[-97.082967,49.94099],[-97.083215,49.94065],[-97.083246,49.94064],[-97.08351,49.94028],[-97.083541,49.94027],[-97.083789,49.93993],[-97.08382,49.93992],[-97.084068,49.93958],[-97.084099,49.93957],[-97.084347,49.93923],[-97.084378,49.93922],[-97.084626,49.93888],[-97.084657,49.93887],[-97.084905,49.93853],[-97.084936,49.93852],[-97.085184,49.93818],[-97.085215,49.93817],[-97.085463,49.93783],[-97.085494,49.93782],[-97.085757,49.93746],[-97.085789,49.93745],[-97.086037,49.93711],[-97.086067,49.9371],[-97.086315,49.93676],[-97.086347,49.93675],[-97.086595,49.93641],[-97.086625,49.9364],[-97.086873,49.93606],[-97.086904,49.93605],[-97.087152,49.93571],[-97.087183,49.9357],[-97.087323,49.93552],[-97.087338,49.93547],[-97.087369,49.93546],[-97.088733,49.93372],[-97.088764,49.93371],[-97.088997,49.93339],[-97.089028,49.93338],[-97.090113,49.93199],[-97.090144,49.93198],[-97.091492,49.93026],[-97.091523,49.93025],[-97.091756,49.92993],[-97.091787,49.92992],[-97.092035,49.92958],[-97.092066,49.92957],[-97.092314,49.92923],[-97.092345,49.92922],[-97.092484,49.92902],[-97.092516,49.92906],[-97.09264,49.92888],[-97.09267,49.92887],[-97.092918,49.92853],[-97.092949,49.92852],[-97.093197,49.92818],[-97.093228,49.92817],[-97.093461,49.92785],[-97.093492,49.92784],[-97.09374,49.9275],[-97.093771,49.92749],[-97.094577,49.92645],[-97.094608,49.92644],[-97.09484,49.92612],[-97.094871,49.92611],[-97.095119,49.92577],[-97.09515,49.92576],[-97.095445,49.92536],[-97.095476,49.92535],[-97.09653,49.924],[-97.096561,49.92399],[-97.096809,49.92365],[-97.09684,49.92364],[-97.097072,49.92332],[-97.097103,49.92331],[-97.098157,49.92196],[-97.098189,49.92195],[-97.098437,49.92161],[-97.100281,49.92102],[-97.10149,49.91947],[-97.101521,49.91946],[-97.103024,49.91754],[-97.103055,49.91753],[-97.103334,49.91715],[-97.103365,49.91714],[-97.103644,49.91676],[-97.103675,49.91675],[-97.103954,49.91637],[-97.103985,49.91636],[-97.104559,49.91561],[-97.10459,49.9156],[-97.104698,49.91543],[-97.10473,49.91542],[-97.105582,49.91432],[-97.105613,49.91431],[-97.106465,49.91321],[-97.106497,49.9132],[-97.107659,49.91171],[-97.10769,49.9117],[-97.107984,49.9113],[-97.108015,49.91132],[-97.108868,49.91008],[-97.109565,49.91018],[-97.112045,49.91101],[-97.112092,49.911],[-97.112495,49.91047],[-97.113611,49.91067],[-97.11482,49.90777],[-97.11513,49.90677],[-97.115161,49.90673],[-97.115177,49.90663],[-97.11544,49.90595],[-97.114029,49.90548],[-97.111673,49.90496],[-97.110232,49.90446],[-97.109627,49.90421],[-97.109302,49.90401],[-97.109302,49.90399],[-97.109085,49.90384],[-97.10907,49.9038],[-97.109038,49.90379],[-97.109023,49.90375],[-97.108992,49.90374],[-97.108976,49.9037],[-97.108946,49.90369],[-97.10893,49.90365],[-97.108682,49.9034],[-97.108589,49.90317],[-97.108589,49.903],[-97.108574,49.903],[-97.108574,49.90282],[-97.10862,49.90268],[-97.106698,49.90256],[-97.106155,49.90257],[-97.101381,49.90334],[-97.100467,49.90311],[-97.098669,49.90314],[-97.097212,49.90323],[-97.096127,49.90323],[-97.076318,49.8997],[-97.06894,49.89833],[-97.06832,49.89954],[-97.06832,49.89958],[-97.068196,49.89982],[-97.06818,49.8999],[-97.06815,49.89993],[-97.06801,49.90028],[-97.067855,49.90047],[-97.067855,49.9005],[-97.06756,49.90089],[-97.06756,49.90092],[-97.067049,49.90158],[-97.06694,49.90168],[-97.066894,49.90176],[-97.066863,49.90177],[-97.066661,49.90203],[-97.06663,49.90204],[-97.066584,49.90212],[-97.066553,49.90213],[-97.066506,49.90221],[-97.066475,49.90222],[-97.066197,49.90257],[-97.066041,49.90272],[-97.065995,49.9028],[-97.06584,49.90295],[-97.065809,49.90301],[-97.065778,49.90302],[-97.065731,49.9031],[-97.065701,49.90311],[-97.065607,49.90324],[-97.065515,49.90332],[-97.065468,49.9034],[-97.065437,49.90341],[-97.065344,49.90354],[-97.065251,49.90362],[-97.065204,49.9037],[-97.065111,49.90378],[-97.065018,49.90391],[-97.064987,49.90392],[-97.064941,49.904],[-97.06491,49.90401],[-97.064817,49.90414],[-97.064724,49.90422],[-97.064677,49.9043],[-97.064522,49.90445],[-97.064491,49.90451],[-97.06446,49.90452],[-97.064414,49.9046],[-97.064383,49.90461],[-97.06429,49.90474],[-97.064197,49.90482],[-97.06415,49.9049],[-97.06412,49.90491],[-97.064026,49.90504],[-97.063934,49.90512],[-97.063887,49.9052],[-97.063794,49.90528],[-97.063701,49.90541],[-97.06367,49.90542],[-97.063577,49.90556],[-97.063546,49.90557],[-97.0635,49.90565],[-97.063344,49.9058],[-97.063236,49.90595],[-97.061515,49.90694],[-97.061485,49.90693],[-97.061205,49.90702],[-97.059051,49.90775],[-97.058183,49.90846],[-97.058028,49.90868],[-97.058028,49.90871],[-97.057966,49.90877],[-97.057966,49.9088],[-97.057919,49.90884],[-97.057919,49.90887],[-97.057873,49.90891],[-97.057873,49.90894],[-97.057765,49.90907],[-97.057765,49.9091],[-97.057656,49.90923],[-97.057656,49.90926],[-97.057609,49.9093],[-97.057609,49.90933],[-97.057501,49.90946],[-97.057501,49.90949],[-97.057439,49.90955],[-97.057393,49.90965],[-97.057346,49.90969],[-97.057346,49.90972],[-97.057284,49.90978],[-97.057237,49.90988],[-97.057175,49.90994],[-97.057083,49.91011],[-97.05702,49.91017],[-97.056974,49.91027],[-97.056912,49.91033],[-97.056819,49.9105],[-97.05654,49.91085],[-97.059066,49.91044],[-97.061329,49.91121],[-97.061624,49.91128],[-97.062895,49.91172],[-97.073838,49.91534],[-97.074287,49.91549],[-97.074349,49.91553],[-97.076845,49.91636],[-97.077201,49.91645],[-97.084332,49.91882],[-97.084192,49.91895],[-97.08399,49.91909],[-97.08399,49.91911],[-97.083789,49.91925],[-97.083789,49.91927],[-97.083712,49.91931],[-97.08365,49.91938],[-97.083572,49.91942],[-97.083448,49.91954],[-97.083045,49.91984],[-97.083045,49.91986],[-97.082828,49.92001],[-97.082704,49.92013],[-97.082626,49.92017],[-97.082503,49.92029],[-97.082425,49.92033],[-97.082301,49.92045],[-97.082223,49.92049],[-97.082099,49.92061],[-97.082022,49.92065],[-97.081898,49.92077],[-97.081821,49.92081],[-97.081697,49.92093],[-97.081619,49.92097],[-97.081495,49.92109],[-97.081417,49.92113],[-97.081417,49.92115],[-97.081138,49.92135],[-97.081014,49.92147],[-97.080379,49.92195],[-97.080255,49.92207],[-97.079759,49.92244],[-97.079635,49.92256],[-97.078999,49.92304],[-97.078875,49.92316],[-97.07824,49.92364],[-97.07824,49.92366],[-97.07762,49.92413],[-97.07762,49.92415],[-97.077279,49.9244],[-97.077217,49.92447],[-97.077139,49.92451],[-97.077077,49.92458],[-97.077015,49.92462],[-97.076984,49.92461],[-97.076891,49.92468],[-97.076891,49.9247],[-97.07669,49.92484],[-97.076566,49.92496],[-97.07593,49.92544],[-97.075744,49.92561],[-97.075528,49.92576],[-97.075403,49.92588],[-97.075326,49.92592],[-97.075326,49.92594],[-97.075186,49.92603],[-97.075062,49.92615],[-97.074706,49.92641],[-97.074582,49.92653],[-97.074365,49.92668],[-97.074241,49.9268],[-97.074163,49.92684],[-97.074101,49.92691],[-97.0739,49.92705],[-97.0739,49.92707],[-97.073543,49.92733],[-97.073419,49.92745],[-97.073202,49.9276],[-97.073078,49.92772],[-97.072861,49.92787],[-97.072737,49.92799],[-97.072381,49.92825],[-97.072257,49.92837],[-97.07204,49.92852],[-97.071916,49.92864],[-97.071699,49.92879],[-97.071575,49.92891],[-97.071218,49.92917],[-97.071094,49.92929],[-97.070877,49.92944],[-97.070753,49.92956],[-97.070536,49.92971],[-97.070412,49.92983],[-97.070195,49.92998],[-97.070071,49.9301],[-97.069855,49.93025],[-97.069731,49.93037],[-97.069513,49.93052],[-97.069389,49.93064],[-97.069172,49.93079],[-97.069172,49.93081],[-97.068971,49.93095],[-97.068847,49.93107],[-97.06863,49.93122],[-97.068506,49.93134],[-97.068289,49.93149],[-97.068165,49.93161],[-97.067948,49.93176],[-97.067824,49.93188],[-97.067607,49.93203],[-97.067483,49.93215],[-97.067266,49.9323],[-97.067142,49.93242],[-97.066925,49.93257],[-97.066801,49.93269],[-97.066584,49.93284],[-97.06646,49.93296],[-97.066243,49.93311],[-97.066119,49.93323],[-97.065902,49.93338],[-97.065778,49.9335],[-97.065561,49.93365],[-97.065437,49.93377],[-97.065359,49.93381],[-97.065297,49.93388],[-97.064894,49.93418],[-97.064894,49.9342],[-97.064817,49.93424],[-97.064755,49.93431],[-97.064553,49.93445],[-97.064553,49.93447],[-97.064476,49.93451],[-97.064414,49.93458],[-97.064212,49.93472],[-97.064212,49.93474],[-97.064135,49.93478],[-97.064073,49.93485],[-97.063872,49.93499],[-97.063872,49.93501],[-97.063252,49.93548],[-97.063252,49.93551],[-97.063189,49.93554],[-97.063189,49.93556],[-97.062988,49.9357],[-97.076535,49.94022],[-97.076969,49.94036],[-97.077077,49.94037],[-97.082115,49.94205]]],[[[-97.130289,49.88275],[-97.131761,49.88154],[-97.132149,49.88116],[-97.132164,49.88112],[-97.132226,49.88108],[-97.132242,49.88104],[-97.132304,49.881],[-97.132319,49.88096],[-97.132381,49.88092],[-97.132397,49.88088],[-97.132459,49.88084],[-97.132474,49.8808],[-97.132536,49.88076],[-97.132552,49.88072],[-97.132893,49.88044],[-97.132924,49.88039],[-97.133265,49.88012],[-97.133265,49.8801],[-97.133327,49.88007],[-97.133374,49.88001],[-97.133436,49.87998],[-97.133436,49.87996],[-97.133498,49.87993],[-97.133498,49.87991],[-97.13356,49.87988],[-97.13356,49.87986],[-97.133622,49.87983],[-97.133622,49.87981],[-97.133683,49.87978],[-97.133792,49.87967],[-97.133978,49.87954],[-97.134024,49.87948],[-97.134334,49.87925],[-97.134381,49.87919],[-97.134505,49.87911],[-97.134923,49.87871],[-97.135047,49.87862],[-97.135109,49.87854],[-97.135187,49.87849],[-97.13559,49.878],[-97.135621,49.87799],[-97.135869,49.87763],[-97.138628,49.87672],[-97.138845,49.87632],[-97.138876,49.8763],[-97.138891,49.87624],[-97.138923,49.87622],[-97.138953,49.87613],[-97.138985,49.87611],[-97.138985,49.87608],[-97.139015,49.8761],[-97.139015,49.87607],[-97.139077,49.876],[-97.139093,49.87594],[-97.13931,49.87561],[-97.139325,49.87555],[-97.139357,49.87553],[-97.139403,49.87541],[-97.139573,49.87516],[-97.139589,49.8751],[-97.139651,49.87503],[-97.139667,49.87497],[-97.139729,49.8749],[-97.139744,49.87484],[-97.139806,49.87477],[-97.139821,49.87471],[-97.139883,49.87464],[-97.139899,49.87458],[-97.139961,49.87451],[-97.140085,49.87427],[-97.140116,49.87425],[-97.140131,49.87419],[-97.140348,49.87386],[-97.140364,49.8738],[-97.140457,49.87368],[-97.140472,49.87362],[-97.140689,49.87329],[-97.140782,49.8731],[-97.140798,49.87308],[-97.140829,49.87309],[-97.140891,49.87319],[-97.140938,49.87315],[-97.140953,49.87309],[-97.14117,49.87276],[-97.141232,49.87262],[-97.141263,49.8726],[-97.141387,49.87236],[-97.141449,49.87229],[-97.141464,49.87223],[-97.141526,49.87216],[-97.141542,49.8721],[-97.141604,49.87203],[-97.14162,49.87197],[-97.141682,49.8719],[-97.141744,49.87176],[-97.141806,49.87169],[-97.141821,49.87163],[-97.141883,49.87156],[-97.141898,49.8715],[-97.14196,49.87143],[-97.141976,49.87137],[-97.142038,49.8713],[-97.142162,49.87106],[-97.142193,49.87104],[-97.142255,49.8709],[-97.142317,49.87083],[-97.142332,49.87077],[-97.142394,49.8707],[-97.14241,49.87064],[-97.142472,49.87057],[-97.142487,49.87051],[-97.142549,49.87044],[-97.142673,49.8702],[-97.142704,49.87018],[-97.142766,49.87004],[-97.142828,49.86997],[-97.142999,49.86965],[-97.143045,49.86961],[-97.145665,49.86877],[-97.145696,49.86877],[-97.145928,49.86909],[-97.145959,49.8691],[-97.146192,49.86942],[-97.146223,49.86943],[-97.159041,49.86514],[-97.163583,49.8709],[-97.16025,49.87201],[-97.159785,49.87216],[-97.159522,49.87221],[-97.158809,49.87244],[-97.158793,49.87246],[-97.158871,49.87253],[-97.158886,49.87258],[-97.158793,49.87261],[-97.158545,49.87253],[-97.157368,49.87293],[-97.156546,49.87272],[-97.157755,49.87306],[-97.157755,49.87309],[-97.157678,49.87315],[-97.157662,49.87319],[-97.157073,49.87374],[-97.156871,49.87397],[-97.155895,49.87373],[-97.154748,49.87373],[-97.153864,49.87393],[-97.15374,49.87402],[-97.153632,49.87406],[-97.15295,49.87444],[-97.152469,49.87504],[-97.152454,49.87516],[-97.152423,49.87521],[-97.152392,49.87539],[-97.15233,49.87557],[-97.152361,49.87569],[-97.152423,49.87579],[-97.152485,49.87598],[-97.152516,49.87601],[-97.152733,49.87656],[-97.152841,49.87677],[-97.152857,49.87685],[-97.152888,49.87688],[-97.152981,49.87714],[-97.153043,49.87724],[-97.153058,49.87732],[-97.153368,49.87762],[-97.153384,49.87766],[-97.153477,49.87773],[-97.153492,49.87777],[-97.153586,49.87784],[-97.153601,49.87788],[-97.153694,49.87795],[-97.15371,49.87799],[-97.153802,49.87806],[-97.153818,49.8781],[-97.153942,49.8782],[-97.153958,49.87824],[-97.15405,49.87831],[-97.154066,49.87835],[-97.154159,49.87842],[-97.154174,49.87846],[-97.154267,49.87853],[-97.154283,49.87857],[-97.154376,49.87864],[-97.154391,49.87868],[-97.154484,49.87877],[-97.154515,49.87875],[-97.154825,49.87908],[-97.155787,49.87903],[-97.155802,49.87912],[-97.155895,49.87912],[-97.159801,49.87889],[-97.161676,49.8782],[-97.162172,49.87838],[-97.163133,49.87859],[-97.163443,49.87863],[-97.163769,49.87863],[-97.164281,49.87855],[-97.164885,49.87839],[-97.165676,49.87814],[-97.169194,49.8767],[-97.169969,49.87645],[-97.170217,49.87638],[-97.171286,49.87621],[-97.172433,49.87616],[-97.174138,49.87621],[-97.174789,49.87631],[-97.175471,49.87645],[-97.176138,49.87665],[-97.176758,49.8769],[-97.177471,49.87729],[-97.178277,49.87779],[-97.179594,49.87866],[-97.179625,49.87866],[-97.179982,49.87888],[-97.180478,49.87909],[-97.181067,49.87928],[-97.181656,49.8794],[-97.18226,49.87947],[-97.182725,49.8795],[-97.183376,49.87948],[-97.184027,49.87941],[-97.184632,49.87931],[-97.18753,49.87869],[-97.188243,49.8785],[-97.188863,49.87829],[-97.18908,49.87824],[-97.189809,49.87813],[-97.190196,49.8781],[-97.191095,49.87809],[-97.192847,49.87823],[-97.193637,49.87833],[-97.194366,49.87836],[-97.19497,49.87071],[-97.190538,49.87055],[-97.190832,49.86709],[-97.197559,49.86734],[-97.197249,49.8708],[-97.201186,49.87097],[-97.201031,49.8727],[-97.201015,49.8727],[-97.201015,49.87287],[-97.200985,49.87283],[-97.200953,49.87336],[-97.200938,49.87336],[-97.200938,49.87397],[-97.201186,49.87398],[-97.201248,49.87442],[-97.203309,49.87452],[-97.204363,49.87469],[-97.20503,49.87475],[-97.205665,49.87474],[-97.206022,49.87471],[-97.206518,49.87463],[-97.20737,49.87442],[-97.208223,49.87451],[-97.208238,49.87505],[-97.208254,49.87505],[-97.208254,49.87517],[-97.208269,49.87517],[-97.208301,49.87553],[-97.208316,49.87553],[-97.208347,49.87599],[-97.208285,49.87622],[-97.208037,49.87646],[-97.208021,49.8765],[-97.207928,49.87656],[-97.209587,49.87661],[-97.209587,49.87669],[-97.21075,49.87673],[-97.21061,49.87839],[-97.212501,49.87826],[-97.218624,49.87812],[-97.222932,49.87806],[-97.223351,49.87804],[-97.223351,49.87798],[-97.224529,49.87795],[-97.224731,49.87795],[-97.224731,49.878],[-97.226435,49.87796],[-97.226451,49.87779],[-97.227257,49.87778],[-97.227272,49.87769],[-97.227474,49.87762],[-97.230729,49.87673],[-97.2351,49.87673],[-97.238432,49.87634],[-97.238541,49.87531],[-97.237611,49.87549],[-97.237611,49.87551],[-97.237503,49.87553],[-97.236681,49.87564],[-97.236386,49.87565],[-97.235456,49.87566],[-97.233255,49.87556],[-97.231907,49.87556],[-97.231349,49.8756],[-97.230574,49.87556],[-97.229876,49.87544],[-97.228807,49.87516],[-97.227614,49.8748],[-97.227118,49.87468],[-97.226311,49.8744],[-97.225257,49.87398],[-97.224048,49.87356],[-97.223382,49.87329],[-97.222994,49.87323],[-97.22225,49.87317],[-97.221227,49.87316],[-97.220592,49.87321],[-97.219584,49.87341],[-97.22022,49.86672],[-97.215616,49.86655],[-97.21543,49.86673],[-97.215415,49.86677],[-97.215322,49.86684],[-97.215306,49.86688],[-97.215214,49.86695],[-97.215198,49.86699],[-97.215074,49.86709],[-97.215058,49.86713],[-97.214966,49.8672],[-97.21495,49.86724],[-97.214857,49.86731],[-97.214842,49.86735],[-97.214718,49.86745],[-97.214702,49.86749],[-97.214609,49.86756],[-97.214594,49.8676],[-97.214361,49.86781],[-97.214345,49.86785],[-97.214252,49.86792],[-97.214237,49.86796],[-97.214004,49.86817],[-97.213989,49.86821],[-97.213896,49.86828],[-97.21388,49.86832],[-97.213648,49.86853],[-97.213632,49.86857],[-97.213539,49.86864],[-97.213524,49.86868],[-97.213291,49.86889],[-97.213276,49.86893],[-97.213043,49.86914],[-97.213028,49.86918],[-97.212935,49.86925],[-97.212919,49.86929],[-97.212687,49.8695],[-97.212671,49.86954],[-97.212579,49.86961],[-97.212563,49.86965],[-97.212439,49.86975],[-97.212393,49.86982],[-97.205479,49.86955],[-97.207293,49.85034],[-97.192971,49.84978],[-97.18457,49.85056],[-97.180602,49.85131],[-97.179176,49.85148],[-97.177145,49.85132],[-97.176076,49.85137],[-97.176091,49.85113],[-97.176107,49.85113],[-97.176107,49.8509],[-97.176123,49.8509],[-97.176138,49.85061],[-97.176153,49.85061],[-97.176153,49.85047],[-97.176169,49.85047],[-97.176169,49.85039],[-97.176107,49.85039],[-97.159522,49.85195],[-97.155771,49.85228],[-97.155244,49.85235],[-97.154624,49.85249],[-97.154066,49.85267],[-97.153802,49.85279],[-97.153834,49.8524],[-97.153849,49.8524],[-97.153849,49.85214],[-97.15388,49.85204],[-97.15388,49.85193],[-97.153896,49.85193],[-97.153926,49.85152],[-97.155167,49.85111],[-97.155507,49.85134],[-97.155663,49.85141],[-97.158545,49.85042],[-97.159677,49.85006],[-97.159739,49.85002],[-97.160204,49.84988],[-97.160266,49.84984],[-97.16211,49.84923],[-97.162126,49.8492],[-97.161832,49.84886],[-97.161909,49.84882],[-97.16242,49.84867],[-97.162482,49.84863],[-97.162978,49.84848],[-97.16304,49.84844],[-97.163443,49.84832],[-97.163505,49.84828],[-97.164079,49.84811],[-97.164141,49.84807],[-97.165102,49.84776],[-97.165164,49.84772],[-97.165676,49.84757],[-97.165738,49.84753],[-97.16676,49.8472],[-97.166822,49.84716],[-97.167225,49.84704],[-97.167287,49.847],[-97.167799,49.84685],[-97.167861,49.84681],[-97.168326,49.84667],[-97.168388,49.84663],[-97.169457,49.84629],[-97.16952,49.84625],[-97.169922,49.84613],[-97.169954,49.8461],[-97.170852,49.84581],[-97.170217,49.84499],[-97.170155,49.84496],[-97.169644,49.84429],[-97.169612,49.84428],[-97.169132,49.84366],[-97.169101,49.84365],[-97.168977,49.84347],[-97.168946,49.84346],[-97.168636,49.84305],[-97.168605,49.84304],[-97.168434,49.84282],[-97.168419,49.84276],[-97.168311,49.84262],[-97.168279,49.84261],[-97.168001,49.84223],[-97.167907,49.84215],[-97.167706,49.84187],[-97.167659,49.84187],[-97.167163,49.84121],[-97.167132,49.8412],[-97.166946,49.84094],[-97.166915,49.84093],[-97.166729,49.84067],[-97.166698,49.84066],[-97.166296,49.84013],[-97.166264,49.84012],[-97.165862,49.83959],[-97.16583,49.83958],[-97.164838,49.83832],[-97.164776,49.83829],[-97.164311,49.83768],[-97.164234,49.83762],[-97.163521,49.8367],[-97.16349,49.83669],[-97.163257,49.83637],[-97.163226,49.83636],[-97.163025,49.8361],[-97.162947,49.83593],[-97.162746,49.83567],[-97.162653,49.83566],[-97.162343,49.83525],[-97.162312,49.83524],[-97.162234,49.83512],[-97.16208,49.83497],[-97.161894,49.83472],[-97.161862,49.83471],[-97.161196,49.83387],[-97.161041,49.83372],[-97.160715,49.83329],[-97.160545,49.83313],[-97.160328,49.83285],[-97.160235,49.83277],[-97.160095,49.83257],[-97.160065,49.83256],[-97.159987,49.83244],[-97.159879,49.83235],[-97.159755,49.83217],[-97.159646,49.83208],[-97.159475,49.83185],[-97.159413,49.83181],[-97.159181,49.8315],[-97.159072,49.83141],[-97.158948,49.83123],[-97.1587,49.83098],[-97.158437,49.83062],[-97.155523,49.8316],[-97.155802,49.82854],[-97.155569,49.82856],[-97.155353,49.82863],[-97.154794,49.82884],[-97.154174,49.82903],[-97.153244,49.82936],[-97.151911,49.82979],[-97.151261,49.83003],[-97.150733,49.83019],[-97.150625,49.83023],[-97.150594,49.83027],[-97.150563,49.83026],[-97.150408,49.83031],[-97.149199,49.83072],[-97.14799,49.83084],[-97.147665,49.83123],[-97.147261,49.83156],[-97.146843,49.83177],[-97.146409,49.83192],[-97.145556,49.83211],[-97.144673,49.83221],[-97.143789,49.83225],[-97.14289,49.8322],[-97.140643,49.83182],[-97.139589,49.83156],[-97.138736,49.8314],[-97.137574,49.83125],[-97.136535,49.83116],[-97.135745,49.83113],[-97.135559,49.83113],[-97.134613,49.83124],[-97.133699,49.83151],[-97.132878,49.83184],[-97.132102,49.83233],[-97.132056,49.83239],[-97.13173,49.83265],[-97.131699,49.83271],[-97.131668,49.83272],[-97.131637,49.83278],[-97.131607,49.83279],[-97.131436,49.83299],[-97.131343,49.8332],[-97.131312,49.83322],[-97.131219,49.8334],[-97.131079,49.83407],[-97.131064,49.83407],[-97.131095,49.8346],[-97.131297,49.83509],[-97.131545,49.83544],[-97.131668,49.83567],[-97.131854,49.83591],[-97.131885,49.83592],[-97.132273,49.83644],[-97.132738,49.83689],[-97.132784,49.83696],[-97.133048,49.83716],[-97.13325,49.83735],[-97.133947,49.83784],[-97.133947,49.83786],[-97.13576,49.83905],[-97.13576,49.83907],[-97.136721,49.83971],[-97.137171,49.84015],[-97.137419,49.84061],[-97.137496,49.84099],[-97.137543,49.84111],[-97.137543,49.84149],[-97.137528,49.84149],[-97.137496,49.84177],[-97.137248,49.84225],[-97.137032,49.84252],[-97.137,49.84253],[-97.136923,49.84265],[-97.136442,49.84301],[-97.136086,49.84315],[-97.1359,49.84325],[-97.134706,49.84355],[-97.134303,49.84361],[-97.13373,49.84365],[-97.132629,49.84363],[-97.131653,49.84355],[-97.130769,49.84344],[-97.12987,49.84323],[-97.129173,49.84301],[-97.128289,49.84263],[-97.127205,49.84223],[-97.125918,49.84184],[-97.12519,49.84167],[-97.123934,49.84152],[-97.123019,49.84151],[-97.122446,49.84157],[-97.121872,49.8417],[-97.121252,49.84194],[-97.120818,49.84219],[-97.120818,49.84221],[-97.120384,49.84251],[-97.120291,49.84261],[-97.120012,49.84283],[-97.119687,49.84325],[-97.119594,49.84348],[-97.119516,49.8436],[-97.119516,49.84364],[-97.119454,49.84372],[-97.118323,49.84393],[-97.116959,49.84404],[-97.116634,49.84423],[-97.116556,49.84442],[-97.116556,49.84472],[-97.116572,49.84472],[-97.116602,49.84495],[-97.11761,49.84703],[-97.116959,49.84725],[-97.116788,49.84727],[-97.116572,49.84734],[-97.113363,49.84846],[-97.112448,49.84875],[-97.112433,49.8487],[-97.112448,49.8487],[-97.112557,49.84774],[-97.112572,49.84774],[-97.112588,49.8475],[-97.112604,49.8475],[-97.112604,49.84738],[-97.112619,49.84738],[-97.112836,49.84558],[-97.112852,49.84558],[-97.112852,49.84544],[-97.112836,49.84544],[-97.112696,49.84417],[-97.112681,49.84417],[-97.112681,49.84405],[-97.112666,49.84405],[-97.112448,49.84214],[-97.112433,49.84214],[-97.112433,49.84202],[-97.112418,49.84202],[-97.112402,49.84176],[-97.112386,49.84176],[-97.112386,49.84164],[-97.112371,49.84164],[-97.1122,49.8402],[-97.112185,49.8402],[-97.112169,49.83996],[-97.112154,49.83996],[-97.112154,49.83983],[-97.112169,49.83983],[-97.112169,49.83969],[-97.112185,49.83969],[-97.112185,49.83955],[-97.1122,49.83955],[-97.1122,49.83941],[-97.112216,49.83941],[-97.112216,49.83927],[-97.112231,49.83927],[-97.112231,49.83914],[-97.112247,49.83914],[-97.11248,49.83698],[-97.113053,49.8358],[-97.112386,49.83572],[-97.111518,49.83555],[-97.111255,49.83546],[-97.111023,49.83532],[-97.110961,49.83522],[-97.110929,49.83521],[-97.110867,49.83511],[-97.110837,49.8351],[-97.110775,49.835],[-97.110743,49.83499],[-97.110681,49.83489],[-97.110651,49.83488],[-97.110589,49.83478],[-97.110557,49.83477],[-97.110495,49.83467],[-97.110465,49.83466],[-97.110403,49.83456],[-97.110371,49.83455],[-97.110309,49.83445],[-97.110279,49.83444],[-97.110217,49.83434],[-97.110185,49.83433],[-97.110123,49.83423],[-97.110092,49.83422],[-97.11003,49.83412],[-97.109999,49.83411],[-97.109937,49.83401],[-97.109906,49.834],[-97.109844,49.8339],[-97.109813,49.83389],[-97.109751,49.83379],[-97.10972,49.83378],[-97.109658,49.83368],[-97.109627,49.83367],[-97.109565,49.83357],[-97.109534,49.83356],[-97.109472,49.83346],[-97.109441,49.83345],[-97.109379,49.83335],[-97.109348,49.83334],[-97.109286,49.83324],[-97.109255,49.83323],[-97.108899,49.83279],[-97.108031,49.83309],[-97.107969,49.83309],[-97.107752,49.83316],[-97.092856,49.83825],[-97.095026,49.84252],[-97.095135,49.84266],[-97.095259,49.84289],[-97.095445,49.84315],[-97.095569,49.84338],[-97.095615,49.84342],[-97.095739,49.84365],[-97.095926,49.84391],[-97.09605,49.84414],[-97.096096,49.84418],[-97.09622,49.84441],[-97.096406,49.84467],[-97.096406,49.8447],[-97.096576,49.84494],[-97.0967,49.84517],[-97.096747,49.84521],[-97.096871,49.84544],[-97.096917,49.84548],[-97.096917,49.84552],[-97.096964,49.84556],[-97.097119,49.84584],[-97.097165,49.84588],[-97.097289,49.84611],[-97.097336,49.84615],[-97.09746,49.84638],[-97.097506,49.84642],[-97.097661,49.8467],[-97.097708,49.84674],[-97.09777,49.84687],[-97.097847,49.84696],[-97.097847,49.84699],[-97.097878,49.84701],[-97.097878,49.84704],[-97.097956,49.84713],[-97.097956,49.84716],[-97.098033,49.84725],[-97.098033,49.84728],[-97.098173,49.84749],[-97.105163,49.84509],[-97.105535,49.84557],[-97.105566,49.84558],[-97.105799,49.84589],[-97.10583,49.8459],[-97.105938,49.84606],[-97.105969,49.84607],[-97.106062,49.84621],[-97.106093,49.84622],[-97.106202,49.84638],[-97.106233,49.84639],[-97.106341,49.84655],[-97.106373,49.84656],[-97.106465,49.8467],[-97.106497,49.84671],[-97.106729,49.84702],[-97.10676,49.84703],[-97.107271,49.84768],[-97.107302,49.84769],[-97.107411,49.84785],[-97.107442,49.84786],[-97.107674,49.84817],[-97.107705,49.84818],[-97.107798,49.84832],[-97.107829,49.84833],[-97.107938,49.84849],[-97.107969,49.8485],[-97.107984,49.84854],[-97.108015,49.84853],[-97.108046,49.84859],[-97.108077,49.8486],[-97.108186,49.84876],[-97.108217,49.84877],[-97.10831,49.84891],[-97.108341,49.84892],[-97.108434,49.84906],[-97.108465,49.84907],[-97.108558,49.84921],[-97.108589,49.84922],[-97.108682,49.84936],[-97.108713,49.84937],[-97.108806,49.84951],[-97.108837,49.84952],[-97.10893,49.84966],[-97.108961,49.84967],[-97.10907,49.84983],[-97.1091,49.84984],[-97.109457,49.85029],[-97.102048,49.85282],[-97.102033,49.85285],[-97.102497,49.85343],[-97.102497,49.85346],[-97.102978,49.85406],[-97.102978,49.85409],[-97.103443,49.85467],[-97.103443,49.8547],[-97.103908,49.8553],[-97.101288,49.85664],[-97.097646,49.85779],[-97.094717,49.85781],[-97.091942,49.85771],[-97.091151,49.85758],[-97.091027,49.85754],[-97.087555,49.85624],[-97.085819,49.85596],[-97.08413,49.85588],[-97.085447,49.85843],[-97.085447,49.85847],[-97.086331,49.86015],[-97.086331,49.86019],[-97.087214,49.86187],[-97.087214,49.86191],[-97.088098,49.86359],[-97.088098,49.86363],[-97.088981,49.86531],[-97.089059,49.86551],[-97.089415,49.86619],[-97.091182,49.86724],[-97.095491,49.86724],[-97.095662,49.86715],[-97.095848,49.86716],[-97.095941,49.86724],[-97.099351,49.86723],[-97.099351,49.86744],[-97.099335,49.86744],[-97.09932,49.86759],[-97.099273,49.86767],[-97.099118,49.86782],[-97.099072,49.86797],[-97.099103,49.86803],[-97.099103,49.86809],[-97.099211,49.86824],[-97.099382,49.86836],[-97.099614,49.86845],[-97.0998,49.86844],[-97.099909,49.86837],[-97.100296,49.86823],[-97.100544,49.86809],[-97.100576,49.86797],[-97.100529,49.86785],[-97.100482,49.86779],[-97.100374,49.86772],[-97.100358,49.86757],[-97.100405,49.86753],[-97.1007,49.86747],[-97.101102,49.86758],[-97.101242,49.86767],[-97.101288,49.86778],[-97.101211,49.86809],[-97.101381,49.86845],[-97.10149,49.869],[-97.101505,49.869],[-97.101505,49.86908],[-97.101536,49.86915],[-97.101521,49.86965],[-97.101536,49.86965],[-97.101536,49.86975],[-97.101567,49.86979],[-97.101691,49.86984],[-97.101939,49.86987],[-97.102978,49.86988],[-97.103071,49.86992],[-97.103117,49.87008],[-97.102978,49.87033],[-97.102869,49.87079],[-97.102715,49.87106],[-97.102715,49.8712],[-97.102839,49.87155],[-97.102839,49.87159],[-97.102745,49.87171],[-97.101924,49.87192],[-97.101707,49.87192],[-97.101459,49.87182],[-97.101412,49.87176],[-97.101366,49.87174],[-97.10118,49.87136],[-97.101087,49.87128],[-97.100948,49.87124],[-97.10073,49.87131],[-97.100668,49.87136],[-97.100622,49.87149],[-97.100715,49.87177],[-97.10073,49.872],[-97.100854,49.87234],[-97.100901,49.87264],[-97.100932,49.87269],[-97.101118,49.87276],[-97.102172,49.87289],[-97.10242,49.87289],[-97.102559,49.87283],[-97.102653,49.87271],[-97.10273,49.87268],[-97.102869,49.87269],[-97.102993,49.87275],[-97.10304,49.87281],[-97.103055,49.87306],[-97.10304,49.87306],[-97.10304,49.87318],[-97.103024,49.87318],[-97.103024,49.8733],[-97.103117,49.8734],[-97.103241,49.87342],[-97.103458,49.87337],[-97.103629,49.87323],[-97.104156,49.87292],[-97.104342,49.87289],[-97.104497,49.87294],[-97.104574,49.87304],[-97.104544,49.87317],[-97.104512,49.87319],[-97.104497,49.87325],[-97.10428,49.87358],[-97.104264,49.87364],[-97.104063,49.87382],[-97.103815,49.8739],[-97.103365,49.87399],[-97.102529,49.87403],[-97.102435,49.87406],[-97.102405,49.87411],[-97.10242,49.87419],[-97.102699,49.87439],[-97.103133,49.87462],[-97.103644,49.87482],[-97.106683,49.87382],[-97.106869,49.87386],[-97.113549,49.87166],[-97.11375,49.87184],[-97.113812,49.87187],[-97.113812,49.87189],[-97.113874,49.87192],[-97.113874,49.87194],[-97.113936,49.87197],[-97.113936,49.87199],[-97.113998,49.87202],[-97.113998,49.87204],[-97.11406,49.87207],[-97.11406,49.87209],[-97.114122,49.87212],[-97.114122,49.87214],[-97.114184,49.87217],[-97.114184,49.87219],[-97.114246,49.87222],[-97.114246,49.87224],[-97.114309,49.87227],[-97.114309,49.87229],[-97.114371,49.87232],[-97.114371,49.87234],[-97.114448,49.87238],[-97.114634,49.87255],[-97.115316,49.87308],[-97.115316,49.8731],[-97.115378,49.87313],[-97.115378,49.87315],[-97.11544,49.87318],[-97.11544,49.8732],[-97.115502,49.87323],[-97.115502,49.87325],[-97.115564,49.87328],[-97.115564,49.8733],[-97.115626,49.87333],[-97.115626,49.87335],[-97.115688,49.87338],[-97.115688,49.8734],[-97.11575,49.87343],[-97.11575,49.87345],[-97.115812,49.87348],[-97.115812,49.8735],[-97.115874,49.87353],[-97.115874,49.87355],[-97.115936,49.87358],[-97.115936,49.8736],[-97.115998,49.87363],[-97.115998,49.87365],[-97.11606,49.87368],[-97.11606,49.8737],[-97.116122,49.87373],[-97.116122,49.87375],[-97.116184,49.87378],[-97.116184,49.8738],[-97.116261,49.87384],[-97.116386,49.87396],[-97.117068,49.87449],[-97.117068,49.87451],[-97.11823,49.87533],[-97.122989,49.87727],[-97.125112,49.87832],[-97.12522,49.87843],[-97.125344,49.87851],[-97.125391,49.87857],[-97.125453,49.8786],[-97.125561,49.87871],[-97.125623,49.87874],[-97.125623,49.87876],[-97.125685,49.87879],[-97.125794,49.8789],[-97.125856,49.87893],[-97.125856,49.87895],[-97.125918,49.87898],[-97.125964,49.87904],[-97.126445,49.87942],[-97.12646,49.87946],[-97.126522,49.8795],[-97.126538,49.87954],[-97.1266,49.87958],[-97.126615,49.87962],[-97.126677,49.87966],[-97.126693,49.8797],[-97.126755,49.87974],[-97.126771,49.87978],[-97.126833,49.87982],[-97.126848,49.87986],[-97.127267,49.88027],[-97.127948,49.88124],[-97.130289,49.88275]],[[-97.144332,49.86672],[-97.141898,49.8661],[-97.141852,49.86607],[-97.142069,49.86578],[-97.142115,49.86568],[-97.142177,49.86562],[-97.142177,49.86559],[-97.142425,49.86525],[-97.142425,49.86522],[-97.142487,49.86516],[-97.142534,49.86506],[-97.142596,49.865],[-97.143681,49.86289],[-97.143712,49.86287],[-97.143743,49.86279],[-97.143867,49.86262],[-97.143882,49.86256],[-97.143913,49.86254],[-97.144099,49.86221],[-97.144285,49.86194],[-97.144301,49.86188],[-97.144332,49.86186],[-97.144425,49.86168],[-97.144673,49.86131],[-97.144688,49.86125],[-97.144719,49.86123],[-97.144812,49.86105],[-97.145092,49.86063],[-97.145107,49.86057],[-97.145262,49.86035],[-97.145293,49.86027],[-97.145324,49.86025],[-97.145432,49.86003],[-97.145603,49.85977],[-97.145618,49.85971],[-97.145789,49.85945],[-97.145804,49.85939],[-97.145975,49.85913],[-97.14599,49.85907],[-97.146021,49.85905],[-97.146037,49.85899],[-97.146161,49.85881],[-97.146316,49.85851],[-97.146347,49.85849],[-97.146455,49.85827],[-97.146486,49.85825],[-97.146641,49.85795],[-97.146672,49.85793],[-97.146688,49.85787],[-97.146858,49.85761],[-97.14706,49.85723],[-97.147091,49.85721],[-97.147107,49.85715],[-97.147137,49.85713],[-97.147277,49.85687],[-97.147525,49.8565],[-97.147541,49.85644],[-97.147757,49.85612],[-97.147773,49.85606],[-97.147897,49.85589],[-97.147974,49.85571],[-97.148005,49.85569],[-97.148098,49.85551],[-97.148145,49.85538],[-97.148176,49.85536],[-97.148315,49.85506],[-97.148346,49.85504],[-97.148486,49.85474],[-97.148517,49.85472],[-97.149276,49.85326],[-97.151663,49.85246],[-97.151663,49.85441],[-97.151617,49.85445],[-97.151571,49.85455],[-97.151509,49.85461],[-97.151509,49.85464],[-97.151415,49.85475],[-97.151369,49.85485],[-97.151307,49.85491],[-97.151261,49.85501],[-97.151028,49.85533],[-97.151012,49.85539],[-97.150919,49.85551],[-97.150749,49.85583],[-97.150656,49.85595],[-97.15064,49.85601],[-97.15047,49.85626],[-97.150423,49.85637],[-97.150392,49.85639],[-97.150377,49.85645],[-97.150284,49.85657],[-97.150268,49.85663],[-97.150206,49.8567],[-97.150191,49.85676],[-97.15002,49.85701],[-97.149866,49.8573],[-97.149834,49.85732],[-97.149742,49.85751],[-97.149648,49.85763],[-97.149478,49.85795],[-97.149385,49.85807],[-97.14937,49.85813],[-97.149199,49.85839],[-97.14909,49.85861],[-97.148997,49.85873],[-97.148982,49.85879],[-97.148858,49.85896],[-97.148842,49.85902],[-97.148718,49.85919],[-97.148703,49.85925],[-97.148408,49.8597],[-97.148393,49.85976],[-97.148269,49.85993],[-97.148253,49.85999],[-97.148129,49.86016],[-97.148114,49.86022],[-97.14799,49.86039],[-97.147943,49.8605],[-97.147913,49.86052],[-97.147742,49.86085],[-97.147571,49.86111],[-97.147541,49.8612],[-97.147417,49.86138],[-97.147385,49.86147],[-97.147261,49.86165],[-97.147231,49.86174],[-97.147199,49.86176],[-97.147029,49.86209],[-97.146905,49.86227],[-97.146874,49.86236],[-97.14675,49.86254],[-97.146595,49.86284],[-97.146564,49.86286],[-97.146548,49.86292],[-97.146378,49.86318],[-97.146269,49.8634],[-97.146238,49.86342],[-97.146223,49.86348],[-97.146052,49.86374],[-97.146037,49.8638],[-97.145866,49.86406],[-97.145851,49.86412],[-97.14582,49.86414],[-97.145804,49.8642],[-97.14568,49.86438],[-97.145526,49.86468],[-97.145494,49.8647],[-97.145386,49.86492],[-97.145246,49.86512],[-97.145154,49.86531],[-97.145122,49.86533],[-97.145107,49.86539],[-97.145076,49.86541],[-97.144998,49.86558],[-97.144968,49.8656],[-97.144952,49.86566],[-97.144921,49.86568],[-97.144905,49.86574],[-97.144874,49.86576],[-97.144859,49.86582],[-97.144828,49.86584],[-97.144812,49.8659],[-97.144781,49.86592],[-97.144766,49.86598],[-97.144735,49.866],[-97.144704,49.86609],[-97.144673,49.86611],[-97.144657,49.86617],[-97.144626,49.86619],[-97.144595,49.86628],[-97.144564,49.8663],[-97.144533,49.86639],[-97.144502,49.86641],[-97.144487,49.86647],[-97.144456,49.86649],[-97.144425,49.86658],[-97.144332,49.86672]],[[-97.160266,49.85551],[-97.159429,49.85578],[-97.159289,49.85558],[-97.159227,49.85554],[-97.159181,49.85545],[-97.15915,49.85544],[-97.158886,49.85508],[-97.158855,49.85507],[-97.158762,49.85493],[-97.158731,49.85492],[-97.15791,49.85386],[-97.157073,49.85414],[-97.157042,49.85414],[-97.156871,49.8539],[-97.15684,49.85389],[-97.153214,49.85511],[-97.153182,49.85511],[-97.153167,49.85489],[-97.153058,49.85458],[-97.152965,49.85447],[-97.152965,49.85444],[-97.152934,49.85442],[-97.152934,49.85439],[-97.152764,49.85413],[-97.153058,49.85391],[-97.153058,49.85389],[-97.153353,49.8537],[-97.153353,49.85368],[-97.154035,49.85325],[-97.154422,49.85306],[-97.155182,49.8528],[-97.155911,49.8527],[-97.163381,49.852],[-97.163428,49.852],[-97.163443,49.85203],[-97.163614,49.85296],[-97.163629,49.85296],[-97.163707,49.85332],[-97.164141,49.85318],[-97.164792,49.85399],[-97.1618,49.855],[-97.160328,49.85547],[-97.160266,49.85551]]],[[[-97.139263,49.77074],[-97.140658,49.7703],[-97.141728,49.76991],[-97.144208,49.76909],[-97.148222,49.76769],[-97.151353,49.76656],[-97.153988,49.76565],[-97.153864,49.76551],[-97.15388,49.76548],[-97.153725,49.76533],[-97.15343,49.76497],[-97.1534,49.76496],[-97.153074,49.76452],[-97.152981,49.76444],[-97.152857,49.76427],[-97.152764,49.76419],[-97.152655,49.76404],[-97.152624,49.76403],[-97.152438,49.76379],[-97.152407,49.76378],[-97.152361,49.7637],[-97.151524,49.76364],[-97.151028,49.76348],[-97.150687,49.76315],[-97.150408,49.76277],[-97.14999,49.76237],[-97.149819,49.76214],[-97.14968,49.76183],[-97.149478,49.76159],[-97.149478,49.76156],[-97.149276,49.7613],[-97.148842,49.76104],[-97.148331,49.76089],[-97.147789,49.76084],[-97.147417,49.76078],[-97.146905,49.76063],[-97.146564,49.76041],[-97.146362,49.76015],[-97.146331,49.75985],[-97.146269,49.75963],[-97.146223,49.75954],[-97.146099,49.75941],[-97.145851,49.75933],[-97.145603,49.75938],[-97.145417,49.75956],[-97.145308,49.75979],[-97.145107,49.76005],[-97.144797,49.7603],[-97.144487,49.7604],[-97.144068,49.76041],[-97.143727,49.76033],[-97.143387,49.76015],[-97.14334,49.76008],[-97.143201,49.75996],[-97.143107,49.75983],[-97.143107,49.7598],[-97.143061,49.75976],[-97.143015,49.75964],[-97.143015,49.75959],[-97.142921,49.75935],[-97.142875,49.75908],[-97.14289,49.75908],[-97.142937,49.7588],[-97.143061,49.75858],[-97.143092,49.75848],[-97.143216,49.75833],[-97.143247,49.75832],[-97.143278,49.75826],[-97.143309,49.75825],[-97.14334,49.75819],[-97.14365,49.75794],[-97.14365,49.75792],[-97.144006,49.7577],[-97.144471,49.75758],[-97.144936,49.75751],[-97.145417,49.75737],[-97.145774,49.75717],[-97.145804,49.75707],[-97.145836,49.75704],[-97.145882,49.75692],[-97.145898,49.7566],[-97.145804,49.75648],[-97.145774,49.7564],[-97.145634,49.75624],[-97.145572,49.7562],[-97.145556,49.75616],[-97.14534,49.75602],[-97.14534,49.756],[-97.144936,49.75582],[-97.144487,49.75574],[-97.143821,49.75567],[-97.143355,49.75566],[-97.143045,49.75572],[-97.142937,49.75575],[-97.142177,49.75611],[-97.141821,49.75635],[-97.14148,49.7565],[-97.140379,49.75679],[-97.140565,49.75717],[-97.140658,49.75747],[-97.140658,49.75753],[-97.140751,49.75778],[-97.140798,49.75825],[-97.140813,49.75825],[-97.140813,49.7593],[-97.140798,49.7593],[-97.140751,49.76017],[-97.140736,49.76017],[-97.140705,49.76083],[-97.140689,49.76083],[-97.140689,49.76097],[-97.140674,49.76097],[-97.140658,49.76113],[-97.140596,49.76135],[-97.14055,49.76166],[-97.140348,49.76231],[-97.140348,49.76237],[-97.140302,49.76247],[-97.140302,49.76253],[-97.140255,49.76263],[-97.140224,49.7628],[-97.140178,49.7629],[-97.140178,49.76296],[-97.140131,49.76306],[-97.1401,49.76323],[-97.140054,49.76333],[-97.140054,49.76339],[-97.140007,49.76349],[-97.140007,49.76355],[-97.139961,49.76365],[-97.139883,49.76398],[-97.139837,49.76408],[-97.139744,49.76457],[-97.139713,49.76464],[-97.139713,49.76472],[-97.139697,49.76472],[-97.139697,49.76481],[-97.139682,49.76481],[-97.139682,49.76492],[-97.139667,49.76492],[-97.139667,49.76503],[-97.139651,49.76503],[-97.139651,49.76514],[-97.13962,49.76525],[-97.13962,49.7654],[-97.139605,49.7654],[-97.139605,49.76559],[-97.139589,49.76559],[-97.139558,49.76613],[-97.139543,49.76613],[-97.139543,49.76631],[-97.139527,49.76631],[-97.139527,49.76649],[-97.139511,49.76649],[-97.139511,49.76667],[-97.139496,49.76667],[-97.139341,49.76998],[-97.139325,49.76998],[-97.139325,49.77021],[-97.13931,49.77021],[-97.13931,49.77036],[-97.139295,49.77036],[-97.139295,49.77051],[-97.139279,49.77051],[-97.139279,49.77066],[-97.139263,49.77066],[-97.139263,49.77074]]]]}},{"type":"Feature","properties":{"area":1,"variant":"Airport PDO","title":"Infill Guideline Area 1 (Airport PDO)","feature_set_id":17965,"fill":"#f4d452","line":"#9d8a1a","polygons":1},"geometry":{"type":"MultiPolygon","coordinates":[[[[-97.201558,49.89425],[-97.201558,49.89402],[-97.201573,49.89402],[-97.201589,49.89362],[-97.201604,49.89362],[-97.201604,49.89343],[-97.20162,49.89343],[-97.201651,49.89284],[-97.201666,49.89284],[-97.201682,49.89244],[-97.201697,49.89244],[-97.201713,49.89206],[-97.201728,49.89206],[-97.201728,49.89188],[-97.201744,49.89188],[-97.201837,49.89057],[-97.201852,49.89057],[-97.2021,49.88738],[-97.20582,49.88752],[-97.205913,49.88846],[-97.205898,49.88846],[-97.205898,49.88861],[-97.205882,49.88861],[-97.205882,49.88875],[-97.205867,49.88875],[-97.205867,49.8889],[-97.205851,49.8889],[-97.205681,49.8906],[-97.21791,49.89106],[-97.21791,49.89096],[-97.218406,49.89097],[-97.218422,49.89084],[-97.219088,49.89086],[-97.21912,49.89066],[-97.219615,49.89067],[-97.219631,49.89047],[-97.220313,49.89049],[-97.220328,49.89029],[-97.220825,49.89031],[-97.22084,49.89017],[-97.221491,49.8902],[-97.221491,49.89006],[-97.221956,49.89008],[-97.221971,49.88994],[-97.222622,49.88997],[-97.222638,49.88983],[-97.223692,49.88987],[-97.223692,49.88977],[-97.22411,49.88978],[-97.22411,49.88976],[-97.224234,49.88976],[-97.228404,49.88992],[-97.228435,49.88951],[-97.233736,49.88972],[-97.23386,49.88855],[-97.237223,49.88868],[-97.237565,49.88488],[-97.2475,49.88527],[-97.2475,49.87387],[-97.246802,49.87383],[-97.24626,49.87387],[-97.245749,49.87397],[-97.245407,49.87413],[-97.245407,49.87415],[-97.245066,49.87438],[-97.245066,49.8744],[-97.244787,49.87458],[-97.244462,49.87489],[-97.244291,49.87498],[-97.244105,49.87504],[-97.243904,49.87506],[-97.243315,49.87505],[-97.241563,49.87487],[-97.241207,49.87486],[-97.240091,49.875],[-97.23944,49.87511],[-97.238556,49.8753],[-97.238525,49.87539],[-97.238448,49.87626],[-97.238432,49.87626],[-97.238432,49.87634],[-97.238386,49.87635],[-97.2351,49.87673],[-97.230729,49.87673],[-97.227474,49.87762],[-97.227272,49.87769],[-97.227257,49.87778],[-97.226451,49.87779],[-97.226435,49.87796],[-97.224731,49.878],[-97.224731,49.87795],[-97.224529,49.87795],[-97.223351,49.87798],[-97.223351,49.87804],[-97.222932,49.87806],[-97.218624,49.87812],[-97.212501,49.87826],[-97.21061,49.87839],[-97.21075,49.87673],[-97.209587,49.87669],[-97.209587,49.87661],[-97.207928,49.87656],[-97.208021,49.8765],[-97.208037,49.87646],[-97.208285,49.87622],[-97.208347,49.87599],[-97.208316,49.87553],[-97.208301,49.87553],[-97.208301,49.8754],[-97.208285,49.8754],[-97.208285,49.87528],[-97.208269,49.87528],[-97.208254,49.87505],[-97.208238,49.87505],[-97.208223,49.87451],[-97.20737,49.87442],[-97.206518,49.87463],[-97.206022,49.87471],[-97.205665,49.87474],[-97.20503,49.87475],[-97.204363,49.87469],[-97.203309,49.87452],[-97.201248,49.87442],[-97.201186,49.87398],[-97.200938,49.87397],[-97.200938,49.87336],[-97.200953,49.87336],[-97.200985,49.87283],[-97.201015,49.87287],[-97.201015,49.8727],[-97.201031,49.8727],[-97.201186,49.87097],[-97.197249,49.8708],[-97.197559,49.86734],[-97.190832,49.86709],[-97.190538,49.87055],[-97.19497,49.87071],[-97.194366,49.87836],[-97.195683,49.87843],[-97.196179,49.8784],[-97.197156,49.87825],[-97.197977,49.87809],[-97.198722,49.87785],[-97.19914,49.87764],[-97.199698,49.87746],[-97.200891,49.87721],[-97.203046,49.87684],[-97.203201,49.87706],[-97.203232,49.87714],[-97.203278,49.87718],[-97.20334,49.87731],[-97.203387,49.87735],[-97.203418,49.87743],[-97.203464,49.87747],[-97.203526,49.8776],[-97.203573,49.87764],[-97.203604,49.87772],[-97.20365,49.87776],[-97.203681,49.87784],[-97.203728,49.87788],[-97.20379,49.87801],[-97.203836,49.87805],[-97.203867,49.87813],[-97.203914,49.87817],[-97.203976,49.8783],[-97.204022,49.87834],[-97.204053,49.87842],[-97.2041,49.87846],[-97.204131,49.87854],[-97.204177,49.87858],[-97.204317,49.87883],[-97.204363,49.87887],[-97.204503,49.87912],[-97.204549,49.87916],[-97.204581,49.87924],[-97.204627,49.87928],[-97.204767,49.87953],[-97.204844,49.87962],[-97.20472,49.87966],[-97.194087,49.88156],[-97.194056,49.88218],[-97.19404,49.88218],[-97.19401,49.88275],[-97.193994,49.88275],[-97.193994,49.88294],[-97.193978,49.88294],[-97.193978,49.88314],[-97.193963,49.88314],[-97.193947,49.88352],[-97.193932,49.88352],[-97.193932,49.88371],[-97.193916,49.88371],[-97.193916,49.8839],[-97.193901,49.8839],[-97.193901,49.8841],[-97.193885,49.8841],[-97.193885,49.88429],[-97.19387,49.88429],[-97.19387,49.88448],[-97.193854,49.88448],[-97.193854,49.88467],[-97.193839,49.88467],[-97.193839,49.88486],[-97.193823,49.88486],[-97.193823,49.88506],[-97.193808,49.88506],[-97.193808,49.88525],[-97.193792,49.88525],[-97.193792,49.88544],[-97.193777,49.88544],[-97.193746,49.88602],[-97.19373,49.88602],[-97.19373,49.88621],[-97.193715,49.88621],[-97.193715,49.8864],[-97.193699,49.8864],[-97.193668,49.88698],[-97.193653,49.88698],[-97.193653,49.88717],[-97.193637,49.88717],[-97.193637,49.88736],[-97.193622,49.88736],[-97.193622,49.88755],[-97.193606,49.88755],[-97.193591,49.88794],[-97.193575,49.88794],[-97.193575,49.88813],[-97.19356,49.88813],[-97.19356,49.88832],[-97.193544,49.88832],[-97.193544,49.88851],[-97.193529,49.88851],[-97.193513,49.8889],[-97.193498,49.8889],[-97.193095,49.89399],[-97.201558,49.89425]]]]}},{"type":"Feature","properties":{"area":1,"variant":"Secondary Plan","title":"Infill Guideline Area 1 (Secondary Plan)","feature_set_id":17966,"fill":"#f49352","line":"#9d4e1a","polygons":2},"geometry":{"type":"MultiPolygon","coordinates":[[[[-97.097258,49.95062],[-97.097956,49.94973],[-97.098033,49.94953],[-97.09808,49.94947],[-97.09808,49.94943],[-97.098127,49.94937],[-97.098127,49.94933],[-97.098157,49.9493],[-97.098219,49.949],[-97.098266,49.94888],[-97.098297,49.94807],[-97.098281,49.94807],[-97.098204,49.94741],[-97.098111,49.94723],[-97.098065,49.94708],[-97.098003,49.947],[-97.097832,49.94666],[-97.097382,49.94607],[-97.097382,49.94604],[-97.097336,49.946],[-97.097181,49.94573],[-97.097088,49.94562],[-97.096933,49.94535],[-97.096886,49.94531],[-97.096794,49.94513],[-97.0967,49.94501],[-97.096685,49.94495],[-97.096468,49.94463],[-97.096375,49.94439],[-97.096375,49.94434],[-97.096266,49.9441],[-97.096204,49.94359],[-97.096174,49.94349],[-97.096174,49.9429],[-97.096189,49.9429],[-97.096189,49.94277],[-97.096328,49.94249],[-97.096437,49.9422],[-97.0967,49.94186],[-97.097119,49.94156],[-97.097119,49.94154],[-97.098281,49.94088],[-97.09918,49.94053],[-97.100668,49.94005],[-97.100777,49.94001],[-97.100777,49.93999],[-97.100948,49.93994],[-97.102001,49.93966],[-97.104342,49.93918],[-97.105225,49.93896],[-97.107302,49.93839],[-97.107969,49.9381],[-97.108031,49.9381],[-97.108744,49.93776],[-97.109426,49.93732],[-97.10955,49.9372],[-97.109984,49.93687],[-97.110201,49.9366],[-97.110279,49.93654],[-97.110433,49.93634],[-97.110465,49.93633],[-97.110775,49.93592],[-97.110852,49.93577],[-97.110852,49.93573],[-97.111053,49.93536],[-97.111162,49.93508],[-97.111162,49.93503],[-97.111255,49.93483],[-97.111348,49.93423],[-97.111394,49.93406],[-97.111425,49.9332],[-97.111394,49.93312],[-97.111394,49.93303],[-97.111363,49.93295],[-97.111363,49.93286],[-97.111332,49.93278],[-97.111332,49.93269],[-97.111301,49.93261],[-97.111162,49.93178],[-97.111053,49.93146],[-97.111038,49.93135],[-97.110635,49.93031],[-97.110604,49.93028],[-97.110527,49.93005],[-97.110495,49.93002],[-97.11048,49.92994],[-97.110449,49.92991],[-97.110433,49.92983],[-97.110403,49.9298],[-97.110387,49.92972],[-97.110356,49.92969],[-97.110325,49.92957],[-97.110294,49.92954],[-97.110279,49.92946],[-97.110201,49.92931],[-97.110092,49.92892],[-97.110061,49.92888],[-97.110015,49.92868],[-97.109953,49.92854],[-97.109906,49.92807],[-97.109891,49.92807],[-97.109891,49.92714],[-97.109906,49.92714],[-97.110015,49.92628],[-97.110185,49.92576],[-97.110201,49.92565],[-97.110279,49.92552],[-97.110263,49.92548],[-97.110449,49.925],[-97.110511,49.92492],[-97.110542,49.92483],[-97.110573,49.92481],[-97.110604,49.92472],[-97.110635,49.9247],[-97.110651,49.92464],[-97.110681,49.92462],[-97.110713,49.92453],[-97.110743,49.92451],[-97.110775,49.92442],[-97.110805,49.9244],[-97.110837,49.92431],[-97.11203,49.92277],[-97.112262,49.92254],[-97.112448,49.92231],[-97.112619,49.92218],[-97.11265,49.92213],[-97.112743,49.92207],[-97.113038,49.92179],[-97.11358,49.92142],[-97.113781,49.92133],[-97.113843,49.92128],[-97.114324,49.92103],[-97.115409,49.92054],[-97.116618,49.92012],[-97.117036,49.92002],[-97.117439,49.91995],[-97.12026,49.9196],[-97.122291,49.91921],[-97.123035,49.91897],[-97.123391,49.91879],[-97.123593,49.91873],[-97.124027,49.91853],[-97.124724,49.91812],[-97.124926,49.91791],[-97.124972,49.91789],[-97.125066,49.91778],[-97.125112,49.91776],[-97.125236,49.91762],[-97.125344,49.91754],[-97.125592,49.91726],[-97.125732,49.91714],[-97.126042,49.91677],[-97.126119,49.91671],[-97.126352,49.9164],[-97.126429,49.91626],[-97.126522,49.91616],[-97.126631,49.91593],[-97.126709,49.91583],[-97.126801,49.91559],[-97.126879,49.91507],[-97.126895,49.91507],[-97.126941,49.91415],[-97.126957,49.91415],[-97.126957,49.91398],[-97.126941,49.91398],[-97.12691,49.91374],[-97.126863,49.91366],[-97.126863,49.91361],[-97.126801,49.91349],[-97.126801,49.91344],[-97.126755,49.91336],[-97.126755,49.91331],[-97.126693,49.91319],[-97.126693,49.91314],[-97.126647,49.91306],[-97.126647,49.91301],[-97.126585,49.91289],[-97.126522,49.91268],[-97.126383,49.91241],[-97.126274,49.91213],[-97.126197,49.91205],[-97.126197,49.91202],[-97.126119,49.91194],[-97.126119,49.91191],[-97.125871,49.91157],[-97.125809,49.91153],[-97.12567,49.91136],[-97.125546,49.91129],[-97.125546,49.91127],[-97.125329,49.91114],[-97.125329,49.91112],[-97.125112,49.91099],[-97.125112,49.91097],[-97.124895,49.91084],[-97.124895,49.91082],[-97.124089,49.91027],[-97.123841,49.91015],[-97.123531,49.90996],[-97.123438,49.90995],[-97.123345,49.90988],[-97.123097,49.90976],[-97.123004,49.90969],[-97.122865,49.90963],[-97.12119,49.90868],[-97.119454,49.90785],[-97.11668,49.90643],[-97.115951,49.90612],[-97.115471,49.90596],[-97.115424,49.90598],[-97.115316,49.90626],[-97.115316,49.90631],[-97.115177,49.90663],[-97.115161,49.90673],[-97.11513,49.90677],[-97.115083,49.90697],[-97.115053,49.90701],[-97.115006,49.90721],[-97.114975,49.90725],[-97.114944,49.9074],[-97.114913,49.90744],[-97.114773,49.90789],[-97.114696,49.90803],[-97.114665,49.90815],[-97.114634,49.90818],[-97.114603,49.9083],[-97.114572,49.90833],[-97.114541,49.90845],[-97.114463,49.90859],[-97.114433,49.90871],[-97.114401,49.90874],[-97.114371,49.90886],[-97.114293,49.909],[-97.114262,49.90912],[-97.114231,49.90915],[-97.1142,49.90927],[-97.114169,49.9093],[-97.114138,49.90942],[-97.11406,49.90956],[-97.114029,49.90968],[-97.113998,49.90971],[-97.113967,49.90983],[-97.113936,49.90986],[-97.113921,49.90994],[-97.11389,49.90997],[-97.113859,49.91009],[-97.113828,49.91012],[-97.113797,49.91024],[-97.113766,49.91027],[-97.113611,49.91067],[-97.112495,49.91047],[-97.112092,49.911],[-97.112045,49.91101],[-97.109565,49.91018],[-97.108868,49.91008],[-97.108015,49.91132],[-97.107984,49.9113],[-97.10769,49.9117],[-97.107659,49.91171],[-97.106497,49.9132],[-97.106465,49.91321],[-97.105613,49.91431],[-97.105582,49.91432],[-97.10473,49.91542],[-97.104698,49.91543],[-97.10459,49.9156],[-97.104559,49.91561],[-97.103985,49.91636],[-97.103954,49.91637],[-97.103675,49.91675],[-97.103644,49.91676],[-97.102125,49.9187],[-97.102095,49.91871],[-97.101815,49.91909],[-97.101784,49.9191],[-97.101521,49.91946],[-97.10149,49.91947],[-97.100281,49.92102],[-97.098437,49.92161],[-97.098189,49.92195],[-97.098157,49.92196],[-97.097103,49.92331],[-97.097072,49.92332],[-97.09684,49.92364],[-97.096809,49.92365],[-97.096561,49.92399],[-97.09653,49.924],[-97.096298,49.92432],[-97.096266,49.92433],[-97.096018,49.92467],[-97.095988,49.92468],[-97.095755,49.925],[-97.095724,49.92501],[-97.09515,49.92576],[-97.095119,49.92577],[-97.094871,49.92611],[-97.09484,49.92612],[-97.094608,49.92644],[-97.094577,49.92645],[-97.093492,49.92784],[-97.093461,49.92785],[-97.093228,49.92817],[-97.093197,49.92818],[-97.092949,49.92852],[-97.092918,49.92853],[-97.09267,49.92887],[-97.09264,49.92888],[-97.092516,49.92906],[-97.092484,49.92902],[-97.092345,49.92922],[-97.092314,49.92923],[-97.092066,49.92957],[-97.092035,49.92958],[-97.091787,49.92992],[-97.091756,49.92993],[-97.091523,49.93025],[-97.091492,49.93026],[-97.091244,49.9306],[-97.091213,49.93061],[-97.090965,49.93095],[-97.090934,49.93096],[-97.090687,49.9313],[-97.090655,49.93131],[-97.090407,49.93165],[-97.090377,49.93166],[-97.090144,49.93198],[-97.090113,49.93199],[-97.089028,49.93338],[-97.088997,49.93339],[-97.088764,49.93371],[-97.088733,49.93372],[-97.087369,49.93546],[-97.087338,49.93547],[-97.087323,49.93552],[-97.087183,49.9357],[-97.087152,49.93571],[-97.086904,49.93605],[-97.086873,49.93606],[-97.086625,49.9364],[-97.086595,49.93641],[-97.086347,49.93675],[-97.086315,49.93676],[-97.086067,49.9371],[-97.086037,49.93711],[-97.085789,49.93745],[-97.085757,49.93746],[-97.085494,49.93782],[-97.085463,49.93783],[-97.085215,49.93817],[-97.085184,49.93818],[-97.084936,49.93852],[-97.084905,49.93853],[-97.084657,49.93887],[-97.084626,49.93888],[-97.084378,49.93922],[-97.084347,49.93923],[-97.084099,49.93957],[-97.084068,49.93958],[-97.08382,49.93992],[-97.083789,49.93993],[-97.083541,49.94027],[-97.08351,49.94028],[-97.083246,49.94064],[-97.083215,49.94065],[-97.082967,49.94099],[-97.082936,49.941],[-97.082688,49.94134],[-97.082657,49.94135],[-97.082409,49.94169],[-97.082379,49.9417],[-97.082115,49.94204],[-97.082115,49.94206],[-97.087555,49.94385],[-97.084285,49.94758],[-97.086563,49.94805],[-97.091058,49.94915],[-97.092438,49.94948],[-97.092748,49.94953],[-97.097258,49.95062]]],[[[-97.142022,49.87458],[-97.154236,49.87048],[-97.154934,49.87027],[-97.161382,49.86812],[-97.161382,49.8681],[-97.161072,49.86771],[-97.161041,49.8677],[-97.160405,49.86686],[-97.160374,49.86685],[-97.159723,49.86599],[-97.159693,49.86598],[-97.159041,49.86514],[-97.146223,49.86943],[-97.146192,49.86942],[-97.145959,49.8691],[-97.145928,49.86909],[-97.145696,49.86877],[-97.145665,49.86877],[-97.143045,49.86961],[-97.142999,49.86965],[-97.142983,49.86971],[-97.142844,49.86991],[-97.142751,49.8701],[-97.14272,49.87012],[-97.142704,49.87018],[-97.142642,49.87025],[-97.142627,49.87031],[-97.14241,49.87064],[-97.142239,49.87096],[-97.142208,49.87098],[-97.142193,49.87104],[-97.142131,49.87111],[-97.142115,49.87117],[-97.142053,49.87124],[-97.142038,49.8713],[-97.142007,49.87132],[-97.141883,49.87156],[-97.141697,49.87184],[-97.141682,49.8719],[-97.14162,49.87197],[-97.141604,49.87203],[-97.141542,49.8721],[-97.141526,49.87216],[-97.141464,49.87223],[-97.141449,49.87229],[-97.141387,49.87236],[-97.14117,49.87276],[-97.141139,49.87278],[-97.141015,49.87302],[-97.140953,49.87309],[-97.140938,49.87315],[-97.140906,49.87317],[-97.140906,49.87321],[-97.141015,49.87335],[-97.141046,49.87336],[-97.141991,49.87457],[-97.142022,49.87458]]]]}},{"type":"Feature","properties":{"area":2,"variant":"Plain","title":"Infill Guideline Area 2","feature_set_id":17964,"fill":"#bc8df4","line":"#a21df0","polygons":2},"geometry":{"type":"MultiPolygon","coordinates":[[[[-97.136535,49.93299],[-97.138985,49.9298],[-97.139015,49.92982],[-97.139806,49.9288],[-97.139806,49.92877],[-97.140876,49.92741],[-97.140876,49.92738],[-97.14196,49.926],[-97.14196,49.92597],[-97.14303,49.92461],[-97.14303,49.92458],[-97.144115,49.9232],[-97.144161,49.9231],[-97.145138,49.92185],[-97.15264,49.92427],[-97.154407,49.92199],[-97.154407,49.92196],[-97.154484,49.92186],[-97.154515,49.92189],[-97.156468,49.91935],[-97.166636,49.9226],[-97.166698,49.92259],[-97.169736,49.92115],[-97.169814,49.92028],[-97.16983,49.92028],[-97.169814,49.9202],[-97.161242,49.91745],[-97.161087,49.91742],[-97.161056,49.91748],[-97.161025,49.91749],[-97.158545,49.91669],[-97.158514,49.91666],[-97.154903,49.91551],[-97.154903,49.91549],[-97.154531,49.91537],[-97.154484,49.91538],[-97.153384,49.91503],[-97.143263,49.91178],[-97.143247,49.91176],[-97.143278,49.91174],[-97.143293,49.91168],[-97.143387,49.91156],[-97.143402,49.9115],[-97.143495,49.91138],[-97.143511,49.91132],[-97.143603,49.9112],[-97.143697,49.91101],[-97.143789,49.91089],[-97.143805,49.91083],[-97.143898,49.91071],[-97.143991,49.91052],[-97.144084,49.9104],[-97.144099,49.91034],[-97.144192,49.91022],[-97.144208,49.91016],[-97.144301,49.91004],[-97.144316,49.90998],[-97.144378,49.90991],[-97.144394,49.90985],[-97.144487,49.90973],[-97.144502,49.90967],[-97.144595,49.90955],[-97.144611,49.90949],[-97.144642,49.90947],[-97.144688,49.90936],[-97.144719,49.90934],[-97.144719,49.90931],[-97.14475,49.90929],[-97.144797,49.90918],[-97.144828,49.90916],[-97.144828,49.90913],[-97.144859,49.90911],[-97.144859,49.90908],[-97.14489,49.90906],[-97.144905,49.909],[-97.145045,49.90879],[-97.154484,49.91182],[-97.154531,49.91181],[-97.155539,49.91213],[-97.160715,49.9138],[-97.160762,49.91379],[-97.169969,49.91676],[-97.170465,49.91677],[-97.178076,49.91922],[-97.180587,49.91996],[-97.185407,49.92125],[-97.185531,49.92126],[-97.18595,49.92137],[-97.195094,49.92382],[-97.195094,49.92014],[-97.195079,49.92014],[-97.195079,49.91645],[-97.195094,49.91645],[-97.195094,49.91636],[-97.192986,49.91432],[-97.19294,49.9143],[-97.192382,49.91374],[-97.192335,49.91372],[-97.191777,49.91316],[-97.191731,49.91314],[-97.191173,49.91258],[-97.191126,49.91256],[-97.190568,49.912],[-97.190522,49.91198],[-97.189964,49.91142],[-97.189918,49.9114],[-97.189669,49.91114],[-97.186414,49.91009],[-97.188027,49.908],[-97.188027,49.90797],[-97.188569,49.90729],[-97.188569,49.90726],[-97.189111,49.90658],[-97.189111,49.90655],[-97.189638,49.90589],[-97.189638,49.90586],[-97.190181,49.90518],[-97.190181,49.90515],[-97.190429,49.90485],[-97.190429,49.90482],[-97.190677,49.90452],[-97.190677,49.90449],[-97.190987,49.90411],[-97.191049,49.90399],[-97.191111,49.90393],[-97.191111,49.9039],[-97.191374,49.90355],[-97.191421,49.90345],[-97.191483,49.90339],[-97.191529,49.90329],[-97.191746,49.903],[-97.191762,49.90294],[-97.191793,49.90292],[-97.191824,49.90283],[-97.191855,49.90281],[-97.191886,49.90272],[-97.191917,49.9027],[-97.191963,49.90258],[-97.191995,49.90256],[-97.192025,49.90247],[-97.192087,49.90239],[-97.192119,49.90227],[-97.192149,49.90224],[-97.192181,49.90212],[-97.192211,49.90209],[-97.192243,49.90197],[-97.192335,49.90178],[-97.192335,49.90172],[-97.192475,49.90128],[-97.192553,49.90071],[-97.192568,49.90071],[-97.192583,49.90043],[-97.192599,49.90043],[-97.192801,49.89785],[-97.192816,49.89785],[-97.192816,49.89767],[-97.192831,49.89767],[-97.193095,49.89408],[-97.19311,49.89408],[-97.193095,49.89389],[-97.19311,49.89389],[-97.193281,49.89158],[-97.193296,49.89158],[-97.193327,49.89101],[-97.193343,49.89101],[-97.193343,49.89082],[-97.193358,49.89082],[-97.193358,49.89062],[-97.193374,49.89062],[-97.193405,49.89005],[-97.19342,49.89005],[-97.19342,49.88986],[-97.193436,49.88986],[-97.193436,49.88966],[-97.193451,49.88966],[-97.193467,49.88928],[-97.193482,49.88928],[-97.193482,49.88909],[-97.193498,49.88909],[-97.193498,49.8889],[-97.193513,49.8889],[-97.193513,49.8887],[-97.193529,49.8887],[-97.193529,49.88851],[-97.193544,49.88851],[-97.193544,49.88832],[-97.19356,49.88832],[-97.19356,49.88813],[-97.193575,49.88813],[-97.193575,49.88794],[-97.193591,49.88794],[-97.193591,49.88774],[-97.193606,49.88774],[-97.193653,49.88698],[-97.193668,49.88698],[-97.193668,49.88678],[-97.193684,49.88678],[-97.193715,49.88621],[-97.19373,49.88621],[-97.19373,49.88602],[-97.193746,49.88602],[-97.193746,49.88582],[-97.193761,49.88582],[-97.193777,49.88544],[-97.193792,49.88544],[-97.193808,49.88506],[-97.193823,49.88506],[-97.193823,49.88486],[-97.193839,49.88486],[-97.193839,49.88467],[-97.193854,49.88467],[-97.193854,49.88448],[-97.19387,49.88448],[-97.19387,49.88429],[-97.193885,49.88429],[-97.193885,49.8841],[-97.193901,49.8841],[-97.193901,49.8839],[-97.193916,49.8839],[-97.193963,49.88314],[-97.193978,49.88314],[-97.193978,49.88294],[-97.193994,49.88294],[-97.194025,49.88237],[-97.19404,49.88237],[-97.19404,49.88218],[-97.194056,49.88218],[-97.194087,49.88156],[-97.194118,49.88149],[-97.194134,49.88116],[-97.194149,49.88116],[-97.194366,49.87836],[-97.193637,49.87833],[-97.192847,49.87823],[-97.191095,49.87809],[-97.190196,49.8781],[-97.189809,49.87813],[-97.18908,49.87824],[-97.188863,49.87829],[-97.188243,49.8785],[-97.18753,49.87869],[-97.184632,49.87931],[-97.184027,49.87941],[-97.183376,49.87948],[-97.182725,49.8795],[-97.18226,49.87947],[-97.181656,49.8794],[-97.181067,49.87928],[-97.180478,49.87909],[-97.179982,49.87888],[-97.179625,49.87866],[-97.179594,49.87866],[-97.178277,49.87779],[-97.177471,49.87729],[-97.176758,49.8769],[-97.176138,49.87665],[-97.175471,49.87645],[-97.174789,49.87631],[-97.174138,49.87621],[-97.172433,49.87616],[-97.171286,49.87621],[-97.170217,49.87638],[-97.169969,49.87645],[-97.169194,49.8767],[-97.165676,49.87814],[-97.164885,49.87839],[-97.164281,49.87855],[-97.163769,49.87863],[-97.163443,49.87863],[-97.163133,49.87859],[-97.162172,49.87838],[-97.161676,49.8782],[-97.159801,49.87889],[-97.155895,49.87912],[-97.155802,49.87912],[-97.155787,49.87903],[-97.154825,49.87908],[-97.154515,49.87875],[-97.154484,49.87877],[-97.154391,49.87868],[-97.154376,49.87864],[-97.154283,49.87857],[-97.154267,49.87853],[-97.154174,49.87846],[-97.154159,49.87842],[-97.154066,49.87835],[-97.15405,49.87831],[-97.153958,49.87824],[-97.153942,49.8782],[-97.153818,49.8781],[-97.153802,49.87806],[-97.15371,49.87799],[-97.153694,49.87795],[-97.153601,49.87788],[-97.153586,49.87784],[-97.153492,49.87777],[-97.153477,49.87773],[-97.153384,49.87766],[-97.153368,49.87762],[-97.153058,49.87732],[-97.153043,49.87724],[-97.152981,49.87714],[-97.152919,49.87695],[-97.152857,49.87685],[-97.152795,49.87666],[-97.152733,49.87656],[-97.152671,49.87637],[-97.15264,49.87634],[-97.152547,49.87608],[-97.152516,49.87605],[-97.152469,49.8759],[-97.15233,49.87561],[-97.152485,49.87501],[-97.152702,49.87474],[-97.152733,49.87473],[-97.152826,49.87459],[-97.152857,49.87458],[-97.15295,49.87444],[-97.153632,49.87406],[-97.15374,49.87402],[-97.153849,49.87395],[-97.153834,49.87394],[-97.153353,49.87416],[-97.153027,49.87438],[-97.152624,49.87421],[-97.152438,49.87431],[-97.152314,49.87447],[-97.152252,49.8745],[-97.152221,49.87458],[-97.152082,49.87468],[-97.152035,49.87479],[-97.152005,49.87481],[-97.151958,49.87492],[-97.151911,49.87531],[-97.151943,49.87539],[-97.151927,49.87559],[-97.151958,49.87564],[-97.152035,49.87568],[-97.152051,49.87573],[-97.15219,49.87589],[-97.152206,49.87598],[-97.152268,49.87606],[-97.152268,49.87617],[-97.15233,49.87623],[-97.152345,49.87638],[-97.152314,49.87641],[-97.15233,49.87662],[-97.152361,49.87665],[-97.152376,49.87672],[-97.152469,49.87681],[-97.152516,49.87693],[-97.152516,49.87699],[-97.152547,49.87705],[-97.1525,49.8771],[-97.152562,49.87729],[-97.152609,49.87733],[-97.152609,49.87738],[-97.152686,49.87743],[-97.152686,49.87748],[-97.152764,49.87756],[-97.152779,49.87763],[-97.152903,49.8777],[-97.152919,49.87779],[-97.152996,49.8779],[-97.153089,49.87794],[-97.15312,49.878],[-97.153276,49.87809],[-97.153306,49.87815],[-97.153384,49.87819],[-97.153384,49.87821],[-97.153446,49.87822],[-97.153446,49.87824],[-97.153508,49.87827],[-97.153554,49.87835],[-97.153648,49.87839],[-97.15371,49.87851],[-97.153864,49.87858],[-97.153926,49.87867],[-97.153973,49.87869],[-97.15402,49.87878],[-97.154422,49.8791],[-97.154438,49.87917],[-97.154484,49.87921],[-97.154484,49.87927],[-97.154515,49.87924],[-97.154546,49.8793],[-97.154546,49.87936],[-97.154593,49.87945],[-97.154624,49.87955],[-97.154624,49.87965],[-97.154639,49.87965],[-97.154639,49.87973],[-97.154608,49.87976],[-97.154608,49.8799],[-97.154562,49.88002],[-97.154515,49.88011],[-97.154484,49.8801],[-97.154484,49.88015],[-97.154407,49.88023],[-97.154376,49.8803],[-97.15419,49.88045],[-97.154159,49.8805],[-97.153911,49.88067],[-97.153834,49.88069],[-97.153632,49.88082],[-97.15343,49.8809],[-97.152764,49.88111],[-97.152516,49.88116],[-97.15233,49.88124],[-97.152113,49.88127],[-97.151787,49.88136],[-97.151679,49.88136],[-97.151385,49.88142],[-97.150935,49.88146],[-97.149462,49.88146],[-97.14937,49.88148],[-97.148036,49.88146],[-97.147897,49.8815],[-97.147525,49.88147],[-97.147323,49.8815],[-97.146471,49.8815],[-97.146021,49.88155],[-97.145712,49.88155],[-97.145448,49.88159],[-97.144998,49.8816],[-97.144843,49.88166],[-97.144192,49.88173],[-97.144006,49.88183],[-97.143774,49.88187],[-97.143557,49.88195],[-97.14272,49.88206],[-97.141836,49.88231],[-97.141821,49.88236],[-97.141759,49.88233],[-97.141263,49.88246],[-97.141,49.88258],[-97.140906,49.8826],[-97.140844,49.88265],[-97.140658,49.8827],[-97.140426,49.88283],[-97.140426,49.88285],[-97.140379,49.88285],[-97.140333,49.8829],[-97.140224,49.88292],[-97.140178,49.88297],[-97.140147,49.88297],[-97.1401,49.88302],[-97.140038,49.88303],[-97.139961,49.88309],[-97.13962,49.88317],[-97.139449,49.8833],[-97.13931,49.88334],[-97.139201,49.88341],[-97.139171,49.88346],[-97.138969,49.88351],[-97.138938,49.88354],[-97.138442,49.8837],[-97.138132,49.88384],[-97.137853,49.88393],[-97.137714,49.88404],[-97.137667,49.88397],[-97.137574,49.8839],[-97.137558,49.88386],[-97.137248,49.88356],[-97.13714,49.88336],[-97.13697,49.88312],[-97.13697,49.88308],[-97.137295,49.88188],[-97.137729,49.88014],[-97.138008,49.87925],[-97.138116,49.87882],[-97.138178,49.87867],[-97.138287,49.87824],[-97.138349,49.87809],[-97.138395,49.87787],[-97.138457,49.87774],[-97.137977,49.8779],[-97.137946,49.8779],[-97.137946,49.87788],[-97.13824,49.87743],[-97.13824,49.8774],[-97.138271,49.87738],[-97.138271,49.87735],[-97.138349,49.87726],[-97.13838,49.87718],[-97.138411,49.87716],[-97.138411,49.87713],[-97.138721,49.87666],[-97.138814,49.87648],[-97.138845,49.87646],[-97.138876,49.87638],[-97.138969,49.87626],[-97.138969,49.87623],[-97.138985,49.87621],[-97.139015,49.87623],[-97.139031,49.87618],[-97.139077,49.87614],[-97.139201,49.87591],[-97.139449,49.87554],[-97.139465,49.87547],[-97.139682,49.87515],[-97.139682,49.87512],[-97.139729,49.87508],[-97.139945,49.8747],[-97.139992,49.87466],[-97.140209,49.87428],[-97.140255,49.87424],[-97.140472,49.87386],[-97.140519,49.87382],[-97.140736,49.87344],[-97.140906,49.8732],[-97.140813,49.87308],[-97.140782,49.8731],[-97.140767,49.87316],[-97.140705,49.87323],[-97.140689,49.87329],[-97.140627,49.87336],[-97.140457,49.87368],[-97.140364,49.8738],[-97.140317,49.87391],[-97.140286,49.87393],[-97.140271,49.87399],[-97.140209,49.87406],[-97.140193,49.87412],[-97.140131,49.87419],[-97.140116,49.87425],[-97.140085,49.87427],[-97.139961,49.87451],[-97.139899,49.87458],[-97.139883,49.87464],[-97.139821,49.87471],[-97.139806,49.87477],[-97.139667,49.87497],[-97.139573,49.87516],[-97.139481,49.87528],[-97.139465,49.87534],[-97.139403,49.87541],[-97.139357,49.87553],[-97.139325,49.87555],[-97.13931,49.87561],[-97.139093,49.87594],[-97.139077,49.876],[-97.139015,49.87607],[-97.139015,49.8761],[-97.138985,49.87608],[-97.138985,49.87611],[-97.138953,49.87613],[-97.138923,49.87622],[-97.138891,49.87624],[-97.138876,49.8763],[-97.138845,49.87632],[-97.138628,49.87672],[-97.135869,49.87763],[-97.135621,49.87799],[-97.13559,49.878],[-97.135187,49.87849],[-97.135109,49.87854],[-97.135047,49.87862],[-97.134923,49.87871],[-97.134505,49.87911],[-97.134024,49.87948],[-97.133978,49.87954],[-97.13373,49.87972],[-97.133436,49.87998],[-97.133374,49.88001],[-97.133327,49.88007],[-97.133203,49.88015],[-97.133064,49.88029],[-97.132924,49.88039],[-97.132893,49.88044],[-97.132614,49.88066],[-97.131761,49.88154],[-97.130273,49.88275],[-97.129901,49.88251],[-97.129901,49.88249],[-97.127948,49.88124],[-97.127267,49.88027],[-97.126848,49.87986],[-97.126833,49.87982],[-97.126771,49.87978],[-97.126755,49.87974],[-97.126693,49.8797],[-97.126677,49.87966],[-97.126615,49.87962],[-97.1266,49.87958],[-97.126538,49.87954],[-97.126522,49.8795],[-97.12646,49.87946],[-97.126445,49.87942],[-97.125964,49.87904],[-97.125918,49.87898],[-97.125856,49.87895],[-97.125856,49.87893],[-97.125794,49.8789],[-97.125685,49.87879],[-97.125623,49.87876],[-97.125623,49.87874],[-97.125561,49.87871],[-97.125453,49.8786],[-97.125391,49.87857],[-97.125344,49.87851],[-97.12522,49.87843],[-97.125112,49.87832],[-97.122989,49.87727],[-97.11823,49.87533],[-97.117068,49.87451],[-97.117068,49.87449],[-97.116386,49.87396],[-97.116261,49.87384],[-97.116184,49.8738],[-97.116184,49.87378],[-97.116122,49.87375],[-97.116122,49.87373],[-97.11606,49.8737],[-97.11606,49.87368],[-97.115998,49.87365],[-97.115998,49.87363],[-97.115936,49.8736],[-97.115936,49.87358],[-97.115874,49.87355],[-97.115874,49.87353],[-97.115812,49.8735],[-97.115812,49.87348],[-97.11575,49.87345],[-97.11575,49.87343],[-97.115688,49.8734],[-97.115688,49.87338],[-97.115626,49.87335],[-97.115626,49.87333],[-97.115564,49.8733],[-97.115564,49.87328],[-97.115502,49.87325],[-97.115502,49.87323],[-97.11544,49.8732],[-97.11544,49.87318],[-97.115378,49.87315],[-97.115378,49.87313],[-97.115316,49.8731],[-97.115316,49.87308],[-97.114634,49.87255],[-97.114448,49.87238],[-97.114371,49.87234],[-97.114371,49.87232],[-97.114309,49.87229],[-97.114309,49.87227],[-97.114246,49.87224],[-97.114246,49.87222],[-97.114184,49.87219],[-97.114184,49.87217],[-97.114122,49.87214],[-97.114122,49.87212],[-97.11406,49.87209],[-97.11406,49.87207],[-97.113998,49.87204],[-97.113998,49.87202],[-97.113936,49.87199],[-97.113936,49.87197],[-97.113874,49.87194],[-97.113874,49.87192],[-97.113812,49.87189],[-97.113812,49.87187],[-97.11375,49.87184],[-97.113549,49.87166],[-97.106869,49.87386],[-97.106683,49.87382],[-97.103644,49.87482],[-97.103133,49.87462],[-97.102699,49.87439],[-97.10242,49.87419],[-97.102405,49.87411],[-97.102435,49.87406],[-97.102529,49.87403],[-97.103365,49.87399],[-97.103815,49.8739],[-97.104063,49.87382],[-97.104264,49.87364],[-97.10428,49.87358],[-97.104497,49.87325],[-97.104512,49.87319],[-97.104544,49.87317],[-97.104574,49.87304],[-97.104497,49.87294],[-97.104342,49.87289],[-97.104156,49.87292],[-97.103629,49.87323],[-97.103458,49.87337],[-97.103241,49.87342],[-97.103117,49.8734],[-97.103024,49.8733],[-97.103024,49.87318],[-97.10304,49.87318],[-97.10304,49.87306],[-97.103055,49.87306],[-97.10304,49.87281],[-97.102993,49.87275],[-97.102869,49.87269],[-97.10273,49.87268],[-97.102653,49.87271],[-97.102559,49.87283],[-97.10242,49.87289],[-97.102172,49.87289],[-97.101118,49.87276],[-97.100932,49.87269],[-97.100901,49.87264],[-97.100854,49.87234],[-97.10073,49.872],[-97.100715,49.87177],[-97.100622,49.87149],[-97.100668,49.87136],[-97.10073,49.87131],[-97.100948,49.87124],[-97.101087,49.87128],[-97.10118,49.87136],[-97.101366,49.87174],[-97.101412,49.87176],[-97.101459,49.87182],[-97.101707,49.87192],[-97.101924,49.87192],[-97.102745,49.87171],[-97.102839,49.87159],[-97.102839,49.87155],[-97.102715,49.8712],[-97.102715,49.87106],[-97.102869,49.87079],[-97.102978,49.87033],[-97.103117,49.87008],[-97.103071,49.86992],[-97.102978,49.86988],[-97.101939,49.86987],[-97.101691,49.86984],[-97.101567,49.86979],[-97.101536,49.86975],[-97.101536,49.86965],[-97.101521,49.86965],[-97.101536,49.86915],[-97.101505,49.86908],[-97.101505,49.869],[-97.10149,49.869],[-97.101381,49.86845],[-97.101211,49.86809],[-97.101288,49.86778],[-97.101242,49.86767],[-97.101102,49.86758],[-97.1007,49.86747],[-97.100405,49.86753],[-97.100358,49.86757],[-97.100374,49.86772],[-97.100482,49.86779],[-97.100529,49.86785],[-97.100576,49.86797],[-97.100544,49.86809],[-97.100296,49.86823],[-97.099909,49.86837],[-97.0998,49.86844],[-97.099614,49.86845],[-97.099382,49.86836],[-97.099211,49.86824],[-97.099103,49.86809],[-97.099103,49.86803],[-97.099072,49.86797],[-97.099118,49.86782],[-97.099273,49.86767],[-97.09932,49.86759],[-97.099335,49.86744],[-97.099351,49.86744],[-97.099351,49.86723],[-97.095941,49.86724],[-97.095848,49.86716],[-97.095662,49.86715],[-97.095491,49.86724],[-97.091182,49.86724],[-97.091663,49.86817],[-97.091694,49.86819],[-97.091988,49.86879],[-97.09202,49.86881],[-97.092314,49.86941],[-97.092345,49.86943],[-97.092484,49.86973],[-97.092516,49.86971],[-97.092608,49.86992],[-97.09264,49.86994],[-97.092841,49.87036],[-97.092872,49.87038],[-97.093058,49.87077],[-97.093089,49.87079],[-97.093306,49.87121],[-97.093306,49.87125],[-97.093817,49.87222],[-97.093817,49.87226],[-97.094065,49.87271],[-97.094065,49.87275],[-97.094313,49.8732],[-97.094313,49.87324],[-97.09498,49.8745],[-97.09498,49.87454],[-97.095739,49.87598],[-97.095739,49.87602],[-97.098886,49.88211],[-97.098886,49.88215],[-97.099103,49.88254],[-97.099103,49.88258],[-97.09932,49.88297],[-97.09932,49.88301],[-97.099537,49.8834],[-97.099537,49.88344],[-97.099754,49.88383],[-97.099754,49.88387],[-97.099955,49.88423],[-97.099955,49.88427],[-97.100172,49.88466],[-97.100172,49.8847],[-97.10039,49.88509],[-97.10039,49.88513],[-97.100591,49.88549],[-97.100622,49.8856],[-97.100715,49.88577],[-97.105179,49.88576],[-97.10521,49.88578],[-97.1049,49.88597],[-97.104838,49.88604],[-97.104807,49.88613],[-97.104838,49.88625],[-97.104884,49.88631],[-97.105024,49.88638],[-97.105566,49.88644],[-97.106264,49.88645],[-97.106775,49.88636],[-97.107132,49.88637],[-97.107287,49.88643],[-97.10738,49.88654],[-97.107395,49.88663],[-97.107318,49.88681],[-97.106869,49.88702],[-97.106403,49.88718],[-97.10583,49.88727],[-97.105613,49.8874],[-97.105535,49.88754],[-97.105582,49.88766],[-97.105706,49.88772],[-97.106233,49.88773],[-97.106713,49.88784],[-97.107147,49.88798],[-97.107302,49.88814],[-97.107333,49.88826],[-97.107411,49.88841],[-97.107395,49.88856],[-97.107302,49.88867],[-97.107147,49.88876],[-97.107023,49.8888],[-97.106698,49.88884],[-97.106295,49.88877],[-97.105861,49.88863],[-97.105613,49.88861],[-97.105442,49.88865],[-97.105396,49.88874],[-97.105334,49.8888],[-97.105318,49.88897],[-97.105241,49.88918],[-97.105256,49.8893],[-97.105272,49.8893],[-97.105256,49.8895],[-97.105287,49.88959],[-97.105287,49.88969],[-97.105303,49.88969],[-97.105303,49.88975],[-97.105272,49.88979],[-97.105117,49.88987],[-97.104745,49.88997],[-97.104388,49.88989],[-97.104249,49.88989],[-97.104094,49.88994],[-97.104016,49.88999],[-97.103954,49.89015],[-97.103954,49.89024],[-97.104094,49.89039],[-97.104156,49.89056],[-97.104249,49.89064],[-97.10428,49.89079],[-97.104234,49.89084],[-97.104234,49.89087],[-97.104373,49.89106],[-97.104993,49.89148],[-97.105349,49.89164],[-97.105473,49.89173],[-97.105473,49.89175],[-97.105644,49.89187],[-97.105814,49.89213],[-97.105814,49.89216],[-97.105892,49.89225],[-97.105876,49.89229],[-97.103861,49.89272],[-97.10569,49.89625],[-97.107752,49.89581],[-97.107969,49.89574],[-97.108046,49.89574],[-97.113162,49.89439],[-97.125376,49.8913],[-97.127313,49.89123],[-97.127065,49.89095],[-97.126957,49.89086],[-97.126941,49.89082],[-97.126724,49.89064],[-97.126662,49.89056],[-97.126615,49.89054],[-97.126553,49.89046],[-97.126507,49.89044],[-97.126398,49.89029],[-97.126398,49.89026],[-97.126336,49.8902],[-97.126336,49.89017],[-97.12629,49.89013],[-97.12629,49.8901],[-97.126243,49.89006],[-97.126243,49.89003],[-97.126197,49.88999],[-97.126197,49.88996],[-97.126088,49.88983],[-97.125825,49.88923],[-97.125809,49.88911],[-97.125685,49.88871],[-97.125654,49.8879],[-97.12567,49.8879],[-97.125778,49.8873],[-97.125871,49.88709],[-97.125902,49.88695],[-97.125964,49.8868],[-97.125995,49.88678],[-97.12615,49.88648],[-97.126274,49.88633],[-97.126305,49.88632],[-97.126352,49.88624],[-97.126383,49.88623],[-97.126414,49.88617],[-97.126445,49.88616],[-97.126476,49.8861],[-97.126662,49.88594],[-97.126801,49.88578],[-97.127235,49.88573],[-97.127592,49.88572],[-97.128848,49.88576],[-97.131297,49.88577],[-97.132025,49.88575],[-97.133141,49.88564],[-97.1339,49.88553],[-97.134133,49.88546],[-97.134769,49.88533],[-97.136148,49.88496],[-97.136876,49.88471],[-97.138101,49.88415],[-97.139635,49.88355],[-97.141154,49.88284],[-97.141867,49.88257],[-97.142906,49.88231],[-97.14365,49.88219],[-97.144347,49.88203],[-97.144968,49.88193],[-97.145634,49.88186],[-97.147587,49.88175],[-97.148501,49.88175],[-97.14937,49.88168],[-97.150206,49.88166],[-97.151261,49.88168],[-97.151571,49.88165],[-97.152268,49.88151],[-97.153043,49.88128],[-97.152996,49.88201],[-97.15233,49.88223],[-97.15233,49.88245],[-97.152314,49.88245],[-97.152314,49.88258],[-97.152299,49.88258],[-97.152299,49.8827],[-97.152283,49.8827],[-97.152283,49.88291],[-97.152314,49.88291],[-97.152314,49.88309],[-97.152299,49.88309],[-97.152268,49.88361],[-97.152252,49.88361],[-97.152252,49.88378],[-97.152237,49.88378],[-97.152237,49.88395],[-97.152221,49.88395],[-97.15219,49.88446],[-97.152175,49.88446],[-97.152144,49.88498],[-97.152128,49.88498],[-97.152128,49.88506],[-97.152035,49.88506],[-97.152035,49.88512],[-97.152082,49.88512],[-97.152051,49.88549],[-97.151353,49.88548],[-97.151323,49.88558],[-97.151291,49.88612],[-97.150687,49.8861],[-97.150594,49.88727],[-97.150578,49.88727],[-97.150563,49.88749],[-97.150547,49.88749],[-97.150547,49.88764],[-97.150532,49.88764],[-97.150485,49.88836],[-97.15109,49.88838],[-97.151043,49.88888],[-97.151183,49.88893],[-97.151896,49.88904],[-97.153043,49.88908],[-97.153492,49.88921],[-97.154082,49.88924],[-97.154066,49.88973],[-97.155182,49.88943],[-97.155197,49.88943],[-97.155197,49.88954],[-97.155182,49.88954],[-97.154965,49.89281],[-97.153306,49.89276],[-97.152128,49.89298],[-97.152423,49.89371],[-97.152423,49.89383],[-97.152407,49.89383],[-97.152407,49.89405],[-97.152392,49.89405],[-97.152392,49.89427],[-97.152376,49.89427],[-97.152376,49.89449],[-97.152361,49.89449],[-97.152361,49.89471],[-97.152345,49.89471],[-97.152345,49.89493],[-97.15233,49.89493],[-97.15233,49.89515],[-97.152314,49.89515],[-97.152314,49.89537],[-97.152299,49.89537],[-97.152299,49.89559],[-97.152283,49.89559],[-97.152283,49.89581],[-97.152268,49.89581],[-97.152268,49.89603],[-97.152252,49.89603],[-97.152252,49.89625],[-97.152237,49.89625],[-97.152237,49.89647],[-97.152221,49.89647],[-97.152221,49.89669],[-97.152206,49.89669],[-97.152206,49.89691],[-97.15219,49.89691],[-97.15219,49.89713],[-97.152175,49.89713],[-97.152175,49.89735],[-97.152159,49.89735],[-97.152159,49.89757],[-97.152144,49.89757],[-97.152144,49.89779],[-97.152128,49.89779],[-97.152128,49.89801],[-97.152113,49.89801],[-97.152035,49.89915],[-97.154484,49.89994],[-97.154531,49.89993],[-97.158142,49.9011],[-97.159723,49.90155],[-97.167489,49.90406],[-97.173286,49.90589],[-97.180199,49.90813],[-97.183702,49.90924],[-97.183702,49.91312],[-97.182602,49.91452],[-97.182602,49.91455],[-97.181858,49.91549],[-97.181858,49.91552],[-97.181516,49.91596],[-97.181485,49.91597],[-97.180059,49.91551],[-97.180059,49.91549],[-97.179719,49.91538],[-97.170713,49.91251],[-97.170697,49.91243],[-97.170713,49.91243],[-97.170945,49.91011],[-97.170016,49.90981],[-97.169969,49.90982],[-97.167706,49.90908],[-97.16614,49.9111],[-97.164342,49.91053],[-97.163629,49.91147],[-97.163599,49.91148],[-97.139139,49.90362],[-97.139015,49.90378],[-97.138985,49.90377],[-97.138953,49.90384],[-97.138318,49.90464],[-97.138256,49.90503],[-97.13838,49.90529],[-97.138333,49.90535],[-97.138163,49.9053],[-97.138116,49.90538],[-97.137992,49.90549],[-97.137992,49.90552],[-97.137357,49.90635],[-97.137326,49.90635],[-97.136148,49.90596],[-97.135853,49.90593],[-97.135884,49.90582],[-97.135822,49.90581],[-97.133978,49.90563],[-97.132242,49.90542],[-97.131173,49.90525],[-97.130831,49.90516],[-97.128429,49.90483],[-97.11761,49.90318],[-97.109658,49.90276],[-97.10862,49.90268],[-97.108574,49.90282],[-97.108574,49.903],[-97.108589,49.903],[-97.108589,49.90317],[-97.108682,49.9034],[-97.10893,49.90365],[-97.108946,49.90369],[-97.108976,49.9037],[-97.108992,49.90374],[-97.109023,49.90375],[-97.109038,49.90379],[-97.10907,49.9038],[-97.109085,49.90384],[-97.109565,49.90418],[-97.110232,49.90446],[-97.111673,49.90496],[-97.114029,49.90548],[-97.115874,49.90609],[-97.116354,49.90628],[-97.117006,49.90659],[-97.119454,49.90785],[-97.12119,49.90868],[-97.122865,49.90963],[-97.123004,49.90969],[-97.123097,49.90976],[-97.123345,49.90988],[-97.123438,49.90995],[-97.123531,49.90996],[-97.123841,49.91015],[-97.124089,49.91027],[-97.12567,49.91136],[-97.12598,49.91171],[-97.12598,49.91174],[-97.126057,49.91182],[-97.126119,49.91194],[-97.126274,49.91213],[-97.126383,49.91241],[-97.126522,49.91268],[-97.126585,49.91289],[-97.126647,49.91301],[-97.126647,49.91306],[-97.126693,49.91314],[-97.126693,49.91319],[-97.126755,49.91331],[-97.126755,49.91336],[-97.126801,49.91344],[-97.126801,49.91349],[-97.126863,49.91361],[-97.126863,49.91366],[-97.12691,49.91374],[-97.126941,49.91398],[-97.126957,49.91398],[-97.126895,49.91507],[-97.126879,49.91507],[-97.126801,49.91559],[-97.126693,49.91586],[-97.126631,49.91593],[-97.126522,49.91616],[-97.126429,49.91626],[-97.126429,49.91629],[-97.126119,49.91671],[-97.126042,49.91677],[-97.125732,49.91714],[-97.12536,49.9175],[-97.125344,49.91754],[-97.125236,49.91762],[-97.125112,49.91776],[-97.125066,49.91778],[-97.124972,49.91789],[-97.124926,49.91791],[-97.124724,49.91812],[-97.124027,49.91853],[-97.123593,49.91873],[-97.123391,49.91879],[-97.123035,49.91897],[-97.122291,49.91921],[-97.12026,49.9196],[-97.117439,49.91995],[-97.11699,49.92003],[-97.116618,49.92012],[-97.115502,49.9205],[-97.114262,49.92106],[-97.114029,49.9212],[-97.11358,49.92142],[-97.113038,49.92179],[-97.112743,49.92207],[-97.11265,49.92213],[-97.112619,49.92218],[-97.112448,49.92231],[-97.112262,49.92254],[-97.11203,49.92277],[-97.111472,49.92351],[-97.111441,49.92352],[-97.110867,49.92426],[-97.110681,49.92462],[-97.110651,49.92464],[-97.110635,49.9247],[-97.110604,49.92472],[-97.110573,49.92481],[-97.110542,49.92483],[-97.110511,49.92492],[-97.110449,49.925],[-97.110263,49.92548],[-97.110279,49.92552],[-97.110232,49.92563],[-97.11279,49.92646],[-97.112944,49.9265],[-97.11296,49.92644],[-97.112991,49.92644],[-97.117114,49.92778],[-97.117145,49.92777],[-97.117284,49.92737],[-97.117315,49.92735],[-97.119454,49.92804],[-97.119315,49.92822],[-97.119315,49.92825],[-97.11916,49.92843],[-97.119175,49.92845],[-97.122818,49.92963],[-97.12288,49.92957],[-97.122927,49.92945],[-97.122957,49.92943],[-97.122989,49.92934],[-97.123019,49.92932],[-97.123066,49.9292],[-97.123097,49.92918],[-97.123329,49.92874],[-97.123531,49.92879],[-97.136535,49.93299]],[[-97.137946,49.8779],[-97.13793,49.87791],[-97.13793,49.8779],[-97.137946,49.8779]]],[[[-97.212393,49.86982],[-97.212439,49.86975],[-97.212563,49.86965],[-97.212579,49.86961],[-97.212671,49.86954],[-97.212687,49.8695],[-97.212919,49.86929],[-97.212935,49.86925],[-97.213028,49.86918],[-97.213043,49.86914],[-97.213276,49.86893],[-97.213291,49.86889],[-97.213524,49.86868],[-97.213539,49.86864],[-97.213632,49.86857],[-97.213648,49.86853],[-97.21388,49.86832],[-97.213896,49.86828],[-97.213989,49.86821],[-97.214004,49.86817],[-97.214237,49.86796],[-97.214252,49.86792],[-97.214345,49.86785],[-97.214361,49.86781],[-97.214594,49.8676],[-97.214609,49.86756],[-97.214702,49.86749],[-97.214718,49.86745],[-97.214842,49.86735],[-97.214857,49.86731],[-97.21495,49.86724],[-97.214966,49.8672],[-97.215058,49.86713],[-97.215074,49.86709],[-97.215198,49.86699],[-97.215214,49.86695],[-97.215306,49.86688],[-97.215322,49.86684],[-97.215415,49.86677],[-97.21543,49.86673],[-97.215616,49.86655],[-97.211354,49.86641],[-97.210858,49.86635],[-97.21016,49.86621],[-97.209695,49.86604],[-97.208998,49.86568],[-97.208843,49.86553],[-97.208812,49.86547],[-97.20875,49.86543],[-97.208595,49.86521],[-97.20844,49.8651],[-97.208393,49.86504],[-97.207587,49.86454],[-97.207014,49.86433],[-97.20658,49.86422],[-97.205991,49.86414],[-97.205479,49.86955],[-97.212393,49.86982]]]]}},{"type":"Feature","properties":{"area":2,"variant":"Airport PDO","title":"Infill Guideline Area 2 (Airport PDO)","feature_set_id":17967,"fill":"#eb8df4","line":"#ea1df0","polygons":1},"geometry":{"type":"MultiPolygon","coordinates":[[[[-97.194102,49.88156],[-97.20472,49.87966],[-97.204844,49.87962],[-97.204767,49.87953],[-97.204627,49.87928],[-97.204581,49.87924],[-97.204549,49.87916],[-97.204503,49.87912],[-97.204363,49.87887],[-97.204317,49.87883],[-97.204177,49.87858],[-97.204131,49.87854],[-97.2041,49.87846],[-97.204053,49.87842],[-97.204022,49.87834],[-97.203976,49.8783],[-97.203914,49.87817],[-97.203867,49.87813],[-97.203836,49.87805],[-97.20379,49.87801],[-97.203728,49.87788],[-97.203681,49.87784],[-97.20365,49.87776],[-97.203604,49.87772],[-97.203573,49.87764],[-97.203526,49.8776],[-97.203464,49.87747],[-97.203418,49.87743],[-97.203387,49.87735],[-97.20334,49.87731],[-97.203278,49.87718],[-97.203232,49.87714],[-97.203201,49.87706],[-97.203046,49.87684],[-97.200891,49.87721],[-97.199698,49.87746],[-97.19914,49.87764],[-97.198722,49.87785],[-97.197977,49.87809],[-97.197156,49.87825],[-97.196179,49.8784],[-97.195683,49.87843],[-97.194366,49.87836],[-97.194149,49.88116],[-97.194134,49.88116],[-97.194118,49.88149],[-97.194102,49.88149],[-97.194102,49.88156]]]]}},{"type":"Feature","properties":{"area":2,"variant":"Secondary Plan","title":"Infill Guideline Area 2 (Secondary Plan)","feature_set_id":17968,"fill":"#998df4","line":"#4d1df0","polygons":3},"geometry":{"type":"MultiPolygon","coordinates":[[[[-97.163614,49.91148],[-97.164342,49.91053],[-97.16614,49.9111],[-97.167691,49.90908],[-97.169969,49.90982],[-97.170016,49.90981],[-97.170945,49.91011],[-97.171441,49.90531],[-97.167489,49.90406],[-97.159723,49.90155],[-97.158142,49.9011],[-97.154531,49.89993],[-97.154484,49.89994],[-97.152035,49.89915],[-97.152097,49.89822],[-97.152113,49.89822],[-97.152097,49.8981],[-97.151214,49.89788],[-97.150919,49.89828],[-97.150888,49.89828],[-97.146021,49.89671],[-97.14599,49.89672],[-97.145696,49.89712],[-97.146703,49.89745],[-97.146626,49.89752],[-97.145696,49.89874],[-97.145184,49.89858],[-97.143867,49.90028],[-97.143867,49.90031],[-97.143805,49.90038],[-97.143913,49.90041],[-97.143913,49.90043],[-97.143743,49.90063],[-97.143743,49.90066],[-97.143603,49.90084],[-97.143201,49.90071],[-97.143185,49.90076],[-97.142937,49.90106],[-97.14289,49.90115],[-97.142766,49.90111],[-97.14258,49.90138],[-97.142503,49.90148],[-97.142472,49.90149],[-97.142906,49.90164],[-97.142611,49.902],[-97.142658,49.90202],[-97.142658,49.90204],[-97.1421,49.90276],[-97.141991,49.90273],[-97.141945,49.90282],[-97.141821,49.90296],[-97.141821,49.90299],[-97.14179,49.903],[-97.141759,49.90306],[-97.141712,49.90305],[-97.141588,49.90323],[-97.141511,49.9032],[-97.14148,49.90321],[-97.141108,49.90369],[-97.141108,49.90372],[-97.140767,49.90414],[-97.163614,49.91148]]],[[[-97.10862,49.90268],[-97.108775,49.9022],[-97.108914,49.90199],[-97.10893,49.90193],[-97.108961,49.90191],[-97.108961,49.90188],[-97.10924,49.90152],[-97.109441,49.90137],[-97.109534,49.90127],[-97.110201,49.90086],[-97.110495,49.90075],[-97.111038,49.90063],[-97.111844,49.9005],[-97.112898,49.90042],[-97.115579,49.90039],[-97.119609,49.90064],[-97.12102,49.9007],[-97.123407,49.9009],[-97.123794,49.90091],[-97.124368,49.90086],[-97.125019,49.90074],[-97.127111,49.90025],[-97.128444,49.89989],[-97.129034,49.89966],[-97.12956,49.89939],[-97.129963,49.89913],[-97.129994,49.89913],[-97.130583,49.8987],[-97.130599,49.89866],[-97.13063,49.89865],[-97.130645,49.89861],[-97.130707,49.89857],[-97.130723,49.89853],[-97.130754,49.89852],[-97.130769,49.89848],[-97.130801,49.89847],[-97.130987,49.89826],[-97.131188,49.89789],[-97.131219,49.89781],[-97.131219,49.89767],[-97.131235,49.89767],[-97.131265,49.89664],[-97.13125,49.89664],[-97.131203,49.89614],[-97.13094,49.89553],[-97.130537,49.89493],[-97.129715,49.89411],[-97.129328,49.89376],[-97.129188,49.89357],[-97.12908,49.89347],[-97.129034,49.89339],[-97.129002,49.89338],[-97.128956,49.8933],[-97.128925,49.89329],[-97.128863,49.89319],[-97.128832,49.89318],[-97.127359,49.89126],[-97.127329,49.89123],[-97.127173,49.89123],[-97.125376,49.8913],[-97.113162,49.89439],[-97.108046,49.89574],[-97.107969,49.89574],[-97.107752,49.89581],[-97.10569,49.89625],[-97.106341,49.89752],[-97.106341,49.89756],[-97.106527,49.89789],[-97.106527,49.89793],[-97.106713,49.89826],[-97.106713,49.8983],[-97.106899,49.89863],[-97.106899,49.89867],[-97.107085,49.899],[-97.107085,49.89904],[-97.10738,49.89957],[-97.106125,49.90258],[-97.106698,49.90256],[-97.10862,49.90268]]],[[[-97.137729,49.88404],[-97.137853,49.88393],[-97.138132,49.88384],[-97.138442,49.8837],[-97.138938,49.88354],[-97.138969,49.88351],[-97.139171,49.88346],[-97.139201,49.88341],[-97.13931,49.88334],[-97.139449,49.8833],[-97.13962,49.88317],[-97.139961,49.88309],[-97.140038,49.88303],[-97.1401,49.88302],[-97.140147,49.88297],[-97.140178,49.88297],[-97.140224,49.88292],[-97.140333,49.8829],[-97.140379,49.88285],[-97.140426,49.88285],[-97.140426,49.88283],[-97.140658,49.8827],[-97.140844,49.88265],[-97.140906,49.8826],[-97.141,49.88258],[-97.141263,49.88246],[-97.141759,49.88233],[-97.141821,49.88236],[-97.141836,49.88231],[-97.14272,49.88206],[-97.143557,49.88195],[-97.143774,49.88187],[-97.144006,49.88183],[-97.144192,49.88173],[-97.144843,49.88166],[-97.144998,49.8816],[-97.145448,49.88159],[-97.145712,49.88155],[-97.146021,49.88155],[-97.146471,49.8815],[-97.147323,49.8815],[-97.147463,49.88147],[-97.147897,49.8815],[-97.148036,49.88146],[-97.148796,49.88146],[-97.148842,49.88148],[-97.150253,49.88145],[-97.150935,49.88146],[-97.151385,49.88142],[-97.151679,49.88136],[-97.151787,49.88136],[-97.152113,49.88127],[-97.15233,49.88124],[-97.152485,49.88117],[-97.152934,49.88106],[-97.153632,49.88082],[-97.154004,49.88061],[-97.154004,49.88059],[-97.154159,49.8805],[-97.15419,49.88045],[-97.154376,49.8803],[-97.154407,49.88023],[-97.154484,49.88015],[-97.154484,49.8801],[-97.154515,49.88011],[-97.154608,49.8799],[-97.154608,49.87976],[-97.154639,49.87973],[-97.154624,49.87955],[-97.154562,49.87941],[-97.154546,49.8793],[-97.154515,49.87924],[-97.154484,49.87927],[-97.154484,49.87921],[-97.154438,49.87917],[-97.154422,49.8791],[-97.15402,49.87878],[-97.153973,49.87869],[-97.153926,49.87867],[-97.153864,49.87858],[-97.15371,49.87851],[-97.153648,49.87839],[-97.153554,49.87835],[-97.153508,49.87827],[-97.153446,49.87824],[-97.153446,49.87822],[-97.153384,49.87821],[-97.153384,49.87819],[-97.153306,49.87815],[-97.153276,49.87809],[-97.15312,49.878],[-97.153089,49.87794],[-97.152996,49.8779],[-97.152919,49.87779],[-97.152903,49.8777],[-97.152779,49.87763],[-97.152764,49.87756],[-97.152686,49.87748],[-97.152686,49.87743],[-97.152609,49.87738],[-97.152609,49.87733],[-97.152562,49.87729],[-97.1525,49.8771],[-97.152547,49.87705],[-97.152516,49.87699],[-97.152516,49.87693],[-97.152469,49.87681],[-97.152376,49.87672],[-97.152361,49.87665],[-97.15233,49.87662],[-97.15233,49.87645],[-97.152314,49.87645],[-97.152314,49.87641],[-97.152345,49.87638],[-97.15233,49.87623],[-97.152268,49.87617],[-97.152268,49.87606],[-97.152206,49.87598],[-97.15219,49.87589],[-97.152051,49.87573],[-97.152035,49.87568],[-97.151958,49.87564],[-97.151927,49.87559],[-97.151943,49.87539],[-97.151911,49.87531],[-97.151927,49.87509],[-97.151958,49.87504],[-97.151973,49.87487],[-97.152082,49.87468],[-97.152221,49.87458],[-97.152252,49.8745],[-97.152314,49.87447],[-97.152407,49.87434],[-97.152624,49.87421],[-97.153027,49.87438],[-97.153353,49.87416],[-97.153834,49.87394],[-97.154329,49.87379],[-97.15498,49.8737],[-97.155368,49.87369],[-97.155895,49.87373],[-97.156375,49.87381],[-97.156871,49.87397],[-97.157073,49.87374],[-97.157662,49.87319],[-97.157678,49.87315],[-97.157755,49.87309],[-97.157755,49.87306],[-97.156794,49.87279],[-97.157368,49.87293],[-97.158545,49.87253],[-97.158793,49.87261],[-97.158886,49.87258],[-97.158871,49.87253],[-97.158793,49.87246],[-97.158809,49.87244],[-97.159522,49.87221],[-97.159785,49.87216],[-97.160281,49.872],[-97.163583,49.87089],[-97.161382,49.86811],[-97.148455,49.87241],[-97.142022,49.87458],[-97.141991,49.87457],[-97.141046,49.87336],[-97.141015,49.87335],[-97.140922,49.87321],[-97.140891,49.8732],[-97.140782,49.8734],[-97.140612,49.87364],[-97.140612,49.87367],[-97.140581,49.87369],[-97.140581,49.87372],[-97.14055,49.87374],[-97.14055,49.87377],[-97.140519,49.87379],[-97.140519,49.87382],[-97.140472,49.87386],[-97.140441,49.87394],[-97.140317,49.87411],[-97.140317,49.87414],[-97.140286,49.87416],[-97.140286,49.87419],[-97.140255,49.87421],[-97.140255,49.87424],[-97.140209,49.87428],[-97.140178,49.87436],[-97.140023,49.87458],[-97.140023,49.87461],[-97.139992,49.87463],[-97.139992,49.87466],[-97.139945,49.8747],[-97.139914,49.87478],[-97.139729,49.87505],[-97.139729,49.87508],[-97.139682,49.87512],[-97.139496,49.87545],[-97.139465,49.87547],[-97.139449,49.87554],[-97.139325,49.87571],[-97.139077,49.87614],[-97.139031,49.87618],[-97.139015,49.87623],[-97.139,49.87621],[-97.138969,49.87623],[-97.138969,49.87626],[-97.138876,49.87638],[-97.138876,49.87641],[-97.138566,49.87688],[-97.138535,49.87696],[-97.138318,49.87728],[-97.138318,49.87731],[-97.138271,49.87735],[-97.13824,49.87743],[-97.13793,49.8779],[-97.138457,49.87774],[-97.138395,49.87787],[-97.138349,49.87809],[-97.138287,49.87824],[-97.138178,49.87867],[-97.138116,49.87882],[-97.138008,49.87925],[-97.137729,49.88014],[-97.137295,49.88188],[-97.13697,49.88308],[-97.13697,49.88312],[-97.137,49.88314],[-97.137,49.88317],[-97.137032,49.88319],[-97.137032,49.88322],[-97.137062,49.88324],[-97.137062,49.88327],[-97.13714,49.88336],[-97.13714,49.88339],[-97.13728,49.8836],[-97.137729,49.88404]],[[-97.156794,49.87279],[-97.156747,49.87279],[-97.156716,49.87277],[-97.156763,49.87277],[-97.156794,49.87279]],[[-97.156716,49.87276],[-97.156685,49.87277],[-97.156685,49.87276],[-97.156716,49.87276]],[[-97.156685,49.87276],[-97.156639,49.87276],[-97.156608,49.87274],[-97.156654,49.87274],[-97.156685,49.87276]],[[-97.156608,49.87273],[-97.156577,49.87274],[-97.156577,49.87273],[-97.156608,49.87273]],[[-97.156577,49.87272],[-97.156546,49.87273],[-97.156546,49.87272],[-97.156577,49.87272]]]]}}]}