{"type":"FeatureCollection","features":[{"type":"Feature","geometry":{"type":"Polygon","coordinates":[[[-97.1427235,49.8216417],[-97.1412319,49.8149656],[-97.1369174,49.8130051],[-97.14400030000002,49.8105927],[-97.1454574,49.8117644],[-97.1478889,49.8160897],[-97.1524114,49.8185154],[-97.1527556,49.8198724],[-97.1427235,49.8216417]]]},"properties":{"id":1452,"name":"Agassiz","cluster":"Fort Garry South"}},{"type":"Feature","geometry":{"type":"Polygon","coordinates":[[[-97.2253011,49.9164436],[-97.2179899,49.9164484],[-97.2179859,49.9129521],[-97.2113951,49.9128919],[-97.2125598,49.9016322],[-97.2141509,49.9016809],[-97.2143129,49.8997645],[-97.2169981,49.8998463],[-97.2178197,49.8910606],[-97.222496,49.8899633],[-97.2226715,49.8881178],[-97.259177,49.8895725],[-97.2586523,49.8955489],[-97.25497879999999,49.8954076],[-97.25467479999999,49.8988686],[-97.264931,49.8990759],[-97.263551,49.9165666],[-97.2298571,49.9165837],[-97.2298568,49.9198282],[-97.2253011,49.9164436]]]},"properties":{"id":435,"name":"Airport","cluster":"St. James-Assiniboia East"}},{"type":"Feature","geometry":{"type":"Polygon","coordinates":[[[-97.2790573,49.8794753],[-97.30270050000001,49.8832198],[-97.3167272,49.8815876],[-97.3149611,49.89920189999999],[-97.27703240000001,49.901639],[-97.2790573,49.8794753]]]},"properties":{"id":1901,"name":"Airport","cluster":"St. James-Assiniboia West"}},{"type":"Feature","geometry":{"type":"Polygon","coordinates":[[[-97.0990345,49.8488435],[-97.103927,49.8553007],[-97.0976262,49.8578049],[-97.0948608,49.8578244],[-97.0972207,49.8575251],[-97.0959971,49.8559569],[-97.097734,49.8544189],[-97.0975138,49.853558],[-97.0963986,49.8541403],[-97.0955067,49.8536307],[-97.0990834,49.85174139999999],[-97.098504,49.8511272],[-97.0969224,49.8519688],[-97.09569610000001,49.8499752],[-97.0990345,49.8488435]]]},"properties":{"id":1252,"name":"Alpine Place","cluster":"St. Vital North"}},{"type":"Feature","geometry":{"type":"Polygon","coordinates":[[[-97.1835728,49.9719635],[-97.1758333,49.9726311],[-97.1610181,49.9680957],[-97.1610186,49.9576722],[-97.18851660000001,49.9665908],[-97.1906839,49.9680218],[-97.1835728,49.9719635]]]},"properties":{"id":555,"name":"Amber Trails","cluster":"Seven Oaks West"}},{"type":"Feature","geometry":{"type":"Polygon","coordinates":[[[-97.1024171,49.8741306],[-97.1049399,49.8756037],[-97.1012205,49.8763162],[-97.1018971,49.877728],[-97.1008081,49.8780042],[-97.1022981,49.878586],[-97.10472620000002,49.8780742],[-97.1042234,49.8794667],[-97.1056588,49.8802001],[-97.10299460000002,49.8805899],[-97.1049872,49.8813515],[-97.1048781,49.8821272],[-97.09879079999999,49.8819238],[-97.0912099,49.8672388],[-97.0993604,49.8672331],[-97.0996523,49.8684495],[-97.1011037,49.8675771],[-97.1015972,49.869805],[-97.1031332,49.8700751],[-97.1027572,49.871708],[-97.1006718,49.8713857],[-97.1009342,49.8726792],[-97.1028742,49.872689],[-97.1032958,49.8734248],[-97.1045127,49.8729497],[-97.1040801,49.8738249],[-97.1024171,49.8741306]]]},"properties":{"id":1164,"name":"Archwood","cluster":"St. Boniface East"}},{"type":"Feature","geometry":{"type":"Polygon","coordinates":[[[-97.1523578,49.8755975],[-97.1538822,49.8739443],[-97.1570292,49.8740289],[-97.1616965,49.8781977],[-97.1548316,49.8790834],[-97.1523578,49.8755975]]]},"properties":{"id":1474,"name":"Armstrong Point","cluster":"Downtown East"}},{"type":"Feature","geometry":{"type":"Polygon","coordinates":[[[-97.3257444,49.8852468],[-97.3274172,49.8689181],[-97.3265077,49.8686683],[-97.3389368,49.8656125],[-97.3375885,49.8792832],[-97.3435057,49.8785685],[-97.3415373,49.8984273],[-97.322669,49.8988433],[-97.3236101,49.8893909],[-97.3257444,49.8852468]]]},"properties":{"id":1791,"name":"Assiniboia Downs","cluster":"St. James-Assiniboia West"}},{"type":"Feature","geometry":{"type":"Polygon","coordinates":[[[-97.25191489999999,49.8443319],[-97.2492015,49.8739904],[-97.245802,49.8739702],[-97.24386349999999,49.8750726],[-97.2312743,49.8756062],[-97.2230723,49.8732475],[-97.2195834,49.8734205],[-97.22021,49.8667331],[-97.2383008,49.8674026],[-97.2391994,49.8582315],[-97.2304511,49.8579089],[-97.23168590000002,49.8453332],[-97.2454391,49.8440473],[-97.25191489999999,49.8443319]]]},"properties":{"id":1542,"name":"Assiniboine Park","cluster":"Assiniboine South"}},{"type":"Feature","geometry":{"type":"Polygon","coordinates":[[[-97.16454739999999,49.8379909],[-97.1708005,49.8457517],[-97.1520101,49.8526366],[-97.153462,49.8416623],[-97.16454739999999,49.8379909]]]},"properties":{"id":1430,"name":"Beaumont","cluster":"Fort Garry North"}},{"type":"Feature","geometry":{"type":"Polygon","coordinates":[[[-97.3127564,49.8470181],[-97.3111121,49.8627969],[-97.2927398,49.8594381],[-97.2933999,49.8582019],[-97.2927963,49.8580939],[-97.2939573,49.8461916],[-97.3127564,49.8470181]]]},"properties":{"id":1584,"name":"Betsworth","cluster":"Assiniboine South"}},{"type":"Feature","geometry":{"type":"Polygon","coordinates":[[[-97.2657954,49.8719588],[-97.2663916,49.87276879999999],[-97.2697577,49.8734861],[-97.2712009,49.8760921],[-97.2740491,49.8772167],[-97.2750664,49.878538],[-97.2607752,49.8747997],[-97.2297586,49.8775352],[-97.2299546,49.8754602],[-97.24386349999999,49.8750726],[-97.245802,49.8739702],[-97.2525676,49.8735693],[-97.2596662,49.8717636],[-97.2657954,49.8719588]]]},"properties":{"id":1556,"name":"Birchwood","cluster":"St. James-Assiniboia East"}},{"type":"Feature","geometry":{"type":"Polygon","coordinates":[[[-97.2790573,49.8794753],[-97.2777435,49.893858],[-97.261673,49.8896556],[-97.2629341,49.8753889],[-97.2790573,49.8794753]]]},"properties":{"id":225,"name":"Booth","cluster":"St. James-Assiniboia East"}},{"type":"Feature","geometry":{"type":"Polygon","coordinates":[[[-97.1940214,49.7999987],[-97.1936895,49.7870341],[-97.20030039999999,49.791071],[-97.201776,49.7938495],[-97.2018912,49.796136],[-97.1997878,49.7989994],[-97.1923121,49.8031467],[-97.1940214,49.7999987]]]},"properties":{"id":1725,"name":"Bridgwater Centre","cluster":"Fort Garry South"}},{"type":"Feature","geometry":{"type":"Polygon","coordinates":[[[-97.1903275,49.8077945],[-97.1910068,49.8086394],[-97.17697779999999,49.8133246],[-97.17376139999999,49.8084608],[-97.1736493,49.802076],[-97.1778001,49.8024624],[-97.1837555,49.8004492],[-97.1875152,49.7976761],[-97.1939358,49.795509],[-97.1938125,49.800781],[-97.1909808,49.8048754],[-97.1903275,49.8077945]]]},"properties":{"id":1690,"name":"Bridgwater Forest","cluster":"Fort Garry South"}},{"type":"Feature","geometry":{"type":"Polygon","coordinates":[[[-97.1915918,49.8093671],[-97.190265,49.8067375],[-97.1923121,49.8031467],[-97.1997878,49.7989994],[-97.2015428,49.7970893],[-97.201776,49.7938495],[-97.2067515,49.79137569999999],[-97.2140255,49.7908479],[-97.2140822,49.7974873],[-97.2196822,49.7975194],[-97.2196726,49.7997876],[-97.1915918,49.8093671]]]},"properties":{"id":1723,"name":"Bridgwater Lakes","cluster":"Fort Garry South"}},{"type":"Feature","geometry":{"type":"Polygon","coordinates":[[[-97.201776,49.7938495],[-97.20030039999999,49.791071],[-97.1936895,49.7870341],[-97.192275,49.78492],[-97.2139674,49.7775086],[-97.2140255,49.7908479],[-97.2075101,49.7910777],[-97.201776,49.7938495]]]},"properties":{"id":1722,"name":"Bridgwater Trails","cluster":"Fort Garry South"}},{"type":"Feature","geometry":{"type":"Polygon","coordinates":[[[-97.1331113,49.8856366],[-97.1431942,49.8822629],[-97.1454582,49.8864353],[-97.1348551,49.8888386],[-97.1331113,49.8856366]]]},"properties":{"id":116,"name":"Broadway-Assiniboine","cluster":"Downtown East"}},{"type":"Feature","geometry":{"type":"Polygon","coordinates":[[[-97.1991198,49.8425884],[-97.1967207,49.8486157],[-97.1788719,49.8502834],[-97.1793073,49.8468798],[-97.18437379999999,49.8466797],[-97.191663,49.8428417],[-97.1991198,49.8425884]]]},"properties":{"id":57,"name":"Brockville","cluster":"Fort Garry North"}},{"type":"Feature","geometry":{"type":"Polygon","coordinates":[[[-97.2067607,49.9164549],[-97.20675519999999,49.9269357],[-97.1951069,49.9238321],[-97.1951047,49.9164604],[-97.2067607,49.9164549]]]},"properties":{"id":495,"name":"Brooklands","cluster":"Inkster East"}},{"type":"Feature","geometry":{"type":"Polygon","coordinates":[[[-97.2221867,49.8731782],[-97.2299546,49.8754602],[-97.2297586,49.8775352],[-97.22639129999999,49.8784676],[-97.2048523,49.8796367],[-97.2030506,49.87683889999999],[-97.2075903,49.8767576],[-97.2082934,49.8762223],[-97.208356,49.8742863],[-97.2093275,49.8737343],[-97.2144708,49.8743319],[-97.2221867,49.8731782]]]},"properties":{"id":1500,"name":"Bruce Park","cluster":"St. James-Assiniboia East"}},{"type":"Feature","geometry":{"type":"Polygon","coordinates":[[[-97.3235682,49.889666],[-97.322669,49.8988433],[-97.3149611,49.89920189999999],[-97.3167272,49.8815876],[-97.3262561,49.8804486],[-97.3259438,49.8846264],[-97.3235682,49.889666]]]},"properties":{"id":1792,"name":"Buchanan","cluster":"St. James-Assiniboia West"}},{"type":"Feature","geometry":{"type":"Polygon","coordinates":[[[-97.1803792,49.8297935],[-97.1808757,49.8328432],[-97.1796945,49.8362913],[-97.1793073,49.8468798],[-97.1738277,49.8469108],[-97.1724656,49.8451886],[-97.1708005,49.8457517],[-97.16454739999999,49.8379909],[-97.176153,49.8335935],[-97.1803792,49.8297935]]]},"properties":{"id":1432,"name":"Buffalo","cluster":"Fort Garry North"}},{"type":"Feature","geometry":{"type":"Polygon","coordinates":[[[-97.1667591,49.93158039999999],[-97.1510271,49.9265234],[-97.1564737,49.9193569],[-97.1695099,49.9235118],[-97.1689144,49.9291249],[-97.1667591,49.93158039999999]]]},"properties":{"id":215,"name":"Burrows Central","cluster":"Point Douglas North"}},{"type":"Feature","geometry":{"type":"Polygon","coordinates":[[[-97.1833893,49.9314629],[-97.1813242,49.9268933],[-97.1951105,49.9313933],[-97.19511209999999,49.9385505],[-97.1924191,49.9384927],[-97.1865784,49.9365339],[-97.1849683,49.9322275],[-97.1833893,49.9314629]]]},"properties":{"id":95,"name":"Burrows-Keewatin","cluster":"Inkster East"}},{"type":"Feature","geometry":{"type":"Polygon","coordinates":[[[-96.9681677,49.8858157],[-96.9682867,49.8933453],[-96.9788057,49.8934266],[-96.9788837,49.8965007],[-96.9797529,49.8980536],[-96.9790695,49.90592119999999],[-96.9796676,49.9081616],[-96.9623761,49.9080376],[-96.9567469,49.8974823],[-96.9565294,49.8858126],[-96.9681677,49.8858157]]]},"properties":{"id":920,"name":"Canterbury Park","cluster":"Transcona"}},{"type":"Feature","geometry":{"type":"Polygon","coordinates":[[[-97.138506,49.9034311],[-97.1419598,49.899785],[-97.1556516,49.904182],[-97.1525633,49.9079388],[-97.138506,49.9034311]]]},"properties":{"id":79,"name":"Centennial","cluster":"Downtown East"}},{"type":"Feature","geometry":{"type":"Polygon","coordinates":[[[-97.141312,49.8957074],[-97.1522584,49.8932574],[-97.1521375,49.8981169],[-97.141312,49.8957074]]]},"properties":{"id":98,"name":"Central Park","cluster":"Downtown East"}},{"type":"Feature","geometry":{"type":"Polygon","coordinates":[[[-97.1749437,49.8630099],[-97.1755357,49.8560377],[-97.1960728,49.856809],[-97.195524,49.8637395],[-97.1749437,49.8630099]]]},"properties":{"id":2,"name":"Central River Heights","cluster":"River Heights West"}},{"type":"Feature","geometry":{"type":"Polygon","coordinates":[[[-97.1268141,49.8857806],[-97.1256799,49.8886911],[-97.1273071,49.8912257],[-97.1096711,49.895306],[-97.10952,49.8922167],[-97.1061889,49.8925797],[-97.1042513,49.890865],[-97.10403559999999,49.890003],[-97.1052818,49.8897994],[-97.1054624,49.8886649],[-97.1074152,49.8885648],[-97.1055644,49.8875665],[-97.1074231,49.8866237],[-97.1048547,49.8862415],[-97.1065751,49.8838994],[-97.1052894,49.8841843],[-97.1032988,49.8831382],[-97.1048781,49.8821272],[-97.12795709999999,49.8812382],[-97.1302933,49.8827506],[-97.1268141,49.8857806]]]},"properties":{"id":1172,"name":"Central St. Boniface","cluster":"St. Boniface West"}},{"type":"Feature","geometry":{"type":"Polygon","coordinates":[[[-97.1005905,49.90598],[-97.1029932,49.9030845],[-97.1086034,49.9026864],[-97.1095602,49.9041849],[-97.1203401,49.90827379999999],[-97.1183518,49.9096538],[-97.1144096,49.914809],[-97.1139309,49.9166673],[-97.1096146,49.9216268],[-97.0893346,49.9148857],[-97.1005905,49.90598]]]},"properties":{"id":1058,"name":"Chalmers","cluster":"River East South"}},{"type":"Feature","geometry":{"type":"Polygon","coordinates":[[[-97.17697779999999,49.8133246],[-97.1791948,49.8161061],[-97.1796602,49.828684],[-97.1803792,49.8297935],[-97.1773425,49.8326712],[-97.1735559,49.8349103],[-97.16454739999999,49.8379909],[-97.15844279999999,49.8306348],[-97.1555204,49.831615],[-97.1566811,49.818674],[-97.162013,49.8184105],[-97.17697779999999,49.8133246]]]},"properties":{"id":209,"name":"Chevrier","cluster":"Fort Garry North"}},{"type":"Feature","geometry":{"type":"Polygon","coordinates":[[[-97.138506,49.9034311],[-97.1358466,49.9025781],[-97.1379328,49.9000761],[-97.1404579,49.9008827],[-97.138506,49.9034311]]]},"properties":{"id":11,"name":"China Town","cluster":"Downtown East"}},{"type":"Feature","geometry":{"type":"Polygon","coordinates":[[[-97.1311658,49.8979118],[-97.135836,49.8994062],[-97.136439,49.898702],[-97.1413167,49.8995749],[-97.1404579,49.9008827],[-97.1379328,49.9000761],[-97.1358466,49.9025781],[-97.1287843,49.8997638],[-97.1311658,49.8979118]]]},"properties":{"id":1066,"name":"Civic Centre","cluster":"Downtown East"}},{"type":"Feature","geometry":{"type":"Polygon","coordinates":[[[-97.1451626,49.7773241],[-97.1564352,49.7738243],[-97.1566047,49.7770628],[-97.1351718,49.7845557],[-97.131484,49.7809424],[-97.1330393,49.7788121],[-97.1451626,49.7773241]]]},"properties":{"id":137,"name":"Cloutier Drive","cluster":"Fort Garry South"}},{"type":"Feature","geometry":{"type":"Polygon","coordinates":[[[-97.15496429999999,49.892823],[-97.1521507,49.892989],[-97.14957539999999,49.8888959],[-97.1552033,49.889431],[-97.15496429999999,49.892823]]]},"properties":{"id":38,"name":"Colony","cluster":"Downtown East"}},{"type":"Feature","geometry":{"type":"Polygon","coordinates":[[[-97.1520888,49.8278222],[-97.1502109,49.8342168],[-97.1513072,49.8386288],[-97.15348859999999,49.8413649],[-97.1397396,49.8460179],[-97.1381256,49.8457359],[-97.1361315,49.8431512],[-97.137517,49.8417636],[-97.137423,49.840585],[-97.1322666,49.8364166],[-97.1311161,49.8345937],[-97.1314672,49.8329846],[-97.1356047,49.8311407],[-97.1429307,49.8322127],[-97.1464063,49.8319301],[-97.1480086,49.8308466],[-97.148526,49.8290283],[-97.1520888,49.8278222]]]},"properties":{"id":1402,"name":"Crescent Park","cluster":"Fort Garry North"}},{"type":"Feature","geometry":{"type":"Polygon","coordinates":[[[-97.1614119,49.8681062],[-97.1749437,49.8630099],[-97.1740497,49.8734202],[-97.1714485,49.8734015],[-97.1643061,49.8759839],[-97.1616965,49.8781977],[-97.1568593,49.873984],[-97.157788,49.8730654],[-97.1565605,49.8727301],[-97.1633071,49.8704982],[-97.1614119,49.8681062]]]},"properties":{"id":1476,"name":"Crescentwood","cluster":"River Heights West"}},{"type":"Feature","geometry":{"type":"Polygon","coordinates":[[[-97.0881028,49.801466],[-97.0903658,49.804348],[-97.0923325,49.8089258],[-97.0989848,49.8172796],[-97.09916,49.8207472],[-97.100639,49.8227931],[-97.0956975,49.8234648],[-97.08198360000002,49.8279977],[-97.0822148,49.8268348],[-97.080569,49.8266287],[-97.0825388,49.8237024],[-97.0800874,49.8237868],[-97.0815176,49.8217493],[-97.0777295,49.8218761],[-97.0770696,49.8204257],[-97.0784575,49.8195249],[-97.0770321,49.8198002],[-97.0775509,49.8189766],[-97.0762916,49.81890879999999],[-97.07699,49.8185721],[-97.076627,49.8164835],[-97.0753476,49.8176406],[-97.0753875,49.8166082],[-97.0745384,49.8161037],[-97.0734148,49.815966],[-97.0735625,49.8168004],[-97.07288040000002,49.8169243],[-97.071444,49.8157321],[-97.0711606,49.8143549],[-97.0723585,49.8143914],[-97.07251319999999,49.813079],[-97.0681667,49.8137855],[-97.0694126,49.812199],[-97.067978,49.812096],[-97.0689104,49.8111256],[-97.0675708,49.8111861],[-97.0659816,49.808932],[-97.0881028,49.801466]]]},"properties":{"id":1644,"name":"Dakota Crossing","cluster":"St. Vital South"}},{"type":"Feature","geometry":{"type":"Polygon","coordinates":[[[-97.1742189,49.8934084],[-97.173269,49.9058933],[-97.1581644,49.9011009],[-97.158742,49.8929397],[-97.1742189,49.8934084]]]},"properties":{"id":36,"name":"Daniel McIntyre","cluster":"Downtown West"}},{"type":"Feature","geometry":{"type":"Polygon","coordinates":[[[-97.2372181,49.88868449999999],[-97.2221126,49.8880953],[-97.2224699,49.8843013],[-97.2230314,49.8843236],[-97.2229674,49.8790715],[-97.2308702,49.8772273],[-97.2417161,49.8764699],[-97.2409581,49.8850158],[-97.2375644,49.8848819],[-97.2372181,49.88868449999999]]]},"properties":{"id":194,"name":"Deer Lodge","cluster":"St. James-Assiniboia East"}},{"type":"Feature","geometry":{"type":"Polygon","coordinates":[[[-97.1432459,49.9117786],[-97.1698571,49.9202115],[-97.1697611,49.9211529],[-97.1666738,49.9226081],[-97.14168509999999,49.9141765],[-97.1432459,49.9117786]]]},"properties":{"id":99,"name":"Dufferin","cluster":"Point Douglas South"}},{"type":"Feature","geometry":{"type":"Polygon","coordinates":[[[-97.1432459,49.9117786],[-97.1450424,49.9087932],[-97.1607434,49.9138048],[-97.1585332,49.9166815],[-97.1432459,49.9117786]]]},"properties":{"id":214,"name":"Dufferin Industrial","cluster":"Point Douglas South"}},{"type":"Feature","geometry":{"type":"Polygon","coordinates":[[[-97.1008831,49.8857703],[-97.09879079999999,49.8819238],[-97.1048781,49.8821272],[-97.1033437,49.8833223],[-97.1067426,49.884117],[-97.1052531,49.8857737],[-97.1008831,49.8857703]]]},"properties":{"id":1085,"name":"Dufresne","cluster":"St. Boniface East"}},{"type":"Feature","geometry":{"type":"Polygon","coordinates":[[[-97.0711654,49.8941736],[-97.0341418,49.8875974],[-97.0337218,49.8858977],[-97.07219520000001,49.8859332],[-97.0711654,49.8941736]]]},"properties":{"id":966,"name":"Dugald","cluster":"St. Boniface East"}},{"type":"Feature","geometry":{"type":"Polygon","coordinates":[[[-97.0590778,49.9104417],[-97.0628783,49.9117082],[-97.060109,49.9155337],[-97.0472181,49.9289475],[-97.0465373,49.9287517],[-97.0477521,49.9262038],[-97.0480772,49.9207389],[-97.048917,49.9188335],[-97.0527108,49.9157634],[-97.0565633,49.9108496],[-97.0590778,49.9104417]]]},"properties":{"id":807,"name":"Eaglemere","cluster":"River East East"}},{"type":"Feature","geometry":{"type":"Polygon","coordinates":[[[-97.1457927,49.8650126],[-97.1566392,49.8621643],[-97.1614119,49.8681062],[-97.1420225,49.8745775],[-97.140812,49.8730714],[-97.1457927,49.8650126]]]},"properties":{"id":124,"name":"Earl Grey","cluster":"River Heights West"}},{"type":"Feature","geometry":{"type":"Polygon","coordinates":[[[-97.0807919,49.9066892],[-97.0693554,49.9028607],[-97.0722282,49.8989354],[-97.0961437,49.9032369],[-97.1013645,49.9033494],[-97.0807919,49.9066892]]]},"properties":{"id":1006,"name":"East Elmwood","cluster":"River East South"}},{"type":"Feature","geometry":{"type":"Polygon","coordinates":[[[-97.1457927,49.8650126],[-97.1512479,49.8553919],[-97.1524311,49.8541804],[-97.1529167,49.855176],[-97.1521706,49.8566442],[-97.1566392,49.8621643],[-97.1457927,49.8650126]]]},"properties":{"id":19,"name":"Ebby-Wentworth","cluster":"River Heights West"}},{"type":"Feature","geometry":{"type":"Polygon","coordinates":[[[-97.2123922,49.8698322],[-97.20548090000001,49.8695611],[-97.205992,49.8641544],[-97.2101497,49.8662122],[-97.215644,49.8665648],[-97.2123922,49.8698322]]]},"properties":{"id":127,"name":"Edgeland","cluster":"Assiniboine South"}},{"type":"Feature","geometry":{"type":"Polygon","coordinates":[[[-97.1127764,49.8661342],[-97.11080109999999,49.8659284],[-97.1123167,49.8577169],[-97.1119412,49.8524779],[-97.1201452,49.8498068],[-97.1242227,49.8522676],[-97.12661089999999,49.8556557],[-97.1175353,49.85932239999999],[-97.1148356,49.8621452],[-97.1127764,49.8661342]]]},"properties":{"id":1242,"name":"Elm Park","cluster":"St. Vital North"}},{"type":"Feature","geometry":{"type":"Polygon","coordinates":[[[-97.25191489999999,49.8443319],[-97.2682392,49.8450557],[-97.26694649999999,49.8592328],[-97.2505906,49.8584712],[-97.25191489999999,49.8443319]]]},"properties":{"id":1546,"name":"Elmhurst","cluster":"Assiniboine South"}},{"type":"Feature","geometry":{"type":"Polygon","coordinates":[[[-97.26694649999999,49.8592328],[-97.2682392,49.8450557],[-97.28713839999999,49.8458902],[-97.28601990000001,49.8582277],[-97.2826404,49.8576227],[-97.2724046,49.8594408],[-97.26694649999999,49.8592328]]]},"properties":{"id":76,"name":"Eric Coy","cluster":"Assiniboine South"}},{"type":"Feature","geometry":{"type":"Polygon","coordinates":[[[-97.13066889999999,49.8951375],[-97.1388412,49.8964667],[-97.14029760000001,49.895382],[-97.1441925,49.8966312],[-97.1408515,49.9014486],[-97.1401876,49.9012357],[-97.1413167,49.8995749],[-97.136439,49.898702],[-97.135836,49.8994062],[-97.1311658,49.8979118],[-97.13066889999999,49.8951375]]]},"properties":{"id":1070,"name":"Exchange District","cluster":"Downtown East"}},{"type":"Feature","geometry":{"type":"Polygon","coordinates":[[[-97.1736493,49.802076],[-97.1570907,49.8014224],[-97.15727969999999,49.7968307],[-97.173699,49.7912616],[-97.1736493,49.802076]]]},"properties":{"id":226,"name":"Fairfield Park","cluster":"Fort Garry South"}},{"type":"Feature","geometry":{"type":"Polygon","coordinates":[[[-97.1178738,49.7934544],[-97.1211652,49.7931658],[-97.1255438,49.7970148],[-97.1292519,49.7972206],[-97.131186,49.7955773],[-97.1361215,49.7883517],[-97.1363789,49.7868926],[-97.1351718,49.7845557],[-97.1566047,49.7770628],[-97.15727969999999,49.7968307],[-97.1296967,49.80617849999999],[-97.1298958,49.8047567],[-97.128731,49.8033527],[-97.1183439,49.7987971],[-97.1164139,49.7958995],[-97.1178738,49.7934544]]]},"properties":{"id":166,"name":"Fort Richmond","cluster":"Fort Garry South"}},{"type":"Feature","geometry":{"type":"Polygon","coordinates":[[[-97.0554538,49.8266726],[-97.0541483,49.8253552],[-97.0498639,49.8250616],[-97.0498291,49.8194355],[-97.0470241,49.8155527],[-97.0610052,49.8106704],[-97.0703507,49.8289484],[-97.0554538,49.8266726]]]},"properties":{"id":1894,"name":"Fraipont","cluster":"St. Boniface East"}},{"type":"Feature","geometry":{"type":"Polygon","coordinates":[[[-97.12729920000001,49.946816],[-97.1451272,49.9357617],[-97.15909459999999,49.9403099],[-97.1476127,49.9534398],[-97.12729920000001,49.946816]]]},"properties":{"id":24,"name":"Garden City","cluster":"Seven Oaks East"}},{"type":"Feature","geometry":{"type":"Polygon","coordinates":[[[-97.3274172,49.8689181],[-97.3262561,49.8804486],[-97.3107864,49.8823026],[-97.31198940000002,49.8702456],[-97.3159592,49.8721919],[-97.3195102,49.8726513],[-97.3216293,49.8721464],[-97.3255379,49.8689716],[-97.3274172,49.8689181]]]},"properties":{"id":87,"name":"Glendale","cluster":"St. James-Assiniboia West"}},{"type":"Feature","geometry":{"type":"Polygon","coordinates":[[[-97.1180586,49.9198783],[-97.1127492,49.9181147],[-97.1178732,49.9102736],[-97.1203401,49.90827379999999],[-97.1258952,49.9116181],[-97.126904,49.9137713],[-97.1267868,49.915568],[-97.1240232,49.9185235],[-97.1180586,49.9198783]]]},"properties":{"id":1020,"name":"Glenelm","cluster":"River East South"}},{"type":"Feature","geometry":{"type":"Polygon","coordinates":[[[-97.103927,49.8553007],[-97.111007,49.8644057],[-97.11080109999999,49.8659284],[-97.1127764,49.8661342],[-97.1134319,49.8689652],[-97.1166422,49.8706276],[-97.1036589,49.8748248],[-97.1024171,49.8741306],[-97.1040801,49.8738249],[-97.1045127,49.8729497],[-97.1032958,49.8734248],[-97.1028742,49.872689],[-97.1009342,49.8726792],[-97.1006718,49.8713857],[-97.1027572,49.871708],[-97.1030726,49.8699128],[-97.1015972,49.869805],[-97.1011037,49.8675771],[-97.0996523,49.8684495],[-97.09943709999999,49.8668501],[-97.09760449999999,49.866944],[-97.0975491,49.8653356],[-97.095486,49.8652907],[-97.0979211,49.8642725],[-97.0952102,49.8638525],[-97.0978572,49.86301],[-97.0954129,49.8626208],[-97.09742810000002,49.8606775],[-97.0951558,49.859755],[-97.0971321,49.8586244],[-97.0948608,49.8578244],[-97.0976262,49.8578049],[-97.103927,49.8553007]]]},"properties":{"id":1230,"name":"Glenwood","cluster":"St. Vital North"}},{"type":"Feature","geometry":{"type":"Polygon","coordinates":[[[-97.1524311,49.8541804],[-97.1559365,49.8524337],[-97.1761504,49.8505379],[-97.1755357,49.8560377],[-97.1566392,49.8621643],[-97.1521706,49.8566442],[-97.1529167,49.855176],[-97.1524311,49.8541804]]]},"properties":{"id":59,"name":"Grant Park","cluster":"River Heights West"}},{"type":"Feature","geometry":{"type":"Polygon","coordinates":[[[-97.0567717,49.9105797],[-97.0527108,49.9157634],[-97.0485507,49.9194518],[-97.0477521,49.9262038],[-97.0465373,49.9287517],[-97.02487819999999,49.9225185],[-97.0249799,49.9157184],[-97.0567717,49.9105797]]]},"properties":{"id":811,"name":"Grassie","cluster":"River East East"}},{"type":"Feature","geometry":{"type":"Polygon","coordinates":[[[-96.9920567,49.9137127],[-96.9955175,49.9118036],[-97.0068905,49.9085014],[-97.0067595,49.915809],[-96.9908414,49.9157226],[-96.9920567,49.9137127]]]},"properties":{"id":880,"name":"Griffin","cluster":"Transcona"}},{"type":"Feature","geometry":{"type":"Polygon","coordinates":[[[-97.07219520000001,49.8859332],[-97.0722242,49.881925],[-97.0752574,49.88192009999999],[-97.07527239999999,49.8859308],[-97.07219520000001,49.8859332]]]},"properties":{"id":132,"name":"Holden","cluster":"St. Boniface East"}},{"type":"Feature","geometry":{"type":"Polygon","coordinates":[[[-97.2067744,49.9459099],[-97.2067788,49.9607405],[-97.1951332,49.9607278],[-97.1951767,49.9459416],[-97.2067744,49.9459099]]]},"properties":{"id":573,"name":"Inkster Gardens","cluster":"Inkster West"}},{"type":"Feature","geometry":{"type":"Polygon","coordinates":[[[-97.195175,49.9518031],[-97.16377840000001,49.9417135],[-97.1723245,49.9306073],[-97.1834986,49.9341818],[-97.1840489,49.9334592],[-97.1833893,49.9314629],[-97.18418779999999,49.9317086],[-97.1867021,49.9366211],[-97.1924191,49.9384927],[-97.19511209999999,49.9385505],[-97.195175,49.9518031]]]},"properties":{"id":622,"name":"Inkster Industrial Park","cluster":"Inkster East"}},{"type":"Feature","geometry":{"type":"Polygon","coordinates":[[[-97.1440991,49.9354307],[-97.1365647,49.933004],[-97.1451443,49.9218566],[-97.1526638,49.9242801],[-97.1440991,49.9354307]]]},"properties":{"id":217,"name":"Inkster-Faraday","cluster":"Point Douglas North"}},{"type":"Feature","geometry":{"type":"Polygon","coordinates":[[[-97.0579823,49.8266023],[-97.0703507,49.8289484],[-97.0763333,49.8406386],[-97.0498506,49.8406684],[-97.0498639,49.8250616],[-97.0541483,49.8253552],[-97.057215,49.827125],[-97.0579823,49.8266023]]]},"properties":{"id":1900,"name":"Island Lakes","cluster":"St. Boniface East"}},{"type":"Feature","geometry":{"type":"Polygon","coordinates":[[[-97.195524,49.8637395],[-97.1960728,49.856809],[-97.20664750000002,49.857229],[-97.205992,49.8641544],[-97.195524,49.8637395]]]},"properties":{"id":150,"name":"J. B. Mitchell","cluster":"River Heights West"}},{"type":"Feature","geometry":{"type":"Polygon","coordinates":[[[-97.261673,49.8896556],[-97.2372181,49.88868449999999],[-97.2375644,49.8848819],[-97.2620126,49.8858162],[-97.261673,49.8896556]]]},"properties":{"id":31,"name":"Jameswood","cluster":"St. James-Assiniboia East"}},{"type":"Feature","geometry":{"type":"Polygon","coordinates":[[[-97.1451272,49.9357617],[-97.12729920000001,49.946816],[-97.1134057,49.9423405],[-97.1210422,49.9328524],[-97.12335979999999,49.9287487],[-97.1451272,49.9357617]]]},"properties":{"id":142,"name":"Jefferson","cluster":"Seven Oaks East"}},{"type":"Feature","geometry":{"type":"Polygon","coordinates":[[[-97.2061754,49.8836469],[-97.20582490000001,49.8875166],[-97.2020922,49.88737539999999],[-97.202336,49.8843213],[-97.2061754,49.8836469]]]},"properties":{"id":206,"name":"Kensington","cluster":"St. James-Assiniboia East"}},{"type":"Feature","geometry":{"type":"Polygon","coordinates":[[[-97.0026425,49.9002338],[-96.9889731,49.9002937],[-96.9889011,49.8951274],[-97.0025689,49.8950688],[-97.0026425,49.9002338]]]},"properties":{"id":118,"name":"Kern Park","cluster":"Transcona"}},{"type":"Feature","geometry":{"type":"Polygon","coordinates":[[[-97.0325087,49.9459264],[-97.0078844,49.934965],[-96.9972815,49.9302419],[-97.0445891,49.9308713],[-97.0325087,49.9459264]]]},"properties":{"id":797,"name":"Kil-Cona Park","cluster":"River East East"}},{"type":"Feature","geometry":{"type":"Polygon","coordinates":[[[-96.97987769999999,49.9081629],[-96.9790871,49.9062233],[-96.9797529,49.8980536],[-96.9788837,49.8965007],[-96.9788057,49.8934266],[-96.9888773,49.8933982],[-96.9889731,49.9002937],[-97.0026425,49.9002338],[-97.00250589999999,49.9082656],[-96.97987769999999,49.9081629]]]},"properties":{"id":898,"name":"Kildare-Redonda","cluster":"Transcona"}},{"type":"Feature","geometry":{"type":"Polygon","coordinates":[[[-97.0628783,49.9117082],[-97.0590778,49.9104417],[-97.0565633,49.9108496],[-97.0590613,49.9077683],[-97.0632254,49.9059551],[-97.0689524,49.8983449],[-97.0722282,49.8989354],[-97.0628783,49.9117082]]]},"properties":{"id":868,"name":"Kildonan Crossing","cluster":"River East East"}},{"type":"Feature","geometry":{"type":"Polygon","coordinates":[[[-97.1127492,49.9181147],[-97.1180586,49.9198783],[-97.1130425,49.9217904],[-97.1104483,49.9249865],[-97.109891,49.9280066],[-97.1114319,49.9332523],[-97.1110583,49.9353505],[-97.1079846,49.938125],[-97.0966986,49.9418712],[-97.09626,49.9440844],[-97.0982901,49.9481311],[-97.0972552,49.9506202],[-97.0843,49.9475762],[-97.0938843,49.9367144],[-97.0991143,49.9327732],[-97.1127492,49.9181147]]]},"properties":{"id":724,"name":"Kildonan Drive","cluster":"River East West"}},{"type":"Feature","geometry":{"type":"Polygon","coordinates":[[[-97.1007992,49.940005],[-97.1123714,49.9437648],[-97.1101543,49.9468165],[-97.1024897,49.9522566],[-97.0972552,49.9506202],[-97.0981936,49.9474265],[-97.0961612,49.9434391],[-97.0971516,49.9415219],[-97.1007992,49.940005]]]},"properties":{"id":694,"name":"Kildonan Park","cluster":"Seven Oaks East"}},{"type":"Feature","geometry":{"type":"Polygon","coordinates":[[[-97.222496,49.8899633],[-97.2179038,49.8910638],[-97.2056967,49.89060029999999],[-97.2063299,49.881931],[-97.2048523,49.8796367],[-97.2235787,49.8785261],[-97.2229674,49.8790715],[-97.2225368,49.8836821],[-97.2230891,49.8837042],[-97.2224699,49.8843013],[-97.222496,49.8899633]]]},"properties":{"id":429,"name":"King Edward","cluster":"St. James-Assiniboia East"}},{"type":"Feature","geometry":{"type":"Polygon","coordinates":[[[-97.1202922,49.8461195],[-97.1312376,49.8522785],[-97.1355981,49.8523691],[-97.1427304,49.8501065],[-97.1449155,49.8506744],[-97.1454288,49.8517551],[-97.1446894,49.8530088],[-97.1420505,49.8541589],[-97.12661089999999,49.8556557],[-97.1244475,49.8524652],[-97.1181726,49.848051],[-97.1176323,49.8470333],[-97.1202922,49.8461195]]]},"properties":{"id":1356,"name":"Kingston Crescent","cluster":"St. Vital North"}},{"type":"Feature","geometry":{"type":"Polygon","coordinates":[[[-97.2903876,49.8637052],[-97.289319,49.8726021],[-97.29328249999999,49.8724237],[-97.293946,49.8734314],[-97.29317,49.8817288],[-97.279161,49.8794997],[-97.2795829,49.8757853],[-97.27757779999999,49.8756906],[-97.278173,49.8715616],[-97.28006640000001,49.8715116],[-97.2802962,49.8694947],[-97.2795553,49.869293],[-97.2802936,49.8672762],[-97.27802140000001,49.8620195],[-97.2783449,49.8607567],[-97.2811546,49.8591252],[-97.2850588,49.8596199],[-97.2880293,49.86291139999999],[-97.2903876,49.8637052]]]},"properties":{"id":1560,"name":"Kirkfield","cluster":"St. James-Assiniboia West"}},{"type":"Feature","geometry":{"type":"Polygon","coordinates":[[[-97.1793407,49.7623129],[-97.1792627,49.7279307],[-97.2200919,49.7135556],[-97.2196451,49.7535118],[-97.214042,49.7535077],[-97.2139778,49.7681055],[-97.1854906,49.7682302],[-97.1737349,49.7710707],[-97.1744808,49.767587],[-97.1783698,49.764327],[-97.1793407,49.7623129]]]},"properties":{"id":212,"name":"La Barriere","cluster":"Fort Garry South"}},{"type":"Feature","geometry":{"type":"Polygon","coordinates":[[[-97.092873,49.8382566],[-97.0950465,49.8425128],[-97.0990345,49.8488435],[-97.09569610000001,49.8499752],[-97.0955411,49.8488056],[-97.0926725,49.8482446],[-97.09385359999999,49.8477144],[-97.0933722,49.8471379],[-97.09120449999999,49.8470619],[-97.0914259,49.8460476],[-97.0902526,49.8462991],[-97.0899456,49.8443488],[-97.0879682,49.8449099],[-97.0882628,49.8432122],[-97.08622880000001,49.8436581],[-97.0859357,49.8420271],[-97.0864728,49.8424842],[-97.0886103,49.8417935],[-97.0879128,49.8407506],[-97.0887303,49.8393512],[-97.092873,49.8382566]]]},"properties":{"id":1277,"name":"Lavalee","cluster":"St. Vital North"}},{"type":"Feature","geometry":{"type":"Polygon","coordinates":[[[-97.1530638,49.8812734],[-97.1520656,49.8855139],[-97.15070449999999,49.886106],[-97.1510628,49.88888509999999],[-97.1484042,49.8891595],[-97.1479233,49.8882733],[-97.1466158,49.8885675],[-97.1431942,49.8822629],[-97.1530638,49.8812734]]]},"properties":{"id":180,"name":"Legislature","cluster":"Downtown East"}},{"type":"Feature","geometry":{"type":"Polygon","coordinates":[[[-97.1610181,49.9680957],[-97.1473,49.9637349],[-97.1402777,49.9616268],[-97.1476689,49.9533769],[-97.1610186,49.9576722],[-97.1610181,49.9680957]]]},"properties":{"id":54,"name":"Leila North","cluster":"Seven Oaks East"}},{"type":"Feature","geometry":{"type":"Polygon","coordinates":[[[-97.1591647,49.9402301],[-97.1634703,49.9414979],[-97.15955,49.946592],[-97.1609903,49.9470794],[-97.1610186,49.9576722],[-97.1476689,49.9533769],[-97.1591647,49.9402301]]]},"properties":{"id":634,"name":"Leila-McPhillips Triangle","cluster":"Seven Oaks East"}},{"type":"Feature","geometry":{"type":"Polygon","coordinates":[[[-97.1835985,49.8273576],[-97.1799058,49.8236779],[-97.1855439,49.8217726],[-97.1846898,49.82071329999999],[-97.1924161,49.8182003],[-97.1962823,49.8229861],[-97.1835985,49.8273576]]]},"properties":{"id":135,"name":"Linden Ridge","cluster":"Fort Garry North"}},{"type":"Feature","geometry":{"type":"Polygon","coordinates":[[[-97.2011368,49.8212363],[-97.2070031,49.8272328],[-97.1991198,49.8425884],[-97.191663,49.8428417],[-97.18437379999999,49.8466797],[-97.1793073,49.8468798],[-97.1796945,49.8362913],[-97.1808757,49.8328432],[-97.1803792,49.8297935],[-97.18303530000001,49.8275481],[-97.2011368,49.8212363]]]},"properties":{"id":47,"name":"Linden Woods","cluster":"Fort Garry North"}},{"type":"Feature","geometry":{"type":"Polygon","coordinates":[[[-97.170222,49.9167792],[-97.1342304,49.9056554],[-97.13455479999999,49.9043968],[-97.1358466,49.9025781],[-97.1636292,49.91148959999999],[-97.1643567,49.9105385],[-97.1661451,49.9111097],[-97.1677155,49.9090947],[-97.17092679999999,49.9101205],[-97.170222,49.9167792]]]},"properties":{"id":89,"name":"Logan-C.P.R.","cluster":"Downtown East"}},{"type":"Feature","geometry":{"type":"Polygon","coordinates":[[[-97.1519346,49.8523598],[-97.1524311,49.8541804],[-97.140812,49.8730714],[-97.1296891,49.8592253],[-97.1406017,49.8555399],[-97.139816,49.8545668],[-97.1446136,49.8530609],[-97.1466471,49.8541449],[-97.1519346,49.8523598]]]},"properties":{"id":1320,"name":"Lord Roberts","cluster":"River Heights East"}},{"type":"Feature","geometry":{"type":"Polygon","coordinates":[[[-97.1450424,49.9087932],[-97.1414314,49.9145063],[-97.13266809999999,49.9116929],[-97.1342304,49.9056554],[-97.1450424,49.9087932]]]},"properties":{"id":65,"name":"Lord Selkirk Park","cluster":"Point Douglas South"}},{"type":"Feature","geometry":{"type":"Polygon","coordinates":[[[-97.1160478,49.9203252],[-97.1260614,49.9239678],[-97.1228575,49.9296383],[-97.1173229,49.9273584],[-97.1102189,49.9256332],[-97.1124624,49.922312],[-97.1160478,49.9203252]]]},"properties":{"id":702,"name":"Luxton","cluster":"Point Douglas North"}},{"type":"Feature","geometry":{"type":"Polygon","coordinates":[[[-97.0944463,49.8734733],[-97.0715524,49.8736153],[-97.0713207,49.8709975],[-97.0931921,49.8709878],[-97.0944463,49.8734733]]]},"properties":{"id":1134,"name":"Maginot","cluster":"St. Boniface East"}},{"type":"Feature","geometry":{"type":"Polygon","coordinates":[[[-97.1825741,49.9477553],[-97.195175,49.9518031],[-97.1951332,49.9607278],[-97.1930688,49.960727],[-97.194737,49.9657653],[-97.1906839,49.9680218],[-97.18851660000001,49.9665908],[-97.1802708,49.9638638],[-97.1824596,49.9613488],[-97.1839156,49.9573064],[-97.1838077,49.9517133],[-97.1825741,49.9477553]]]},"properties":{"id":596,"name":"Mandalay West","cluster":"Seven Oaks West"}},{"type":"Feature","geometry":{"type":"Polygon","coordinates":[[[-97.1151602,49.7938779],[-97.1155819,49.792044],[-97.1351718,49.7845557],[-97.1363789,49.7868926],[-97.1354937,49.7894379],[-97.1292519,49.7972206],[-97.1255438,49.7970148],[-97.1211652,49.7931658],[-97.1196201,49.7929923],[-97.1169522,49.794186],[-97.1151602,49.7938779]]]},"properties":{"id":190,"name":"Maple Grove Park","cluster":"St. Vital South"}},{"type":"Feature","geometry":{"type":"Polygon","coordinates":[[[-97.12729920000001,49.946816],[-97.1171374,49.9531128],[-97.10638,49.9496334],[-97.1101543,49.9468165],[-97.1134057,49.9423405],[-97.12729920000001,49.946816]]]},"properties":{"id":55,"name":"Margaret Park","cluster":"Seven Oaks East"}},{"type":"Feature","geometry":{"type":"Polygon","coordinates":[[[-97.27393570000001,49.8665405],[-97.2655998,49.8678512],[-97.2670376,49.8644629],[-97.2675108,49.8592543],[-97.2724046,49.8594408],[-97.2777488,49.8585186],[-97.27393570000001,49.8665405]]]},"properties":{"id":81,"name":"Marlton","cluster":"Assiniboine South"}},{"type":"Feature","geometry":{"type":"Polygon","coordinates":[[[-97.1967207,49.8486157],[-97.2075554,49.8476022],[-97.20664750000002,49.857229],[-97.1960728,49.856809],[-97.1967207,49.8486157]]]},"properties":{"id":115,"name":"Mathers","cluster":"River Heights West"}},{"type":"Feature","geometry":{"type":"Polygon","coordinates":[[[-97.15844279999999,49.8306348],[-97.16454739999999,49.8379909],[-97.153462,49.8416623],[-97.1513072,49.8386288],[-97.1502109,49.8342168],[-97.1518194,49.8292323],[-97.1558585,49.8278654],[-97.1555204,49.831615],[-97.15844279999999,49.8306348]]]},"properties":{"id":129,"name":"Maybank","cluster":"Fort Garry North"}},{"type":"Feature","geometry":{"type":"Polygon","coordinates":[[[-97.0710081,49.9293706],[-97.0629896,49.9357099],[-97.05209939999999,49.9321142],[-97.0593584,49.9296465],[-97.061978,49.92636549999999],[-97.0710081,49.9293706]]]},"properties":{"id":768,"name":"McLeod Industrial","cluster":"River East East"}},{"type":"Feature","geometry":{"type":"Polygon","coordinates":[[[-97.15340529999999,49.8725657],[-97.1503358,49.8756661],[-97.15170649999999,49.87738],[-97.14641549999999,49.8791518],[-97.1420225,49.8745775],[-97.1614119,49.8681062],[-97.1633071,49.8704982],[-97.1565605,49.8727301],[-97.15340529999999,49.8725657]]]},"properties":{"id":1344,"name":"McMillan","cluster":"River Heights East"}},{"type":"Feature","geometry":{"type":"Polygon","coordinates":[[[-97.0813991,49.8283533],[-97.0956975,49.8234648],[-97.100639,49.8227931],[-97.1088924,49.8328043],[-97.0887303,49.8393512],[-97.0894603,49.8364628],[-97.0870294,49.8368275],[-97.08605240000001,49.8355918],[-97.0877065,49.8357215],[-97.0882437,49.8348103],[-97.0853643,49.8345448],[-97.0878877,49.8331408],[-97.0840246,49.8331867],[-97.0854898,49.832469],[-97.0840163,49.8318336],[-97.0860895,49.8305063],[-97.0845222,49.8290414],[-97.0833317,49.8294928],[-97.0836173,49.8286893],[-97.0813991,49.8283533]]]},"properties":{"id":204,"name":"Meadowood","cluster":"St. Vital South"}},{"type":"Feature","geometry":{"type":"Polygon","coordinates":[[[-97.0343235,49.9065358],[-97.0344526,49.9141866],[-97.0249758,49.9159177],[-97.0067595,49.915809],[-97.0068905,49.9085014],[-97.0332076,49.9008477],[-97.0343235,49.9065358]]]},"properties":{"id":850,"name":"Meadows","cluster":"Transcona"}},{"type":"Feature","geometry":{"type":"Polygon","coordinates":[[[-97.0253639,49.8936156],[-97.0253821,49.8952051],[-96.9889011,49.8951274],[-96.9888773,49.8933982],[-97.0253639,49.8936156]]]},"properties":{"id":158,"name":"Melrose","cluster":"Transcona"}},{"type":"Feature","geometry":{"type":"Polygon","coordinates":[[[-97.1150459,49.830709],[-97.113262,49.8201731],[-97.11995610000001,49.8179245],[-97.1247321,49.8180266],[-97.1240161,49.8166187],[-97.1318577,49.813209],[-97.1354648,49.8128907],[-97.1393943,49.8136034],[-97.1418199,49.816259],[-97.1427235,49.8216417],[-97.1150459,49.830709]]]},"properties":{"id":221,"name":"Minnetonka","cluster":"St. Vital South"}},{"type":"Feature","geometry":{"type":"Polygon","coordinates":[[[-97.1931076,49.8939949],[-97.1742189,49.8934084],[-97.1748832,49.8846302],[-97.1941069,49.8815674],[-97.1931076,49.8939949]]]},"properties":{"id":121,"name":"Minto","cluster":"Downtown West"}},{"type":"Feature","geometry":{"type":"Polygon","coordinates":[[[-97.0337218,49.8858977],[-97.0341418,49.8875974],[-97.0635993,49.89282],[-97.0534282,49.8954988],[-97.0428965,49.8936299],[-97.0253639,49.8936156],[-97.0258806,49.8860178],[-97.0337218,49.8858977]]]},"properties":{"id":960,"name":"Mission Gardens","cluster":"Transcona"}},{"type":"Feature","geometry":{"type":"Polygon","coordinates":[[[-97.1059214,49.8922943],[-97.1038874,49.8927352],[-97.1072106,49.8992103],[-97.0998259,49.899296],[-97.0711654,49.8941736],[-97.07219520000001,49.8859332],[-97.07527239999999,49.8859308],[-97.0752574,49.88192009999999],[-97.09879079999999,49.8819238],[-97.1007358,49.8857706],[-97.1052531,49.8857737],[-97.1049133,49.88631069999999],[-97.1074132,49.8865547],[-97.1055644,49.8875665],[-97.1071589,49.8879791],[-97.1073165,49.88868129999999],[-97.1054624,49.8886649],[-97.1052818,49.8897994],[-97.1039728,49.8901777],[-97.1059214,49.8922943]]]},"properties":{"id":1101,"name":"Mission Industrial","cluster":"St. Boniface East"}},{"type":"Feature","geometry":{"type":"Polygon","coordinates":[[[-97.1570907,49.8014224],[-97.15824339999999,49.801468],[-97.1566811,49.818674],[-97.1527556,49.8198724],[-97.1524114,49.8185154],[-97.1478889,49.8160897],[-97.1448042,49.8111408],[-97.1418935,49.8096512],[-97.1558798,49.804913],[-97.1570907,49.8014224]]]},"properties":{"id":7,"name":"Montcalm","cluster":"Fort Garry South"}},{"type":"Feature","geometry":{"type":"Polygon","coordinates":[[[-97.0941093,49.9111086],[-97.08434229999999,49.9188336],[-97.0628783,49.9117082],[-97.0693554,49.9028607],[-97.0941093,49.9111086]]]},"properties":{"id":870,"name":"Munroe East","cluster":"River East East"}},{"type":"Feature","geometry":{"type":"Polygon","coordinates":[[[-97.1040203,49.92758],[-97.08258920000002,49.92043419999999],[-97.0823983,49.9203706],[-97.0893346,49.9148857],[-97.1096146,49.9216268],[-97.1040203,49.92758]]]},"properties":{"id":722,"name":"Munroe West","cluster":"River East West"}},{"type":"Feature","geometry":{"type":"Polygon","coordinates":[[[-97.25467479999999,49.8988686],[-97.25497879999999,49.8954076],[-97.2586523,49.8955489],[-97.259177,49.8895725],[-97.2777435,49.893858],[-97.27703240000001,49.901639],[-97.2646251,49.902457],[-97.264931,49.8990759],[-97.25467479999999,49.8988686]]]},"properties":{"id":114,"name":"Murray Industrial Park","cluster":"St. James-Assiniboia East"}},{"type":"Feature","geometry":{"type":"Polygon","coordinates":[[[-97.16377840000001,49.9417135],[-97.1591647,49.9402301],[-97.1668986,49.9314215],[-97.1707549,49.9326522],[-97.16377840000001,49.9417135]]]},"properties":{"id":636,"name":"Mynarski","cluster":"Point Douglas North"}},{"type":"Feature","geometry":{"type":"Polygon","coordinates":[[[-97.09760449999999,49.866944],[-97.0994636,49.8670141],[-97.0912099,49.8672388],[-97.0894314,49.8661886],[-97.0841482,49.85589],[-97.0971321,49.8586244],[-97.0951703,49.8596761],[-97.09742810000002,49.8606775],[-97.09529649999999,49.8623784],[-97.097847,49.8630964],[-97.0952102,49.8638525],[-97.0979211,49.8642725],[-97.09547990000002,49.8651586],[-97.0977524,49.8655054],[-97.09760449999999,49.866944]]]},"properties":{"id":1207,"name":"Niakwa Park","cluster":"St. Boniface East"}},{"type":"Feature","geometry":{"type":"Polygon","coordinates":[[[-97.0887303,49.8393512],[-97.0879128,49.8407506],[-97.0886103,49.8417935],[-97.0864728,49.8424842],[-97.0859357,49.8420271],[-97.08622880000001,49.8436581],[-97.0884321,49.843331],[-97.0881225,49.8449874],[-97.0899456,49.8443488],[-97.0902526,49.8462991],[-97.0914259,49.8460476],[-97.09120449999999,49.8470619],[-97.09245639999999,49.84672459999999],[-97.0938675,49.8475532],[-97.0927795,49.848363],[-97.0956865,49.848892],[-97.0969224,49.8519688],[-97.0989935,49.8512272],[-97.0989316,49.8521611],[-97.0963463,49.8526512],[-97.09548,49.8536749],[-97.0977054,49.8537328],[-97.097572,49.8550198],[-97.0959971,49.8559569],[-97.0972207,49.8575251],[-97.0919801,49.8577185],[-97.0841482,49.85589],[-97.0763333,49.8406386],[-97.0847779,49.8405501],[-97.0887303,49.8393512]]]},"properties":{"id":1272,"name":"Niakwa Place","cluster":"St. Boniface East"}},{"type":"Feature","geometry":{"type":"Polygon","coordinates":[[[-97.1178763,49.8475347],[-97.1201452,49.8498068],[-97.1119412,49.8524779],[-97.112854,49.8455199],[-97.11215650000001,49.8398997],[-97.1130464,49.8358057],[-97.1181394,49.8412765],[-97.11657849999999,49.8444396],[-97.1178763,49.8475347]]]},"properties":{"id":123,"name":"Norberry","cluster":"St. Vital North"}},{"type":"Feature","geometry":{"type":"Polygon","coordinates":[[[-97.1296967,49.80617849999999],[-97.1281549,49.80744379999999],[-97.1169103,49.810992],[-97.1149605,49.8100611],[-97.11280149999999,49.8108035],[-97.1160685,49.8025689],[-97.1145777,49.7965238],[-97.1164139,49.7958995],[-97.1183439,49.7987971],[-97.1206938,49.8002566],[-97.128731,49.8033527],[-97.1298958,49.8047567],[-97.1296967,49.80617849999999]]]},"properties":{"id":120,"name":"Normand Park","cluster":"St. Vital South"}},{"type":"Feature","geometry":{"type":"Polygon","coordinates":[[[-97.22999259999999,49.9458428],[-97.2299827,49.9607767],[-97.2067788,49.9607405],[-97.2067744,49.9459099],[-97.22999259999999,49.9458428]]]},"properties":{"id":524,"name":"North Inkster Industrial","cluster":"Inkster West"}},{"type":"Feature","geometry":{"type":"Polygon","coordinates":[[[-97.1086034,49.9026864],[-97.1175889,49.9031865],[-97.1342304,49.9056554],[-97.1312327,49.9170398],[-97.1266276,49.9159525],[-97.1265284,49.9127369],[-97.1241196,49.9103113],[-97.1163734,49.9063048],[-97.1095602,49.9041849],[-97.1086034,49.9026864]]]},"properties":{"id":1022,"name":"North Point Douglas","cluster":"Point Douglas South"}},{"type":"Feature","geometry":{"type":"Polygon","coordinates":[[[-97.1946978,49.8741863],[-97.1740497,49.8734202],[-97.1749437,49.8630099],[-97.195524,49.8637395],[-97.1946978,49.8741863]]]},"properties":{"id":220,"name":"North River Heights","cluster":"River Heights West"}},{"type":"Feature","geometry":{"type":"Polygon","coordinates":[[[-97.1273071,49.8912257],[-97.1312053,49.8961571],[-97.1311106,49.8980484],[-97.1295917,49.8993706],[-97.1239596,49.900897],[-97.1118612,49.9004982],[-97.1098502,49.9010656],[-97.1086034,49.9026864],[-97.1061431,49.9025866],[-97.1074044,49.89959419999999],[-97.105716,49.8962506],[-97.1273071,49.8912257]]]},"properties":{"id":1078,"name":"North St. Boniface","cluster":"St. Boniface West"}},{"type":"Feature","geometry":{"type":"Polygon","coordinates":[[[-97.0445891,49.9308713],[-97.0247586,49.9306058],[-97.02487819999999,49.9225185],[-97.0465373,49.9287517],[-97.0445891,49.9308713]]]},"properties":{"id":801,"name":"North Transcona Yards","cluster":"River East East"}},{"type":"Feature","geometry":{"type":"Polygon","coordinates":[[[-97.1171211,49.8745348],[-97.1250883,49.8783091],[-97.12795709999999,49.8812382],[-97.1048781,49.8821272],[-97.1049872,49.8813515],[-97.10299460000002,49.8805899],[-97.1056588,49.8802001],[-97.1042234,49.8794667],[-97.10472620000002,49.8780742],[-97.1022981,49.878586],[-97.1008081,49.8780042],[-97.1018971,49.877728],[-97.1012205,49.8763162],[-97.1049399,49.8756037],[-97.1036589,49.8748248],[-97.1135423,49.8716562],[-97.1171211,49.8745348]]]},"properties":{"id":133,"name":"Norwood East","cluster":"St. Boniface West"}},{"type":"Feature","geometry":{"type":"Polygon","coordinates":[[[-97.1302933,49.8827506],[-97.1250883,49.8783091],[-97.11823779999999,49.8753227],[-97.1135423,49.8716562],[-97.1166422,49.8706276],[-97.1222141,49.8710711],[-97.132305,49.8700545],[-97.136109,49.8711152],[-97.1373107,49.8729329],[-97.1369639,49.8758611],[-97.1351723,49.8785009],[-97.1302933,49.8827506]]]},"properties":{"id":1213,"name":"Norwood West","cluster":"St. Boniface West"}},{"type":"Feature","geometry":{"type":"Polygon","coordinates":[[[-97.2255969,49.9459486],[-97.2255907,49.9422663],[-97.224096,49.9422654],[-97.2240968,49.9404263],[-97.2251987,49.9395221],[-97.2233616,49.9385896],[-97.2182102,49.9385835],[-97.218206,49.9359724],[-97.213212,49.9334369],[-97.212467,49.9314095],[-97.2067591,49.92850989999999],[-97.2067577,49.9312128],[-97.1951103,49.931207],[-97.1951069,49.9238321],[-97.2298555,49.9330863],[-97.22999259999999,49.9458428],[-97.2255969,49.9459486]]]},"properties":{"id":520,"name":"Oak Point Highway","cluster":"Inkster West"}},{"type":"Feature","geometry":{"type":"Polygon","coordinates":[[[-97.2030506,49.87683889999999],[-97.2023815,49.8758231],[-97.2051706,49.8728432],[-97.20548090000001,49.8695611],[-97.2123922,49.8698322],[-97.215644,49.8665648],[-97.22021,49.8667331],[-97.2195834,49.8734205],[-97.2144708,49.8743319],[-97.2093275,49.8737343],[-97.208356,49.8742863],[-97.2082934,49.8762223],[-97.2075903,49.8767576],[-97.2030506,49.87683889999999]]]},"properties":{"id":1498,"name":"Old Tuxedo","cluster":"Assiniboine South"}},{"type":"Feature","geometry":{"type":"Polygon","coordinates":[[[-97.20675519999999,49.9269357],[-97.2067607,49.9164549],[-97.2253011,49.9164436],[-97.2298568,49.9198282],[-97.2298555,49.9330863],[-97.20675519999999,49.9269357]]]},"properties":{"id":437,"name":"Omand's Creek Industrial","cluster":"St. James-Assiniboia East"}},{"type":"Feature","geometry":{"type":"Polygon","coordinates":[[[-97.1714356,49.9053061],[-97.1837214,49.90924],[-97.1837253,49.9131086],[-97.1815219,49.9159803],[-97.1706868,49.9125102],[-97.1714356,49.9053061]]]},"properties":{"id":143,"name":"Pacific Industrial","cluster":"Inkster East"}},{"type":"Feature","geometry":{"type":"Polygon","coordinates":[[[-97.1657153,49.7687259],[-97.1606867,49.7695914],[-97.1597328,49.7688119],[-97.1584932,49.7692447],[-97.1541852,49.7632912],[-97.1574439,49.7603617],[-97.1612962,49.7614434],[-97.163396,49.7632844],[-97.16734,49.7648207],[-97.1693687,49.7671626],[-97.1657153,49.7687259]]]},"properties":{"id":1752,"name":"Parc La Salle","cluster":"Fort Garry South"}},{"type":"Feature","geometry":{"type":"Polygon","coordinates":[[[-97.1788719,49.8502834],[-97.1559365,49.8524337],[-97.1524311,49.8541804],[-97.1520101,49.8526366],[-97.1724656,49.8451886],[-97.1738277,49.8469108],[-97.1793073,49.8468798],[-97.1788719,49.8502834]]]},"properties":{"id":178,"name":"Parker","cluster":"Fort Garry North"}},{"type":"Feature","geometry":{"type":"Polygon","coordinates":[[[-97.0567717,49.9105797],[-97.0344526,49.9141866],[-97.0344097,49.9069754],[-97.0332076,49.9008477],[-97.048522,49.8967866],[-97.0661869,49.90257829999999],[-97.0632254,49.9059551],[-97.0582063,49.90847489999999],[-97.0567717,49.9105797]]]},"properties":{"id":856,"name":"Peguis","cluster":"Transcona"}},{"type":"Feature","geometry":{"type":"Polygon","coordinates":[[[-97.1566811,49.818674],[-97.1558585,49.8278654],[-97.1518194,49.8292323],[-97.1520888,49.8278222],[-97.148526,49.8290283],[-97.1477816,49.8272276],[-97.1427235,49.8216417],[-97.1566811,49.818674]]]},"properties":{"id":1450,"name":"Pembina Strip","cluster":"Fort Garry North"}},{"type":"Feature","geometry":{"type":"Polygon","coordinates":[[[-97.1519319,49.7405934],[-97.1492879,49.74184969999999],[-97.1516599,49.7445496],[-97.1505333,49.7460913],[-97.14982409999999,49.7505461],[-97.1532819,49.7520429],[-97.1540379,49.7544737],[-97.1511409,49.7581351],[-97.15193330000001,49.7588655],[-97.15582529999999,49.7587268],[-97.1574739,49.7602387],[-97.15438909999999,49.7632539],[-97.15296,49.7637209],[-97.14597060000001,49.7550938],[-97.1374027,49.7424365],[-97.1689768,49.7314974],[-97.1695295,49.7320824],[-97.1689747,49.7330268],[-97.1594122,49.7361947],[-97.1574459,49.7388533],[-97.1567723,49.741253],[-97.1519319,49.7405934]]]},"properties":{"id":1652,"name":"Perrault","cluster":"Fort Garry South"}},{"type":"Feature","geometry":{"type":"Polygon","coordinates":[[[-97.1433249,49.8501354],[-97.1444816,49.8492209],[-97.1444003,49.8482435],[-97.1396569,49.8475788],[-97.1386839,49.8463751],[-97.15348859999999,49.8413649],[-97.1519346,49.8523598],[-97.145346,49.8539669],[-97.1446136,49.8530609],[-97.14521769999999,49.850986],[-97.1433249,49.8501354]]]},"properties":{"id":1348,"name":"Point Road","cluster":"Fort Garry North"}},{"type":"Feature","geometry":{"type":"Polygon","coordinates":[[[-97.1931076,49.8939949],[-97.1941069,49.8815674],[-97.2048523,49.8796367],[-97.2063299,49.881931],[-97.2061754,49.8836469],[-97.202336,49.8843213],[-97.2015428,49.8942529],[-97.1931076,49.8939949]]]},"properties":{"id":97,"name":"Polo Park","cluster":"Downtown West"}},{"type":"Feature","geometry":{"type":"Polygon","coordinates":[[[-97.1387262,49.8930056],[-97.14029760000001,49.895382],[-97.1395665,49.8963953],[-97.1324616,49.8951071],[-97.135011,49.8931782],[-97.13752129999999,49.8937648],[-97.1387262,49.8930056]]]},"properties":{"id":1046,"name":"Portage & Main","cluster":"Downtown East"}},{"type":"Feature","geometry":{"type":"Polygon","coordinates":[[[-97.1508657,49.8909333],[-97.1522584,49.8932574],[-97.141312,49.8957074],[-97.1398174,49.8950227],[-97.1508657,49.8909333]]]},"properties":{"id":179,"name":"Portage-Ellice","cluster":"Downtown East"}},{"type":"Feature","geometry":{"type":"Polygon","coordinates":[[[-97.2139778,49.7681055],[-97.2139674,49.7775086],[-97.192275,49.78492],[-97.1825234,49.7685435],[-97.2139778,49.7681055]]]},"properties":{"id":1727,"name":"Prairie Pointe","cluster":"Fort Garry South"}},{"type":"Feature","geometry":{"type":"Polygon","coordinates":[[[-97.131878,49.8359175],[-97.1177995,49.8407523],[-97.1130464,49.8358057],[-97.1150459,49.830709],[-97.1427235,49.8216417],[-97.1481721,49.8278729],[-97.1482489,49.8304017],[-97.1464063,49.8319301],[-97.1429307,49.8322127],[-97.1356047,49.8311407],[-97.1328847,49.8318652],[-97.1312308,49.8334244],[-97.131878,49.8359175]]]},"properties":{"id":1389,"name":"Pulberry","cluster":"St. Vital North"}},{"type":"Feature","geometry":{"type":"Polygon","coordinates":[[[-97.0254183,49.8984122],[-97.0254034,49.90311939999999],[-97.002478,49.9097834],[-97.0026458,49.90071779999999],[-97.0162434,49.9007973],[-97.0162074,49.8983568],[-97.0254183,49.8984122]]]},"properties":{"id":882,"name":"Radisson","cluster":"Transcona"}},{"type":"Feature","geometry":{"type":"Polygon","coordinates":[[[-97.0711654,49.8941736],[-97.0661869,49.90257829999999],[-97.048522,49.8967866],[-97.0254034,49.90311939999999],[-97.0253639,49.8936156],[-97.0428965,49.8936299],[-97.0534282,49.8954988],[-97.0635993,49.89282],[-97.0711654,49.8941736]]]},"properties":{"id":964,"name":"Regent","cluster":"Transcona"}},{"type":"Feature","geometry":{"type":"Polygon","coordinates":[[[-97.1657153,49.7687259],[-97.1696741,49.7670559],[-97.1709944,49.7673877],[-97.1725641,49.7654876],[-97.1755014,49.7657198],[-97.1776671,49.7649834],[-97.1744808,49.767587],[-97.1737349,49.7710707],[-97.1605621,49.7756789],[-97.1604709,49.7725434],[-97.1584932,49.7692447],[-97.1597328,49.7688119],[-97.1606867,49.7695914],[-97.1657153,49.7687259]]]},"properties":{"id":1750,"name":"Richmond Lakes","cluster":"Fort Garry South"}},{"type":"Feature","geometry":{"type":"Polygon","coordinates":[[[-97.1566047,49.7770628],[-97.1737349,49.7710707],[-97.173699,49.7912616],[-97.15727969999999,49.7968307],[-97.1566047,49.7770628]]]},"properties":{"id":28,"name":"Richmond West","cluster":"Fort Garry South"}},{"type":"Feature","geometry":{"type":"Polygon","coordinates":[[[-97.2909826,49.8591167],[-97.2905614,49.8637442],[-97.2880293,49.86291139999999],[-97.2850588,49.8596199],[-97.2803378,49.8593501],[-97.2779747,49.8616133],[-97.2802936,49.8672762],[-97.27921889999999,49.8695957],[-97.2728226,49.8696446],[-97.2669128,49.8717246],[-97.2634998,49.8719839],[-97.26530830000002,49.8710836],[-97.2655998,49.8678512],[-97.27393570000001,49.8665405],[-97.2777488,49.8585186],[-97.2826404,49.8576227],[-97.2909826,49.8591167]]]},"properties":{"id":1568,"name":"Ridgedale","cluster":"Assiniboine South"}},{"type":"Feature","geometry":{"type":"Polygon","coordinates":[[[-97.2454391,49.8440473],[-97.2833174,49.8404851],[-97.32527150000001,49.8391312],[-97.3243953,49.8475282],[-97.2454391,49.8440473]]]},"properties":{"id":96,"name":"Ridgewood South","cluster":"Assiniboine South"}},{"type":"Feature","geometry":{"type":"Polygon","coordinates":[[[-97.0582229,49.93947019999999],[-97.0631059,49.9421653],[-97.0705715,49.9446745],[-97.0774015,49.9466831],[-97.0843,49.9475762],[-97.06670109999999,49.9611475],[-97.043721,49.9509197],[-97.0582229,49.93947019999999]]]},"properties":{"id":740,"name":"River East","cluster":"River East West"}},{"type":"Feature","geometry":{"type":"Polygon","coordinates":[[[-97.1169522,49.794186],[-97.1164139,49.7958995],[-97.1145777,49.7965238],[-97.1160685,49.8025689],[-97.11280149999999,49.8108035],[-97.1149605,49.8100611],[-97.116255,49.8105773],[-97.1169103,49.810992],[-97.1152491,49.8128086],[-97.115894,49.8147392],[-97.1199425,49.8167544],[-97.1240161,49.8166187],[-97.1247321,49.8180266],[-97.11995610000001,49.8179245],[-97.1117403,49.8206812],[-97.1078083,49.8203335],[-97.100639,49.8227931],[-97.09916,49.8207472],[-97.0989848,49.8172796],[-97.0923325,49.8089258],[-97.0903658,49.804348],[-97.0881028,49.801466],[-97.1155819,49.792044],[-97.1149592,49.7938542],[-97.1169522,49.794186]]]},"properties":{"id":174,"name":"River Park South","cluster":"St. Vital South"}},{"type":"Feature","geometry":{"type":"Polygon","coordinates":[[[-97.3129228,49.870384],[-97.31191659999999,49.8670694],[-97.3127789,49.8631014],[-97.3258985,49.8659691],[-97.3265077,49.8686683],[-97.3210762,49.8723882],[-97.3168449,49.8724697],[-97.3129228,49.870384]]]},"properties":{"id":218,"name":"River West Park","cluster":"Assiniboine South"}},{"type":"Feature","geometry":{"type":"Polygon","coordinates":[[[-97.140812,49.8730714],[-97.148444,49.88174569999999],[-97.1424027,49.8824297],[-97.13389629999999,49.885528],[-97.1268141,49.8857806],[-97.1358791,49.8776359],[-97.1386347,49.8767168],[-97.140812,49.8730714]]]},"properties":{"id":1215,"name":"River-Osborne","cluster":"River Heights East"}},{"type":"Feature","geometry":{"type":"Polygon","coordinates":[[[-97.1031574,49.9518249],[-97.11369440000001,49.9552356],[-97.0922642,49.9685029],[-97.0820838,49.9639484],[-97.1031574,49.9518249]]]},"properties":{"id":666,"name":"Riverbend","cluster":"Seven Oaks East"}},{"type":"Feature","geometry":{"type":"Polygon","coordinates":[[[-97.0972552,49.9506202],[-97.1024897,49.9522566],[-97.0820838,49.9639484],[-97.073017,49.959891],[-97.0841814,49.9516333],[-97.0878067,49.9508542],[-97.0946712,49.9514494],[-97.0972552,49.9506202]]]},"properties":{"id":728,"name":"Rivergrove","cluster":"Seven Oaks East"}},{"type":"Feature","geometry":{"type":"Polygon","coordinates":[[[-97.139816,49.8545668],[-97.1406017,49.8555399],[-97.1296891,49.8592253],[-97.140812,49.8730714],[-97.1386347,49.8767168],[-97.1358791,49.8776359],[-97.137204,49.8751247],[-97.1373107,49.8729329],[-97.1363407,49.8713144],[-97.1344164,49.8704046],[-97.1191033,49.8709917],[-97.114955,49.8701356],[-97.1131001,49.8684703],[-97.1128352,49.8658062],[-97.1148356,49.8621452],[-97.1195386,49.8580767],[-97.1290962,49.855142],[-97.139816,49.8545668]]]},"properties":{"id":1288,"name":"Riverview","cluster":"River Heights East"}},{"type":"Feature","geometry":{"type":"Polygon","coordinates":[[[-97.1591647,49.9402301],[-97.1440991,49.9354307],[-97.1510271,49.9265234],[-97.1667591,49.93158039999999],[-97.1591647,49.9402301]]]},"properties":{"id":187,"name":"Robertson","cluster":"Point Douglas North"}},{"type":"Feature","geometry":{"type":"Polygon","coordinates":[[[-97.2939573,49.8461916],[-97.2927963,49.8580939],[-97.2933999,49.8582019],[-97.2927398,49.8594381],[-97.28601990000001,49.8582277],[-97.28713839999999,49.8458902],[-97.2939573,49.8461916]]]},"properties":{"id":1573,"name":"Roblin Park","cluster":"Assiniboine South"}},{"type":"Feature","geometry":{"type":"Polygon","coordinates":[[[-97.1749437,49.8630099],[-97.1614119,49.8681062],[-97.1566392,49.8621643],[-97.1755357,49.8560377],[-97.1749437,49.8630099]]]},"properties":{"id":205,"name":"Rockwood","cluster":"River Heights West"}},{"type":"Feature","geometry":{"type":"Polygon","coordinates":[[[-97.1523578,49.8755975],[-97.15491910000001,49.8792008],[-97.15486089999999,49.8803037],[-97.1517355,49.8816297],[-97.148444,49.88174569999999],[-97.14641549999999,49.8791518],[-97.15170649999999,49.87738],[-97.1503358,49.8756661],[-97.1519255,49.8733225],[-97.15404559999999,49.8724386],[-97.157788,49.8730654],[-97.1568593,49.873984],[-97.1538822,49.8739443],[-97.1523578,49.8755975]]]},"properties":{"id":1342,"name":"Roslyn","cluster":"River Heights East"}},{"type":"Feature","geometry":{"type":"Polygon","coordinates":[[[-97.1341804,49.9678433],[-97.1402777,49.9616268],[-97.1733474,49.9720577],[-97.1798609,49.9727429],[-97.1835728,49.9719635],[-97.194737,49.9657653],[-97.1930688,49.960727],[-97.2299827,49.9607767],[-97.2299986,49.97563429999999],[-97.1612281,49.9755942],[-97.1612252,49.9903052],[-97.1551879,49.9902982],[-97.1551968,49.99393339999999],[-97.14915730000001,49.994008],[-97.0922642,49.9685029],[-97.1085845,49.9584107],[-97.1314919,49.9688377],[-97.1341804,49.9678433]]]},"properties":{"id":676,"name":"Rosser-Old Kildonan","cluster":"Seven Oaks West"}},{"type":"Feature","geometry":{"type":"Polygon","coordinates":[[[-97.0764857,49.9250419],[-97.0870824,49.9285649],[-97.0865257,49.9292614],[-97.0989101,49.9329271],[-97.0938843,49.9367144],[-97.0843,49.9475762],[-97.0774015,49.9466831],[-97.0705715,49.9446745],[-97.0631059,49.9421653],[-97.0582229,49.93947019999999],[-97.0764857,49.9250419]]]},"properties":{"id":761,"name":"Rossmere-A","cluster":"River East West"}},{"type":"Feature","geometry":{"type":"Polygon","coordinates":[[[-97.0764857,49.9250419],[-97.08258920000002,49.92043419999999],[-97.1040203,49.92758],[-97.0989101,49.9329271],[-97.0865257,49.9292614],[-97.0870824,49.9285649],[-97.0764857,49.9250419]]]},"properties":{"id":759,"name":"Rossmere-B","cluster":"River East West"}},{"type":"Feature","geometry":{"type":"Polygon","coordinates":[[[-97.0822148,49.8268348],[-97.0814492,49.828416],[-97.0836173,49.8286893],[-97.0833317,49.8294928],[-97.0845222,49.8290414],[-97.0860895,49.8305063],[-97.0840163,49.8318336],[-97.0854898,49.832469],[-97.0840246,49.8331867],[-97.0878877,49.8331408],[-97.0853643,49.8345448],[-97.0882437,49.8348103],[-97.0877065,49.8357215],[-97.08605240000001,49.8355918],[-97.0870294,49.8368275],[-97.0894603,49.8364628],[-97.0887303,49.8393512],[-97.0847779,49.8405501],[-97.0763333,49.8406386],[-97.0610052,49.8106704],[-97.0659816,49.808932],[-97.0675708,49.8111861],[-97.0689104,49.8111256],[-97.067978,49.812096],[-97.0694126,49.812199],[-97.0682758,49.8138627],[-97.0725719,49.813119],[-97.0723585,49.8143914],[-97.07120049999999,49.8142624],[-97.071444,49.8157321],[-97.0731287,49.8170509],[-97.0734148,49.815966],[-97.0749272,49.8162811],[-97.0751422,49.8176528],[-97.076627,49.8164835],[-97.07699,49.8185721],[-97.0762916,49.81890879999999],[-97.0775509,49.8189766],[-97.0770321,49.8198002],[-97.0784575,49.8195249],[-97.0770696,49.8204257],[-97.0779037,49.8210954],[-97.07758229999999,49.8217441],[-97.0815176,49.8217493],[-97.0800874,49.8237868],[-97.0825388,49.8237024],[-97.0806067,49.8264488],[-97.0822148,49.8268348]]]},"properties":{"id":1640,"name":"Royalwood","cluster":"St. Boniface East"}},{"type":"Feature","geometry":{"type":"Polygon","coordinates":[[[-97.0270075,49.8408961],[-97.0266812,49.8229323],[-97.0256682,49.8224266],[-97.0470241,49.8155527],[-97.0498291,49.8194355],[-97.0498475,49.8408966],[-97.0270075,49.8408961]]]},"properties":{"id":1198,"name":"Sage Creek","cluster":"St. Boniface East"}},{"type":"Feature","geometry":{"type":"Polygon","coordinates":[[[-97.173269,49.9058933],[-97.1742189,49.8934084],[-97.1931076,49.8939949],[-97.1920644,49.9024131],[-97.1863984,49.9100966],[-97.173269,49.9058933]]]},"properties":{"id":110,"name":"Sargent Park","cluster":"Downtown West"}},{"type":"Feature","geometry":{"type":"Polygon","coordinates":[[[-97.322669,49.8988433],[-97.31981030000001,49.9199381],[-97.32119190000002,49.9293662],[-97.29849430000002,49.9292337],[-97.2985057,49.9313142],[-97.2623077,49.9313416],[-97.2647343,49.9024498],[-97.322669,49.8988433]]]},"properties":{"id":1794,"name":"Saskatchewan North","cluster":"St. James-Assiniboia West"}},{"type":"Feature","geometry":{"type":"Polygon","coordinates":[[[-97.1102189,49.9256332],[-97.1173229,49.9273584],[-97.1228575,49.9296383],[-97.1123714,49.9437648],[-97.1007992,49.940005],[-97.1072857,49.9384122],[-97.110777,49.9359141],[-97.1114319,49.9332523],[-97.1099608,49.9285248],[-97.1102189,49.9256332]]]},"properties":{"id":696,"name":"Seven Oaks","cluster":"Seven Oaks East"}},{"type":"Feature","geometry":{"type":"Polygon","coordinates":[[[-97.1813242,49.9268933],[-97.1840489,49.9334592],[-97.1834986,49.9341818],[-97.1723245,49.9306073],[-97.1707549,49.9326522],[-97.1668986,49.9314215],[-97.1689144,49.9291249],[-97.169552,49.923124],[-97.1813242,49.9268933]]]},"properties":{"id":21,"name":"Shaughnessy Park","cluster":"Inkster East"}},{"type":"Feature","geometry":{"type":"Polygon","coordinates":[[[-97.2417161,49.8764699],[-97.2607752,49.8747997],[-97.2629341,49.8753889],[-97.2620126,49.8858162],[-97.2409581,49.8850158],[-97.2417161,49.8764699]]]},"properties":{"id":63,"name":"Silver Heights","cluster":"St. James-Assiniboia East"}},{"type":"Feature","geometry":{"type":"Polygon","coordinates":[[[-97.1943645,49.8783625],[-97.195524,49.8637395],[-97.205992,49.8641544],[-97.2051706,49.8728432],[-97.2023815,49.8758231],[-97.2030506,49.87683889999999],[-97.1943645,49.8783625]]]},"properties":{"id":1492,"name":"Sir John Franklin","cluster":"River Heights West"}},{"type":"Feature","geometry":{"type":"Polygon","coordinates":[[[-97.1287843,49.8997638],[-97.1358466,49.9025781],[-97.1342304,49.9056554],[-97.1175889,49.9031865],[-97.1086034,49.9026864],[-97.1098502,49.9010656],[-97.1118612,49.9004982],[-97.1239596,49.900897],[-97.1287843,49.8997638]]]},"properties":{"id":1062,"name":"South Point Douglas","cluster":"Point Douglas South"}},{"type":"Feature","geometry":{"type":"Polygon","coordinates":[[[-97.1825234,49.7685435],[-97.192275,49.78492],[-97.173699,49.7912616],[-97.1737349,49.7710707],[-97.1825234,49.7685435]]]},"properties":{"id":1726,"name":"South Pointe","cluster":"Fort Garry South"}},{"type":"Feature","geometry":{"type":"Polygon","coordinates":[[[-97.1508657,49.8909333],[-97.1398174,49.8950227],[-97.1387262,49.8930056],[-97.1369444,49.8937894],[-97.1348338,49.8931222],[-97.1338572,49.8908169],[-97.1356932,49.8903957],[-97.1348551,49.8888386],[-97.1454582,49.8864353],[-97.1466158,49.8885675],[-97.14957539999999,49.8888959],[-97.1508657,49.8909333]]]},"properties":{"id":88,"name":"South Portage","cluster":"Downtown East"}},{"type":"Feature","geometry":{"type":"Polygon","coordinates":[[[-97.1761317,49.8507554],[-97.1967207,49.8486157],[-97.1960728,49.856809],[-97.1755357,49.8560377],[-97.1761317,49.8507554]]]},"properties":{"id":58,"name":"South River Heights","cluster":"River Heights West"}},{"type":"Feature","geometry":{"type":"Polygon","coordinates":[[[-97.2075554,49.8476022],[-97.23168590000002,49.8453332],[-97.2304511,49.8579089],[-97.2221417,49.8570412],[-97.20664750000002,49.857229],[-97.2075554,49.8476022]]]},"properties":{"id":155,"name":"South Tuxedo","cluster":"Assiniboine South"}},{"type":"Feature","geometry":{"type":"Polygon","coordinates":[[[-97.2907467,49.86378579999999],[-97.2909826,49.8591167],[-97.3127789,49.8631014],[-97.3124264,49.8664966],[-97.31191659999999,49.8670694],[-97.3050567,49.8659422],[-97.2985298,49.8639445],[-97.2907467,49.86378579999999]]]},"properties":{"id":1566,"name":"Southboine","cluster":"Assiniboine South"}},{"type":"Feature","geometry":{"type":"Polygon","coordinates":[[[-97.0550042,49.8472951],[-97.0549336,49.8479342],[-97.0497505,49.8480577],[-97.0498506,49.8406684],[-97.0763333,49.8406386],[-97.0841482,49.85589],[-97.0609058,49.8560315],[-97.0608776,49.8495336],[-97.0550042,49.8472951]]]},"properties":{"id":1194,"name":"Southdale","cluster":"St. Boniface East"}},{"type":"Feature","geometry":{"type":"Polygon","coordinates":[[[-97.0498475,49.8408966],[-97.049776,49.8560325],[-97.0344194,49.8560345],[-97.02676729999999,49.85485629999999],[-97.0267297,49.8408961],[-97.0498475,49.8408966]]]},"properties":{"id":1196,"name":"Southland Park","cluster":"St. Boniface East"}},{"type":"Feature","geometry":{"type":"Polygon","coordinates":[[[-97.1590644,49.8883841],[-97.1581644,49.9011009],[-97.1520644,49.899153],[-97.1521507,49.892989],[-97.15496429999999,49.892823],[-97.1552033,49.889431],[-97.1590644,49.8883841]]]},"properties":{"id":197,"name":"Spence","cluster":"Downtown East"}},{"type":"Feature","geometry":{"type":"Polygon","coordinates":[[[-97.04852059999999,49.9309251],[-97.0629896,49.9357099],[-97.043721,49.9509197],[-97.0325087,49.9459264],[-97.0445891,49.9308713],[-97.04852059999999,49.9309251]]]},"properties":{"id":753,"name":"Springfield North","cluster":"River East East"}},{"type":"Feature","geometry":{"type":"Polygon","coordinates":[[[-97.0526765,49.923269],[-97.061978,49.92636549999999],[-97.0593584,49.9296465],[-97.05209939999999,49.9321142],[-97.04852059999999,49.9309251],[-97.0445891,49.9308713],[-97.0526765,49.923269]]]},"properties":{"id":799,"name":"Springfield South","cluster":"River East East"}},{"type":"Feature","geometry":{"type":"Polygon","coordinates":[[[-97.0269703,49.8784003],[-97.0267913,49.8637862],[-97.03361489999999,49.8637851],[-97.0497533,49.870484],[-97.0497565,49.871401],[-97.0679647,49.8756409],[-97.0679625,49.8749437],[-97.0721644,49.876686],[-97.07219520000001,49.8859332],[-97.0309839,49.8860004],[-97.0309744,49.8850003],[-97.0300015,49.8850006],[-97.0299875,49.878399],[-97.0269703,49.8784003]]]},"properties":{"id":1831,"name":"St. Boniface Industrial Park","cluster":"St. Boniface East"}},{"type":"Feature","geometry":{"type":"Polygon","coordinates":[[[-97.0977845,49.8468582],[-97.1123966,49.8418264],[-97.112854,49.8455199],[-97.1119412,49.8524779],[-97.103927,49.8553007],[-97.0977845,49.8468582]]]},"properties":{"id":176,"name":"St. George","cluster":"St. Vital North"}},{"type":"Feature","geometry":{"type":"Polygon","coordinates":[[[-97.2178197,49.8910606],[-97.2169981,49.8998463],[-97.2143129,49.8997645],[-97.2141509,49.9016809],[-97.2125598,49.9016322],[-97.2113951,49.9128919],[-97.2179859,49.9129521],[-97.2179899,49.9164484],[-97.1951047,49.9164604],[-97.1896548,49.9111384],[-97.1863984,49.9100966],[-97.1920644,49.9024131],[-97.1931076,49.8939949],[-97.2015428,49.8942529],[-97.2020922,49.88737539999999],[-97.20582490000001,49.8875166],[-97.2056967,49.89060029999999],[-97.2178197,49.8910606]]]},"properties":{"id":391,"name":"St. James Industrial","cluster":"St. James-Assiniboia East"}},{"type":"Feature","geometry":{"type":"Polygon","coordinates":[[[-97.1269689,49.9223613],[-97.1310238,49.9173006],[-97.1451443,49.9218566],[-97.1365647,49.933004],[-97.12335979999999,49.9287487],[-97.1269689,49.9223613]]]},"properties":{"id":201,"name":"St. John's","cluster":"Point Douglas North"}},{"type":"Feature","geometry":{"type":"Polygon","coordinates":[[[-97.1266276,49.9159525],[-97.1309788,49.9173568],[-97.1260614,49.9239678],[-97.1160478,49.9203252],[-97.1230705,49.9189601],[-97.1266276,49.9159525]]]},"properties":{"id":1024,"name":"St. John's Park","cluster":"Point Douglas North"}},{"type":"Feature","geometry":{"type":"Polygon","coordinates":[[[-97.158742,49.8929397],[-97.1590644,49.8883841],[-97.1748832,49.8846302],[-97.1742189,49.8934084],[-97.158742,49.8929397]]]},"properties":{"id":199,"name":"St. Matthews","cluster":"Downtown West"}},{"type":"Feature","geometry":{"type":"Polygon","coordinates":[[[-97.16009,49.7715897],[-97.1605621,49.7756789],[-97.1566047,49.7770628],[-97.1564352,49.7738243],[-97.1533765,49.7743798],[-97.1547275,49.7721157],[-97.15391849999999,49.7709293],[-97.15201719999999,49.7703981],[-97.14452759999999,49.7740001],[-97.1401436,49.7736615],[-97.1392298,49.7713342],[-97.1406978,49.7609422],[-97.1403936,49.7567978],[-97.1433828,49.755668],[-97.1452763,49.7559613],[-97.1457719,49.757161],[-97.1429393,49.7588141],[-97.1434018,49.7601578],[-97.1444648,49.7604135],[-97.146097,49.759415],[-97.14692740000001,49.7606445],[-97.1492806,49.7613105],[-97.15105,49.7634901],[-97.1541852,49.7632912],[-97.16009,49.7715897]]]},"properties":{"id":1743,"name":"St. Norbert","cluster":"Fort Garry South"}},{"type":"Feature","geometry":{"type":"Polygon","coordinates":[[[-97.1045563,49.8275517],[-97.1140116,49.8238461],[-97.1150459,49.830709],[-97.1088924,49.8328043],[-97.1045563,49.8275517]]]},"properties":{"id":161,"name":"St. Vital Centre","cluster":"St. Vital South"}},{"type":"Feature","geometry":{"type":"Polygon","coordinates":[[[-97.1279434,49.7452744],[-97.130947,49.7490517],[-97.1380434,49.7536779],[-97.1405631,49.7571497],[-97.1392298,49.7713342],[-97.1401436,49.7736615],[-97.14452759999999,49.7740001],[-97.15201719999999,49.7703981],[-97.15391849999999,49.7709293],[-97.1547275,49.7721157],[-97.1533765,49.7743798],[-97.1451626,49.7773241],[-97.1330393,49.7788121],[-97.131484,49.7809424],[-97.1351718,49.7845557],[-97.1155819,49.792044],[-97.0256682,49.8224266],[-97.0266768,49.8206589],[-97.0263913,49.7973413],[-97.0386108,49.7973528],[-97.0491066,49.7928085],[-97.04907,49.7830556],[-97.0434518,49.783018],[-97.0434411,49.7761466],[-97.0835678,49.76270849999999],[-97.083408,49.7532451],[-97.0819318,49.7532457],[-97.1289908,49.7373814],[-97.1273838,49.7424371],[-97.1279434,49.7452744]]]},"properties":{"id":1670,"name":"St. Vital Perimeter South","cluster":"St. Vital South"}},{"type":"Feature","geometry":{"type":"Polygon","coordinates":[[[-97.0722022,49.8736145],[-97.0944463,49.8734733],[-97.09879079999999,49.8819238],[-97.0722242,49.881925],[-97.0722022,49.8736145]]]},"properties":{"id":1136,"name":"Stock Yards","cluster":"St. Boniface East"}},{"type":"Feature","geometry":{"type":"Polygon","coordinates":[[[-97.03361489999999,49.8637851],[-97.0267913,49.8637862],[-97.02676729999999,49.85485629999999],[-97.0344194,49.8560345],[-97.0495649,49.8560326],[-97.0503073,49.8584919],[-97.05659329999999,49.8602049],[-97.07154519999999,49.8711743],[-97.0721644,49.876686],[-97.0679625,49.8749437],[-97.0679647,49.8756409],[-97.0497565,49.871401],[-97.0497533,49.870484],[-97.03361489999999,49.8637851]]]},"properties":{"id":1126,"name":"Symington Yards","cluster":"St. Boniface East"}},{"type":"Feature","geometry":{"type":"Polygon","coordinates":[[[-97.1029932,49.9030845],[-97.1005905,49.90598],[-97.0941093,49.9111086],[-97.0807919,49.9066892],[-97.1029932,49.9030845]]]},"properties":{"id":1012,"name":"Talbot-Grey","cluster":"River East South"}},{"type":"Feature","geometry":{"type":"Polygon","coordinates":[[[-97.1272175,49.9468665],[-97.1476127,49.9534398],[-97.1410106,49.9608291],[-97.1171374,49.9531128],[-97.1272175,49.9468665]]]},"properties":{"id":136,"name":"Templeton-Sinclair","cluster":"Seven Oaks East"}},{"type":"Feature","geometry":{"type":"Polygon","coordinates":[[[-97.1273071,49.8912257],[-97.1256524,49.8879443],[-97.1272712,49.8857317],[-97.1331113,49.8856366],[-97.1356932,49.8903957],[-97.1338572,49.8908169],[-97.13494650000001,49.8934156],[-97.1324616,49.8951071],[-97.13066889999999,49.8951375],[-97.1273071,49.8912257]]]},"properties":{"id":1074,"name":"The Forks","cluster":"Downtown East"}},{"type":"Feature","geometry":{"type":"Polygon","coordinates":[[[-97.1633984,49.9415914],[-97.1825741,49.9477553],[-97.1838077,49.9517133],[-97.1839156,49.9573064],[-97.1824596,49.9613488],[-97.1802708,49.9638638],[-97.1610186,49.9576722],[-97.1609903,49.9470794],[-97.15955,49.946592],[-97.1633984,49.9415914]]]},"properties":{"id":630,"name":"The Maples","cluster":"Seven Oaks West"}},{"type":"Feature","geometry":{"type":"Polygon","coordinates":[[[-97.0549312,49.8472673],[-97.0608776,49.8495336],[-97.0609058,49.8560315],[-97.049776,49.8560325],[-97.0497505,49.8480577],[-97.0549336,49.8479342],[-97.0549312,49.8472673]]]},"properties":{"id":1192,"name":"The Mint","cluster":"St. Boniface East"}},{"type":"Feature","geometry":{"type":"Polygon","coordinates":[[[-97.1096711,49.895306],[-97.105716,49.8962506],[-97.1038874,49.8927352],[-97.10952,49.8922167],[-97.1096711,49.895306]]]},"properties":{"id":1080,"name":"Tissot","cluster":"St. Boniface East"}},{"type":"Feature","geometry":{"type":"Polygon","coordinates":[[[-96.9943987,49.91219919999999],[-96.9920567,49.9137127],[-96.9908414,49.9157226],[-96.9663867,49.9155556],[-96.9623761,49.9080376],[-97.00250589999999,49.9082656],[-97.002478,49.9097834],[-96.9943987,49.91219919999999]]]},"properties":{"id":906,"name":"Transcona North","cluster":"Transcona"}},{"type":"Feature","geometry":{"type":"Polygon","coordinates":[[[-97.02695089999999,49.8711198],[-97.0269703,49.8784003],[-97.0299875,49.878399],[-97.0300015,49.8850006],[-97.0309744,49.8850003],[-97.0309839,49.8860004],[-96.981078,49.8859568],[-96.9810701,49.8709337],[-97.02695089999999,49.8711198]]]},"properties":{"id":1830,"name":"Transcona South","cluster":"Transcona"}},{"type":"Feature","geometry":{"type":"Polygon","coordinates":[[[-97.0258806,49.8860178],[-97.0253623,49.8934794],[-96.9682867,49.8933453],[-96.9681677,49.8858157],[-97.0258806,49.8860178]]]},"properties":{"id":922,"name":"Transcona Yards","cluster":"Transcona"}},{"type":"Feature","geometry":{"type":"Polygon","coordinates":[[[-97.1792627,49.7279307],[-97.17939890000001,49.7618439],[-97.1783698,49.764327],[-97.1755014,49.7657198],[-97.1725641,49.7654876],[-97.170277,49.7675454],[-97.16734,49.7648207],[-97.163396,49.7632844],[-97.1618494,49.7617175],[-97.1578081,49.7606757],[-97.15685,49.7591196],[-97.1512909,49.7585997],[-97.15397139999999,49.7550245],[-97.1539391,49.7530128],[-97.1528665,49.7517326],[-97.14982409999999,49.7505461],[-97.1505333,49.7460913],[-97.1516599,49.7445496],[-97.1492879,49.74184969999999],[-97.1519319,49.7405934],[-97.1567723,49.741253],[-97.1574459,49.7388533],[-97.1594122,49.7361947],[-97.1689747,49.7330268],[-97.1695772,49.732265],[-97.1689768,49.7314974],[-97.1792627,49.7279307]]]},"properties":{"id":1654,"name":"Trappistes","cluster":"Fort Garry South"}},{"type":"Feature","geometry":{"type":"Polygon","coordinates":[[[-97.1374027,49.7424365],[-97.14597060000001,49.7550938],[-97.1523504,49.7637025],[-97.15105,49.7634901],[-97.1492806,49.7613105],[-97.14692740000001,49.7606445],[-97.146097,49.759415],[-97.1444648,49.7604135],[-97.1434018,49.7601578],[-97.14311269999999,49.7584726],[-97.1457719,49.757161],[-97.1455447,49.7561524],[-97.1433828,49.755668],[-97.1403936,49.7567978],[-97.1380434,49.7536779],[-97.1315989,49.7495851],[-97.1281558,49.7456376],[-97.1374027,49.7424365]]]},"properties":{"id":170,"name":"Turnbull Drive","cluster":"Fort Garry South"}},{"type":"Feature","geometry":{"type":"Polygon","coordinates":[[[-97.2383008,49.8674026],[-97.2101497,49.8662122],[-97.205992,49.8641544],[-97.20664750000002,49.857229],[-97.2221417,49.8570412],[-97.2391994,49.8582315],[-97.2383008,49.8674026]]]},"properties":{"id":62,"name":"Tuxedo","cluster":"Assiniboine South"}},{"type":"Feature","geometry":{"type":"Polygon","coordinates":[[[-97.1967207,49.8486157],[-97.1972939,49.8461434],[-97.2070031,49.8272328],[-97.2011368,49.8212363],[-97.2210797,49.8143692],[-97.2308626,49.8143901],[-97.2281877,49.8456608],[-97.1967207,49.8486157]]]},"properties":{"id":152,"name":"Tuxedo Industrial","cluster":"Assiniboine South"}},{"type":"Feature","geometry":{"type":"Polygon","coordinates":[[[-97.1951767,49.9459416],[-97.1951103,49.931207],[-97.2067577,49.9312128],[-97.2067591,49.92850989999999],[-97.212467,49.9314095],[-97.213212,49.9334369],[-97.218206,49.9359724],[-97.2182102,49.9385835],[-97.2233616,49.9385896],[-97.2251987,49.9395221],[-97.2240968,49.9404263],[-97.224096,49.9422654],[-97.2255907,49.9422663],[-97.2255969,49.9459486],[-97.1951767,49.9459416]]]},"properties":{"id":528,"name":"Tyndall Park","cluster":"Inkster West"}},{"type":"Feature","geometry":{"type":"Polygon","coordinates":[[[-97.1061431,49.9025866],[-97.0961437,49.9032369],[-97.0689524,49.8983449],[-97.0711654,49.8941736],[-97.0998259,49.899296],[-97.1072106,49.8992103],[-97.1061431,49.9025866]]]},"properties":{"id":986,"name":"Tyne-Tees","cluster":"River East South"}},{"type":"Feature","geometry":{"type":"Polygon","coordinates":[[[-97.1169103,49.810992],[-97.127429,49.8077034],[-97.1296967,49.80617849999999],[-97.15727969999999,49.7968307],[-97.1570395,49.8026681],[-97.1558798,49.804913],[-97.1418935,49.8096512],[-97.14400030000002,49.8105927],[-97.1369174,49.8130051],[-97.1318577,49.813209],[-97.124501,49.8164564],[-97.1215001,49.8169702],[-97.1182315,49.8162272],[-97.115894,49.8147392],[-97.1152491,49.8128086],[-97.1169103,49.810992]]]},"properties":{"id":104,"name":"University","cluster":"Fort Garry South"}},{"type":"Feature","geometry":{"type":"Polygon","coordinates":[[[-97.06670109999999,49.9611475],[-97.0843,49.9475762],[-97.0972552,49.9506202],[-97.0946712,49.9514494],[-97.0878067,49.9508542],[-97.08475879999999,49.9514244],[-97.08113770000001,49.9534107],[-97.0702941,49.9627449],[-97.06670109999999,49.9611475]]]},"properties":{"id":734,"name":"Valhalla","cluster":"River East West"}},{"type":"Feature","geometry":{"type":"Polygon","coordinates":[[[-97.0628783,49.9117082],[-97.08434229999999,49.9188336],[-97.0710081,49.9293706],[-97.0526765,49.923269],[-97.0628783,49.9117082]]]},"properties":{"id":766,"name":"Valley Gardens","cluster":"River East East"}},{"type":"Feature","geometry":{"type":"Polygon","coordinates":[[[-97.1119412,49.8524779],[-97.1123167,49.8577169],[-97.111007,49.8644057],[-97.103927,49.8553007],[-97.1119412,49.8524779]]]},"properties":{"id":130,"name":"Varennes","cluster":"St. Vital North"}},{"type":"Feature","geometry":{"type":"Polygon","coordinates":[[[-97.2655998,49.8678512],[-97.25812409999999,49.86848949999999],[-97.2498711,49.8680395],[-97.25073420000001,49.8586133],[-97.2675108,49.8592543],[-97.2670376,49.8644629],[-97.2655998,49.8678512]]]},"properties":{"id":27,"name":"Varsity View","cluster":"Assiniboine South"}},{"type":"Feature","geometry":{"type":"Polygon","coordinates":[[[-97.2492015,49.8739904],[-97.2497485,49.8680328],[-97.25812409999999,49.86848949999999],[-97.2655998,49.8678512],[-97.26530830000002,49.8710836],[-97.2634998,49.8719839],[-97.2596662,49.8717636],[-97.2492015,49.8739904]]]},"properties":{"id":1552,"name":"Vialoux","cluster":"Assiniboine South"}},{"type":"Feature","geometry":{"type":"Polygon","coordinates":[[[-97.1361315,49.8431512],[-97.1317059,49.8435636],[-97.1230821,49.8415247],[-97.1197248,49.8432415],[-97.1194334,49.8446654],[-97.1202922,49.8461195],[-97.1176323,49.8470333],[-97.116573,49.8446815],[-97.1181483,49.8419521],[-97.1177995,49.8407523],[-97.131878,49.8359175],[-97.137176,49.8401391],[-97.137517,49.8417636],[-97.1361315,49.8431512]]]},"properties":{"id":1372,"name":"Victoria Crescent","cluster":"St. Vital North"}},{"type":"Feature","geometry":{"type":"Polygon","coordinates":[[[-97.0025689,49.8950688],[-97.0253821,49.8952051],[-97.0254183,49.8984122],[-97.0162074,49.8983568],[-97.0162434,49.9007973],[-97.0026458,49.90071779999999],[-97.0025689,49.8950688]]]},"properties":{"id":160,"name":"Victoria West","cluster":"Transcona"}},{"type":"Feature","geometry":{"type":"Polygon","coordinates":[[[-97.1140116,49.8238461],[-97.1045563,49.8275517],[-97.100639,49.8227931],[-97.1078083,49.8203335],[-97.113262,49.8201731],[-97.1140116,49.8238461]]]},"properties":{"id":17,"name":"Vista","cluster":"St. Vital South"}},{"type":"Feature","geometry":{"type":"Polygon","coordinates":[[[-97.15824339999999,49.801468],[-97.1736493,49.802076],[-97.17376139999999,49.8084608],[-97.17697779999999,49.8133246],[-97.162013,49.8184105],[-97.1566811,49.818674],[-97.15824339999999,49.801468]]]},"properties":{"id":37,"name":"Waverley Heights","cluster":"Fort Garry South"}},{"type":"Feature","geometry":{"type":"Polygon","coordinates":[[[-97.1939358,49.795509],[-97.1875152,49.7976761],[-97.1837555,49.8004492],[-97.1778001,49.8024624],[-97.1736493,49.802076],[-97.173699,49.7912616],[-97.192275,49.78492],[-97.19412229999999,49.7889859],[-97.1939358,49.795509]]]},"properties":{"id":1720,"name":"Waverley West B","cluster":"Fort Garry South"}},{"type":"Feature","geometry":{"type":"Polygon","coordinates":[[[-97.1943645,49.8783625],[-97.1897402,49.8781394],[-97.18231379999999,49.8794733],[-97.1761075,49.8766359],[-97.1728136,49.8761588],[-97.1642725,49.8785476],[-97.1616965,49.8781977],[-97.1643061,49.8759839],[-97.1720081,49.8733503],[-97.1946978,49.8741863],[-97.1943645,49.8783625]]]},"properties":{"id":1482,"name":"Wellington Crescent","cluster":"River Heights West"}},{"type":"Feature","geometry":{"type":"Polygon","coordinates":[[[-97.17092679999999,49.9101205],[-97.1677155,49.9090947],[-97.1661451,49.9111097],[-97.1643567,49.9105385],[-97.1636292,49.91148959999999],[-97.1525633,49.9079388],[-97.1556516,49.904182],[-97.1418587,49.8997525],[-97.1441925,49.8966312],[-97.1521375,49.8981169],[-97.1520644,49.899153],[-97.1714356,49.9053061],[-97.17092679999999,49.9101205]]]},"properties":{"id":168,"name":"West Alexander","cluster":"Downtown East"}},{"type":"Feature","geometry":{"type":"Polygon","coordinates":[[[-97.1520656,49.8855139],[-97.1530638,49.8812734],[-97.15486089999999,49.8803037],[-97.1548316,49.8790834],[-97.1616965,49.8781977],[-97.1605232,49.8879916],[-97.15409419999999,49.8897336],[-97.1510628,49.88888509999999],[-97.15070449999999,49.886106],[-97.1520656,49.8855139]]]},"properties":{"id":41,"name":"West Broadway","cluster":"Downtown East"}},{"type":"Feature","geometry":{"type":"Polygon","coordinates":[[[-97.1962823,49.8229861],[-97.1924161,49.8182003],[-97.19081949999999,49.8186391],[-97.1846898,49.82071329999999],[-97.1855439,49.8217726],[-97.1799058,49.8236779],[-97.1835985,49.8273576],[-97.1803792,49.8297935],[-97.1796602,49.828684],[-97.1791948,49.8161061],[-97.17697779999999,49.8133246],[-97.1910068,49.8086394],[-97.2011368,49.8212363],[-97.1962823,49.8229861]]]},"properties":{"id":139,"name":"West Fort Garry Industrial","cluster":"Fort Garry North"}},{"type":"Feature","geometry":{"type":"Polygon","coordinates":[[[-97.1341804,49.9678433],[-97.1314919,49.9688377],[-97.1085845,49.9584107],[-97.11369440000001,49.9552356],[-97.1031574,49.9518249],[-97.10638,49.9496334],[-97.1410106,49.9608291],[-97.1341804,49.9678433]]]},"properties":{"id":662,"name":"West Kildonan Industrial","cluster":"Seven Oaks East"}},{"type":"Feature","geometry":{"type":"Polygon","coordinates":[[[-97.32537880000001,49.8381027],[-97.3283893,49.80896449999999],[-97.3491506,49.8090202],[-97.3466665,49.8371698],[-97.32537880000001,49.8381027]]]},"properties":{"id":29,"name":"West Perimeter South","cluster":"Assiniboine South"}},{"type":"Feature","geometry":{"type":"Polygon","coordinates":[[[-97.2030506,49.87683889999999],[-97.2048523,49.8796367],[-97.1941069,49.8815674],[-97.1943645,49.8783625],[-97.2030506,49.87683889999999]]]},"properties":{"id":1490,"name":"West Wolseley","cluster":"Downtown West"}},{"type":"Feature","geometry":{"type":"Polygon","coordinates":[[[-97.3127564,49.8470181],[-97.3243953,49.8475282],[-97.3236394,49.8558314],[-97.3258985,49.8659691],[-97.3111121,49.8627969],[-97.3127564,49.8470181]]]},"properties":{"id":1589,"name":"Westdale","cluster":"Assiniboine South"}},{"type":"Feature","geometry":{"type":"Polygon","coordinates":[[[-97.1951069,49.9238321],[-97.170222,49.9167792],[-97.1706868,49.9125102],[-97.1815219,49.9159803],[-97.1837253,49.9131086],[-97.1837214,49.90924],[-97.1896548,49.9111384],[-97.1951047,49.9163653],[-97.1951069,49.9238321]]]},"properties":{"id":497,"name":"Weston","cluster":"Inkster East"}},{"type":"Feature","geometry":{"type":"Polygon","coordinates":[[[-97.1951105,49.9313933],[-97.1666738,49.9226081],[-97.1697611,49.9211529],[-97.1698571,49.9202115],[-97.1585332,49.9166815],[-97.1607434,49.9138048],[-97.1951069,49.9238321],[-97.1951105,49.9313933]]]},"properties":{"id":25,"name":"Weston Shops","cluster":"Inkster East"}},{"type":"Feature","geometry":{"type":"Polygon","coordinates":[[[-97.289319,49.8726021],[-97.2903876,49.8637052],[-97.297831,49.8638808],[-97.31191659999999,49.8670694],[-97.3127936,49.8701869],[-97.31198940000002,49.8702456],[-97.3107864,49.8823026],[-97.30270050000001,49.8832198],[-97.29317,49.8817288],[-97.293946,49.8734314],[-97.29328249999999,49.8724237],[-97.289319,49.8726021]]]},"properties":{"id":1562,"name":"Westwood","cluster":"St. James-Assiniboia West"}},{"type":"Feature","geometry":{"type":"Polygon","coordinates":[[[-97.2011368,49.8212363],[-97.1915918,49.8093671],[-97.2196726,49.7997876],[-97.219652,49.8143661],[-97.2210797,49.8143692],[-97.2011368,49.8212363]]]},"properties":{"id":30,"name":"Whyte Ridge","cluster":"Fort Garry North"}},{"type":"Feature","geometry":{"type":"Polygon","coordinates":[[[-97.1239044,49.841533],[-97.1307409,49.8434367],[-97.1361315,49.8431512],[-97.1381256,49.8457359],[-97.1397396,49.8460179],[-97.1386839,49.8463751],[-97.1396569,49.8475788],[-97.1447182,49.8486368],[-97.1433249,49.8501354],[-97.1355981,49.8523691],[-97.1304739,49.8520741],[-97.121668,49.8474035],[-97.1195992,49.8451356],[-97.1194911,49.8437204],[-97.1204209,49.8425074],[-97.1239044,49.841533]]]},"properties":{"id":1364,"name":"Wildwood","cluster":"Fort Garry North"}},{"type":"Feature","geometry":{"type":"Polygon","coordinates":[[[-97.3283893,49.80896449999999],[-97.32527150000001,49.8391312],[-97.2833174,49.8404851],[-97.2281877,49.8456608],[-97.2308626,49.8143901],[-97.2536998,49.8144416],[-97.2536958,49.8124011],[-97.2765349,49.8124644],[-97.2765329,49.8106541],[-97.299377,49.8107058],[-97.29936269999999,49.8089029],[-97.3283893,49.80896449999999]]]},"properties":{"id":93,"name":"Wilkes South","cluster":"Assiniboine South"}},{"type":"Feature","geometry":{"type":"Polygon","coordinates":[[[-97.1564737,49.9193569],[-97.1526638,49.9242801],[-97.1310238,49.9173006],[-97.13266809999999,49.9116929],[-97.1564737,49.9193569]]]},"properties":{"id":83,"name":"William Whyte","cluster":"Point Douglas South"}},{"type":"Feature","geometry":{"type":"Polygon","coordinates":[[[-97.0495649,49.8560326],[-97.0841482,49.85589],[-97.0894314,49.8661886],[-97.0912099,49.8672388],[-97.0931921,49.8709878],[-97.0713207,49.8709975],[-97.05659329999999,49.8602049],[-97.0503073,49.8584919],[-97.0495649,49.8560326]]]},"properties":{"id":131,"name":"Windsor Park","cluster":"St. Boniface East"}},{"type":"Feature","geometry":{"type":"Polygon","coordinates":[[[-97.1943645,49.8783625],[-97.1941069,49.8815674],[-97.1713376,49.8850806],[-97.1605232,49.8879916],[-97.1616965,49.8781977],[-97.1642725,49.8785476],[-97.1728136,49.8761588],[-97.1761075,49.8766359],[-97.18231379999999,49.8794733],[-97.1897402,49.8781394],[-97.1943645,49.8783625]]]},"properties":{"id":1484,"name":"Wolseley","cluster":"Downtown West"}},{"type":"Feature","geometry":{"type":"Polygon","coordinates":[[[-97.2790573,49.8794753],[-97.2750664,49.878538],[-97.2740491,49.8772167],[-97.2712009,49.8760921],[-97.2697577,49.8734861],[-97.2663916,49.87276879999999],[-97.2657954,49.8719588],[-97.2728226,49.8696446],[-97.2775284,49.8700679],[-97.2802962,49.8694947],[-97.28006640000001,49.8715116],[-97.278173,49.8715616],[-97.27757779999999,49.8756906],[-97.2795829,49.8757853],[-97.2790573,49.8794753]]]},"properties":{"id":45,"name":"Woodhaven","cluster":"St. James-Assiniboia East"}},{"type":"Feature","geometry":{"type":"Polygon","coordinates":[[[-97.092873,49.8382566],[-97.1088924,49.8328043],[-97.1150459,49.830709],[-97.1124801,49.8370028],[-97.1123966,49.8418264],[-97.0977845,49.8468582],[-97.092873,49.8382566]]]},"properties":{"id":43,"name":"Worthington","cluster":"St. Vital North"}}],"_meta":{"source":"D:\\Dropbox\\Appraisal\\RProjects\\BaseFiles\\WpgNeighbourhoods.geojson","generated_at":"2026-05-19T15:33:12.463Z","neighbourhood_count":235}}